id|directory_name|parent|tie_line|address|mail_code|phone_type|phone_number
273606|ACADEMIC NURSE, THE|600|MC* 5-3742|630 W168St||OFFICE|212-305-3742
273609|ACCIDENTS  AND OTHER EMERGENCIES|600|||||
273612|ADMINISTRATION, EXECUTIVE VICE PRESIDENT FOR|600|MS* 4-2871|313 Low|4329|OFFICE|212-854-2871
273661|ADMINISTRATIVE PLANNING AND FINANCIAL MANAGEMENT|600|MS* 4- 1486|401 LOW|4337|OFFICE|212-854-1486
273665|ADMISSIONS|600|||||
273712|ADVOCATES FOR THE ARTS, COLUMBIA|600|MS* 4-2395|||OFFICE|212-854-2395
273714|AETNA US HEALTHCARE|600||||OFFICE|212-870-3074
273716|AFFIRMATIVE ACTION, OFFICE OF EQUAL OPPORTUNITY AND|600|MS* 4-5511|103 LOW|4333|OFFICE|212-854-5511
273718|AFRICAN-AMERICAN STUDIES, INSTITUTE FOR  RESEARCH IN|600|MS* 4-7080|758 SchrmExt|5512|OFFICE|212-854-7080
273722|AFRICAN STUDIES, INSTITUTE OF|600|MS* 4-4633|1103 IntAff|3331|OFFICE|212-854-4633
273726|ALCOHOL AND DRUG PROBLEM|600|||||
273730|ALTERNATIVE DISPUTE RESOLUTION SOCIETY|600||||OFFICE|212-854-2395
273732|ALUMNI ASSOCIATIONS|600|||||
273776|ALUMNI PARTNERSHIP PROGRAM|600|MS* 4-2446|403 Lerner|5727|OFFICE|212-854-2446
273780|AMBULANCE/EMERGENCIES|600|||||
273783|AMERICAN ARCHITECTURE, TEMPLE HOYNE BUELL  CENTER FOR THE STUDY OF|600|MS* 4-8165|3fl Buell|0362|OFFICE|212-854-8165
273784|AMERICAN ASSEMBLY, THE|600||475 RVSDDR, STE. 456|7742|OFFICE|212-870-3500
273788|AMERICAN CIVIL LIBERTIES UNION|600|MS* 4-2395|W&JWarren|4906|OFFICE|212-854-2395
273790|AMERICAN CONSTITUTION SOCIETY (LAW)|600|MS* 4-2395|W&JWarren|4906|OFFICE|212-854-2395
273792|AMERICAN HISTORIANS, SOCIETY OF|600|MS* 4-5943|603 Faywr|2538|OFFICE|212-854-5943
273793|AMERICAN INSTITUTE OF CHEMICAL ENGINEERS  (AICHE)|600|MS* 4-4453|801 SWMD|4721|OFFICE|212-854-4453
273794|AMERICAN INSTITUTE OF INDUSTRIAL ENGINEERS  (AIIE)|600|MS* 4-2942|313 SWMD|4704|OFFICE|212-854-2942
273795|AMERICAN INSTITUTE OF MINING ENGINEERS  (AIME)|600|MS* 4-2905|918 SWMd|4711|OFFICE|212-854-2905
273800|AMERICAN MUSEUM OF NATURAL HISTORY|600||CentralPkW at 79St (10024)||OFFICE|212-769-5100
273802|AMERICAN REVIEW OF INTERNATIONAL ARBITRATION|600|MS* 4-3971|201 WCWarren|4906|OFFICE|212-854-3971
273808|AMERICAN SOCIETY OF MECHANICAL ENGINEERS  (ASME)|600|MS* 4-3611|220 SWMD|4703|OFFICE|212-854-3611
273811|AMERICAN STUDIES PROGRAM|600|MS* 4-6698|418 HMLTN|2810|OFFICE|212-854-6698
273812|AMNESTY INTERNATIONAL|600|MS* 4-2395|W&JWarren|4906|OFFICE|212-854-2395
273814|ANATOMY AND CELL BIOLOGY DEPARTMENT|600|MC* 5-3451|622 W168ST (PH 1574)||OFFICE|212-305-3451
273819|ANESTHESIOLOGY DEPARTMENT|600||622 W168ST (PH 5-505)||OFFICE|212-305-3117
273824|ANTHROPOLOGY DEPARTMENT|600|MS* 4-4552|452 SchrmExt|5523|OFFICE|212-854-4552
273829|APPLIED MATHEMATICS|600|MS* 4-4457|||OFFICE|212-854-4457
273831|APPLIED PHYSICS AND APPLIED MATHEMATICS DEPARTMENT|600|||||
273866|APPLIED PUBLIC HEALTH, CENTER FOR  (PUBLIC HEALTH)|600|MC* 7-3616|600 W168St||OFFICE|212-305-3616
273867|ARCHAEOLOGY, CENTER FOR (CCA)|600|MS* 4-1390|961 SchrmExt|5518|OFFICE|212-854-1390
273873|ARCHITECTURAL SERVICES|600|MS* 4-6611|B230 ECampus|3407|OFFICE|212-854-6611
273877|ARCHITECTURE, PLANNING, AND PRESERVATION, GRADUATE SCHOOL OF|600|MS* 4-3414|400 Avery|0353|OFFICE|212-854-3414
273897|ARCHIVES, COLUMBIA UNIVERSITY|600|MS* 4-3786|210 Low|4316|OFFICE|212-854-3786
273907|ARMENIAN STUDIES, PROGRAM IN|600|MS* 4-2556|500B Kent|3928|OFFICE|212-854-2556
273908|ARMSTRONG FOUNDATION (E.E.)|600|MS* 4-3121|1300 SWMD|4712|OFFICE|212-854-3121
273909|ART HISTORY AND ARCHAEOLOGY DEPARTMENT|600|MS* 4-4505|826 Schrm|5517|OFFICE|212-854-4505
273928|ART HISTORY, ARCHAEOLOGY, AND HISTORIC PRESERVATION, MEDIA CENTER FOR|600|MS* 4-4606|653 SchrmExt|5518|OFFICE|212-854-4606
273947|ART PROPERTIES, OFFICE OF|600|MS* 4-2877|West Gallery, Low|4331|OFFICE|212-854-2877
273951|ARTHUR ROSS ARCHITECTURE GALLERY|600|MS* 4-3414|Buell||OFFICE|212-854-3414
273954|ARTIFICIAL ORGANS RESEARCH LAB  (CH.E.)|600|MS* 4-3007|1033 SWMD|4721|OFFICE|212-854-3007
273955|ARTS, COLUMBIA ADVOCATES FOR THE|600|MS* 4-2395|W&J WARREN 435 W116ST|4906|OFFICE|212-854-2395
273957|ARTS, COLUMBIA-VLA JOURNAL OF LAW AND THE|600|MS* 4-1607|424 W116St, Room 207 Mailing: 435 W116St;|4906|OFFICE|212-854-1607
273959|ARTS, KERNOCHAN CENTER FOR LAW, MEDIA, AND THE|600|MS* 4-7424|Mailing: 435 W116St;|4017|OFFICE|212-854-7424
273961|ARTS, SCHOOL OF THE|600|MS* 4-2875|305 Dodge|1803|OFFICE|212-854-2875
273985|ARTS EXCHANGE, CENTER FOR UNITED STATES-CHINA|600|CX* 4648|423 W118St||OFFICE|212-280-4648
273986|ASIAN AND MIDDLE EAST STUDIES, COMMITTEE ON|600|MS* 4-2569|500 Kent|3915|OFFICE|212-854-2569
273990|ASIAN AMERICAN STUDIES PROGRAM|600|MS* 4-0507|424 Hmltn,|2880|OFFICE|212-854-0507
273994|ASIAN LAW, COLUMBIA JOURNAL OF|600|MS* 4-5510|424 W116St, Room 206 Mailing: 435 W116St;|4906|OFFICE|212-854-5510
273996|ASIAN-PACIFIC AMERICAN LAW STUDENTS ASSOCIATION  (APALSA)|600|MS* 4-8352|Mailing: 435 W116St;|4906|OFFICE|212-854-8352
273997|ASTRONOMY DEPARTMENT|600|||||
274009|ASTROPHYSICS LAB, COLUMBIA  (ASTRONOMY/PHYSICS)|600|MS* 4-7815|1027 Pupin|5247|OFFICE|212-854-7815
274013|ATHLETICS|600|MS*4-2548|300 LEVEL PFCTR|1923|OFFICE|212-854-2548
274015|ATMOSPHERIC AND PLANETARY SCIENCE, INTERDEPARTMENTAL COMMITTEE  ON|600||640 ARMS|0206|OFFICE|212-678-5588
274016|AUDIOVISUAL SERVICES  (MEDICAL CENTER)|600|MC* 5-8356|PRES HOSP 20||OFFICE|212-305-8356
274028|AUDIOVISUAL SERVICES OFFICE  (MORNINGSIDE)|600||111 Math|4401|OFFICE|212-854-4176
274032|AUDIT, INTERNAL|600|||||
274040|AUDUBON BIOMEDICAL SCIENCE AND TECHNOLOGY PARK|600||3960 BWAY||OFFICE|212-851-5405
274043|BAHA' I ASSOCIATION (LAW)|600|MS* 4-2395|W&JWarren|4906|OFFICE|212-854-2395
274045|BAKER FIELD FIELDHOUSE|600||218St&Bway||OFFICE|212-942-0431
274046|BANK STREET COLLEGE OF EDUCATION|600||610 W112ST (10025)||OFFICE|212-875-4400
274053|BARTENDING CLASSES  (STUDENT ENTERPRISES)|600|MS* 4-4537|ECampus|5727|OFFICE|212-854-4537
274056|BERLIN CONSORTIUM FOR GERMAN STUDIES|600|MS* 4-2559|203 Lwsn|4119|OFFICE|212-854-2559
274057|BIOCHEMISTRY AND MOLECULAR BIOPHYSICS DEPARTMENT|600|HS* 5-3882|630 W168St, Box 36||OFFICE|212-305-3882
274059|BIOLOGICAL SAFETY OFFICER|600|HS* 5-6780|601 W168St, Ste 66||OFFICE|212-305-6780
274061|BIOLOGICAL SCIENCES DEPARTMENT|600|MS* 4-4581|600 Frchld|2402|OFFICE|212-854-4581
274072|BIOMEDICAL COMMUNICATIONS/AV|600|MC* 5-8357|Pres Hosp 20||OFFICE|212-305-8357
274075|BIOMEDICAL ENGINEERING DEPARTMENT|600|MS* 4-4460|351 ENGTER|8904|OFFICE|212-854-4460
274077|BIOMEDICAL SCIENCE AND TECHNOLOGY PARK, AUDUBON|600||3960 BWAY||OFFICE|212-851-5405
274080|BIOPHYSICS, MOLECULAR|600|MC*5-3882|630 W168ST, BOX 36||OFFICE|212-305-3882
274082|BIOPHYSICS, CELLULAR, PHYSIOLOGY  AND|600||630 W168ST, BOX 22||OFFICE|212-342-4766
274106|BIOSTATISTICS DEPARTMENT  (PUBLIC HEALTH)|600|MC* 5-9398|722  W168ST 6FL||OFFICE|212-305-9398
274107|BLACK ENGINEERS, NATIONAL SOCIETY OF  (NSBE)|600||540 SWMd||OFFICE|212-854-3611
274118|BLUE CROSS/BLUE SHIELD|600|IC* 3074|||OFFICE|212-870-3074
274120|BOARD OF MANAGERS (CC)|600|MS* 4-3600|||OFFICE|212-854-3600
274124|BOATHOUSE|600||218St&Bway||OFFICE|212-569-4080
274125|BOOKSTORE, UNIVERSITY|600|MS* 4-4131|Lerner||OFFICE|212-854-4131
274128|BOTWINICK GATEWAY LAB (SEAS)|600|MS* 4-4729|1220 SWMd||OFFICE|212-854-4729
274129|BROOKHAVEN NATIONAL LABORATORY|600||Upton, NY 11973||OFFICE|516-282-2123
274130|BUDDHIST STUDIES, CENTER FOR|600|MS* 1-4149|80 CLRMTAV , RM 303|9610|OFFICE|212-851-4149
274131|BUDGET, OFFICE OF MANAGEMENT AND|600|MS* 4-3200|635 W115ST|8122|OFFICE|212-854-3200
274132|BUELL CENTER FOR THE STUDY OF AMERICAN ARCHITECTURE|600|MS* 4-8165|3fl Buell|0362|OFFICE|212-854-8165
274135|BULK MAILING CENTER, COLUMBIA UNIVERSITY  (MAIL SERVICES)|600|MS* 4-6594|106 JRNL|3841|OFFICE|212-854-6594
274137|BULLETINS, COLUMBIA UNIVERSITY|600|||||
274142|BURSAR|600|MS*4-4206|210 KENT|9204|OFFICE|212-854-4206
274144|BUS SERVICE INFORMATION|600|||||
274148|BUSINESS, GRADUATE SCHOOL OF|600|MS* 4-5553|101 Uris|9142|OFFICE|212-854-5553
274226|BUSINESS LAW REVIEW, COLUMBIA|600|MS* 4-1605|424 W116St, Room 202 Mailing: 435 W116St;|4906|OFFICE|212-854-1605
274228|BUTLER HALL|600||400 W119St|8801|OFFICE|212-851-0200
274234|CALENDAR|600|||||
274238|CALLING CARD (AT&T)|600|||||
274241|COLUMBIA CAMPUS PAGES   (STUDENT ENTERPRISES)|600|MS* 4-4537|ECampus|5727|OFFICE|212-854-4537
274242|CAMPUS SECURITY|600|MS* 4-2796|111 Low|4301|OFFICE|212-854-2796
274246|CAMPUS TOURS|600|MS* 4-4900|213 Low|4318|OFFICE|212-854-4900
274247|CANCER CENTER, HERBERT IRVING COMPREHENSIVE|600|MC* 5-9327|PH 18 - 200 Box 67||OFFICE|212-305-9327
274252|CANCER RESEARCH, INSTITUTE OF|600|MC* 5-6900|701 W168St||OFFICE|212-305-6900
274254|CAREER COUNSELING|600|MS* 4-5609|ECampus|5727|OFFICE|212-854-5609
274255|CAREER DEVELOPMENT|600|MS* 4-5498|ECampus|5727|OFFICE|212-854-5498
274256|CAREER RESOURCE LIBRARY|600|MS* 4-5609|ECampus|5727|OFFICE|212-854-5609
274261|CARLETON LAB  (CIVIL ENGINEERING)|600|MS* 4-3158|161 EngTer|4709|OFFICE|212-854-3158
274266|CAVA (COLUMBIA UNIVERSITY EMERGENCY MEDICAL SERVICES)|600|||||
274268|CCNMTL|600|MS*4-9058|204A BUTLER|1130|OFFICE|212-854-9058
274270|CELL BIOLOGY, ANATOMY  AND, DEPARTMENT|600|MC* 5-3451|630 W168ST (PH 1574)||OFFICE|212-305-3451
274274|CELLULAR BIOPHYSICS PHYSIOLOGY AND, DEPARTMENT|600|MC* 5-0270|630 W168St, Box 22||OFFICE|212-305-0270
274276|CENTER FOR ADVANCED INFORMATION MANAGEMENT (CENTER FOR ADVANCED TECHNOLOGY)|600||630 W168ST, STE 1501-PH|||
274280|CENTER FOR ALTERNATIVE/COMPLEMENTARY MEDICINE, ROSENTHAL|600||630 W168ST, BOX 75 (MAIL)||OFFICE|212-342-0101
274286|CENTER FOR ARCHAEOLOGY|600|MS*4-1390|961 SCHRM EXT|5518|OFFICE|212-854-1390
274288|CENTER FOR BIOMEDICAL COMMUNICATIONS/AV|600|MC* 6-8357|Pres Hosp 20||OFFICE|212-305-8357
274292|CENTER FOR CAREER EDUCATION  (CCE)|600|MS* 4-5609|ECAMPUS|5727|OFFICE|212-854-5609
274318|CENTER FOR CHEMICAL RESEARCH|600|MS* 4-2202|Chndl/Hvmr||OFFICE|212-854-2202
274321|CENTER FOR CLIMATE SYSTEMS RESEARCH (CCSR)|600||2880 Bway (10025)|0205||
274327|CENTER FOR CLINICAL RESEARCH, HERBERT AND  FLORENCE IRVING|600|MC* 6-2071|630 W168St (PH 10-305)||OFFICE|212-305-2071
274329|INSTITUTE FOR COMPARATIVE LITERATURE AND SOCIETY|600|MS* 4-4541|Heyman Ctr|5700|OFFICE|212-854-4541
274335|CENTER FOR CONTEMPORARY MUSIC, FRITZ REINER   (SCHOOL OF THE ARTS)|600|MS* 4-1295|602 Dodge|1824|OFFICE|212-854-1295
274336|CENTER FOR CONTINUING EDUCATION IN THE HEALTH SCIENCES|600||630 W168St, Unit 39||OFFICE|212-781-5990
274342|CENTER FOR ENERGY, MARINE TRANSPORTATION, AND  PUBLIC POLICY|600|MS* 4-0602|1114 Int.Aff|3366|OFFICE|212-854-0602
274345|CENTER FOR ENVIRONMENTAL RESEARCH AND  CONSERVATION  (CERC)|600||10FL  SCHRMEXT|5556|OFFICE|212-854-8186
274354|CENTER FOR GERIATRICS AND GERONTOLOGY|600||100 HavenAv, Tower 3-30 F||OFFICE|212-781-0630
274357|CENTER FOR INTERNATIONAL EARTH SCIENCE INFORMATION NETWORK (CIESIN)|600||Lmnt-Doh, Palisades, NY 10964||OFFICE|845-365-8988
274359|CENTER ON  INTERNATIONAL ORGANIZATION|600|MS* 4-1794|||OFFICE|212-854-1794
274362|CENTER FOR IRANIAN STUDIES|600||450 RvsdDr, Apt. 4|3946|OFFICE|212-851-5723
274368|CENTER FOR JAZZ STUDIES|600|MS* 1-1633|PRINTIS, 4 FL MAILING 602 PHILOS|4927|OFFICE|212-851-1633
274375|CENTER FOR LAW, MEDIA, AND THE ARTS, KERNOCHAN|600|MS* 4-7424|737 Greene, Box A-17|4017|OFFICE|212-854-7424
274383|CENTER FOR MENOPAUSE AND HORMONAL DISORDERS|600||16 E60St (10022)||OFFICE|212-326-8548
274385|CENTER FOR MOLECULAR RECOGNITION|600|HS* 5-3973|630 W168St (P&S 11-401)||OFFICE|212-305-3973
274389|CENTER FOR NEUROBIOLOGY AND BEHAVIOR|600||722 W168ST, KOLB ANNEX, RM 865|||
274394|CENTER FOR NEW MEDIA TEACHING AND LEARNING, COLUMBIA|600|MS*4-9058|204A BUTLER|1130|OFFICE|212-854-9058
274399|CENTER FOR PSYCHOANALYTIC TRAINING AND RESEARCH|600||1051 RvsdDr||OFFICE|212-927-5000
274403|CENTER FOR REPRODUCTIVE SCIENCES|600|MC* 5-3711|630 W168St, 16th fl||OFFICE|212-305-3711
274408|CENTER FOR THE SOCIAL SCIENCES, LAZARSFELD|600|MS* 4- 3081|820 INTAFF|3355|OFFICE|212-854-3081
274410|CENTER FOR THE STUDY OF AMERICAN ARCHITECTURE, TEMPLE HOYNE BUELL|600|MS* 4-8165|3fl Buell|0362|OFFICE|212-854-8165
274411|CENTER FOR THE STUDY OF ETHNICITY AND RACE|600|MS* 4-0507|424 Hmltn,|2880|OFFICE|212-854-0507
274413|CENTER FOR THE STUDY OF HUMAN RIGHTS|600|MS* 4-2479|1108 IntAff|3365|OFFICE|212-854-2479
274416|CENTER FOR THE STUDY OF SOCIAL WORK PRACTICE  (SSW)|600|MS* 1-2266|1255 AMSTAV, ROOM 1115|4600|OFFICE|212-851-2266
274417|CENTER FOR THE STUDY OF SOCIETY AND MEDICINE|600|MC* 5-4184|630 W168ST, P & S BOX 11||OFFICE|212-305-4184
274419|CENTER FOR THE STUDY OF SCIENCE AND RELIGION|600|MS* 1-1673|3041 BROADWAY NEW YORK, NEW YORK 10027|9601|OFFICE|212-851-1673
274424|CENTER FOR THEATRE STUDIES, HAMMERSTEIN   (SCHOOL OF THE ARTS)|600|MS* 4-3408|601 Dodge|1807|OFFICE|212-854-3408
274425|CENTER FOR TURKISH STUDIES|600|MS* 4-4766|616 Kent|3932|OFFICE|212-854-4766
274428|CENTER FOR UNITED STATES CHINA ARTS EXCHANGE|600||423 W118St||OFFICE|212-280-4648
274432|CENTER FOR WOMEN S HEALTH|600||16 E60ST STE 321  (10022)||OFFICE|212-326-8540
274437|CENTER FOR WOMEN' S REPRODUCTIVE CARE|600||1790 Bway, 2fl (10019)||OFFICE|646-756-8282
274439|CENTER OF JAPANESE CULTURE, DONALD KEENE|600|MS* 4-5036|507 Kent|3920|OFFICE|212-854-5036
274443|CENTER ON EAST CENTRAL EUROPE|600|HS* 4-4627|1227 IntAff|3336|OFFICE|212-854-4627
274448|CENTER ON WESTERN EUROPE|600|MS* 4-4627|1227 IntAff|3336|OFFICE|212-854-4627
274451|CENTRAL MAIL ROOM|600||101 SERVBLDG|5701|OFFICE|212-854-2081
274453|CHAMBER MUSIC|600||618 DODGE|1813|OFFICE|212-854-1257
274455|CHAPLAIN, UNIVERSITY CHAPLAIN S OFFICE|600||303 EARL HALL||OFFICE|212-854-1493
274458|CHARLES H. REVSON FELLOWS PROGRAM ON THE FUTURE OF THE CITY OF NEW YORK|600||||OFFICE|212-280-4023
274460|CHEMICAL ENGINEERING|600|MS* 4-4453|801 SWMD|4721|OFFICE|212-854-4453
274472|CHEMICAL ENGINEERS, AMERICAN INSTITUTE OF  (AICHE)|600|MS* 4-4453|801 SWMD|4721|OFFICE|212-854-4453
274474|CHEMISTRY DEPARTMENT|600|MS* 4-2202|344 Hvmr|3178|OFFICE|212-854-2202
274514|CHIANG CHING-KUO (CCK) FOUNDATION CENTER FOR CHINESE CULTURAL AND INSTITUTIONAL|600|MS* 4-6503|406 Kent|3907|OFFICE|212-854-6503
274516|CHILD ADVOCACY CLINIC|600|CX* 8295|1127 AmstAv, Box D-6 Law|4074|OFFICE|212-280-8295
274517|CHILDREN IN POVERTY, NATIONAL CENTER FOR  (PUBLIC HEALTH)|600||215 W125ST, 3FL||OFFICE|646-284-9600
274518|CHINESE LAW, COLUMBIA JOURNAL OF|600||||OFFICE|212-854-5510
274520|CHINESE LEGAL STUDIES, CENTER FOR|600|MS* 4-3655|624 Greene, Box A-11|4012|OFFICE|212-854-3655
274521|CHINESE STUDIES|600|MS* 4-6503|406 KENT|3907|OFFICE|212-854-6503
274523|CHRISTIAN LEGAL SOCIETY|600|MS* 4-2395|W&JWarren|4906|OFFICE|212-854-2395
274525|CIESIN (CENTER FOR INTERNATIONAL EARTH SCIENCE INFORMATION NETWORK)|600||Lmnt-Doh, Palisades, NY 10964||OFFICE|845-365-8988
274527|CIGNA HEALTH CARE (POINT-OF SERVICE, MODIFIED INDEMNITY, RETIREE MEDICAL)|600||||OFFICE|212-870-3074
274529|CITIBANK ON CAMPUS|600||2ND FLOOR LERNER||OFFICE|212-663-2179
274531|CIVIL ENGINEERING AND ENGINEERING MECHANICS DEPARTMENT|600|MS* 4-3143|610 SWMd|4709|OFFICE|212-854-3143
274539|CIVIL ENGINEERS, AMERICAN SOCIETY OF   (ASCE STUDENT CHAPTER)|600|MS* 4-3143|610 SWMd|4709|OFFICE|212-854-3143
274542|CIVIL RIGHTS LAW SOCIETY (LAW)|600|MS* 4-2395|W&JWarren|4906|OFFICE|212-854-2395
274546|CLASSICAL TRADITION, COLUMBIA STUDIES IN THE|600|MS* 4-3702|624 Faywr|2861|OFFICE|212-854-3702
274547|CLASSICS DEPARTMENT  (GREEK AND LATIN)|600|MS* 4-3902|617 Hmltn|2861|OFFICE|212-854-3902
274549|CLIMATE CENTER|600||Lmnt-Doh||OFFICE|845-365-8300
274550|CLIMATES, OCEANS AND, DIVISION,|600||Lmnt-Doh||OFFICE|845-365-8518
274551|CLINICAL EDUCATION|600|MS* 4-4291|8E14 Law, Box C-16|4061|OFFICE|212-854-4291
274552|CLINICAL RESEARCH, HERBERT AND FLORENCE IRVING CENTER FOR|600|MC* 5-2071|630 W168St (PH 10-305)||OFFICE|212-305-2071
274556|COALITION FOR LEGAL RECRUITMENT (COLR) (LAW)|600|MS* 4-2395|W&JWarren|4906|OFFICE|212-854-2395
274558|COALITION FOR A SAFER SCHOOL AND  WORKPLACE (CSSAW)|600|MS* 4-2395|W&JWarren|4906|OFFICE|212-854-2395
274560|COAST  (NY/NJ CLEAN OCEAN AND SHORE TRUST)|600|MS* 4-2910|838 SWMd|4711|OFFICE|212-854-2910
274562|COLLEGE OF PHYSICIANS AND SURGEONS|600|MC* 5-3545|630 W168St||FAX|212-305-3545
274588|COLLEGE TUITION SCHOLARSHIPS FOR OFFICERS  CHILDREN|600|IC* 3074|1901 INTERCHURCH|7705|OFFICE|212-870-3074
274590|COLOR COPYING AND PRINTING|600||||OFFICE|212-854-3233
274592|COLUMBIA, A MAGAZINE OF POETRY AND PROSE|600|MS* 4-4391|415 Dodge|1804|OFFICE|212-854-4391
274593|COLUMBIA THE MAGAZINE OF COLUMBIA UNIVERSITY|600|MS* 1-4155|964 Interchurch|7721|OFFICE|212-851-4155
274594|COLUMBIA ASTROPHYSICS LAB  (ASTRONOMY/PHYSICS)|600|MS* 4-7815|1027 Pupin|5247|OFFICE|212-854-7815
274599|COLUMBIA BUSINESS LAW REVIEW|600|MS* 4-1605|424 W116St, Room 202 Mailing: 435 W116St;|4906|OFFICE|212-854-1605
274602|COLUMBIA CENTER FOR INTEGRATED SCIENCE AND ENGINEERING (COLUMBIA RADIATION LAB)|600|MS* 4-3265|1001 SchapCtrEng|8903|OFFICE|212-854-3265
274612|COLUMBIA CENTER FOR NEW MEDIA TEACHING AND LEARNING (CCNMTL)|600||204A Butler|1130|OFFICE|212-854-9059
274624|COLUMBIA CIVIL RIGHTS LAW SOCIETY|600|MS* 4-2395|W&JWarren|4906|OFFICE|212-854-2395
274626|COLUMBIA UNIVERSITY CLUB OF NEW YORK|600||15 W43St (10036)||OFFICE|212-719-0380
274627|COLUMBIA COALITION FOR LIFE|600|MS* 4-2395|W&JWarren|4906|OFFICE|212-854-2395
274629|COLUMBIA COLLEGE|600|||||
274694|COLUMBIA DIGITAL KNOWLEDGE VENTURES|600||330 5THAV, 12FL (10001)|4322|OFFICE|212-851-2800
274698|COLUMBIA GREENHOUSE NURSERY SCHOOL|600||404 W116St|8850|OFFICE|212-666-4796
274700|COLUMBIA GUIDE TO NEW YORK   (STUDENT ENTERPRISES)|600|MS* 4- 2804|ECampus|5727|OFFICE|212-854-2804
274701|COLUMBIA HOUSING ASSISTANCE PROGRAM (CHAP)|600|IC* 3251|1901 Interchurch|7705|OFFICE|212-870-3251
274704|COLUMBIA HUMAN RIGHTS LAW REVIEW|600|MS* 4-1601|424 W116St, Room 106 Mailing: 435 W116St;|4906|OFFICE|212-854-1601
274710|COLUMBIA JOURNAL OF ASIAN LAW|600|MS* 4-5510|424 W116St, Room 206;  Mailing: 435 W116St|4906|OFFICE|212-854-5510
274712|COLUMBIA JOURNAL OF EAST EUROPEAN LAW|600|MS* 4-2268|424 W116St Mailing: 435W116St;|4906|OFFICE|212-854-2268
274714|COLUMBIA JOURNAL OF ENVIRONMENTAL LAW|600|MS* 4-1606|424 W116St, Room 300 Mailing: 435 W116St;|3513|OFFICE|212-854-1606
274716|COLUMBIA JOURNAL OF EUROPEAN LAW|600|MS* 4-5811|Greene Mailing: 435 W116St;|4906|OFFICE|212-854-5811
274718|COLUMBIA JOURNAL OF GENDER AND LAW|600|MS* 4-1602|424 W116St, Room 103 Mailing: 435 W116St;|4906|OFFICE|212-854-1602
274720|COLUMBIA JOURNAL OF LAW AND SOCIAL PROBLEMS|600|MS* 4-1603|424 W116St, Room 102 Mailing: 435 W116St;|4906|OFFICE|212-854-1603
274722|COLUMBIA JOURNAL OF TRANSNATIONAL LAW|600|MS* 4-1604|424 W116St, Room 201 Mailing: 435 W116St;|4906|OFFICE|212-854-1604
274728|COLUMBIA LATIN AMERICAN BUSINESS LAW ASSOCIATION (CLABLA)|600|MS* 4-2395|W&JWarren|4906|OFFICE|212-854-2395
274730|COLUMBIA LAW ANIMAL WELFARE SOCIETY|600|MS* 4-2395|W&JWarren|4906|OFFICE|212-854-2395
274732|COLUMBIA LAW  ALUMNI DIRECTORY|600|MS* 4- 8241|710 W&JWarren Mailing: 435 W116St, Box A-2;|4003|OFFICE|212-854-8241
274734|COLUMBIA LAW OUTDOORS ASSOCIATION|600|MS* 4-2395|W&JWarren|4906|OFFICE|212-854-2395
274736|COLUMBIA LAW REPORT|600|MS* 4-2156|710 W&JWarren Mailing: 435 W116St, Box A-2;|4003|OFFICE|212-854-2156
274738|COLUMBIA LAW REVIEW|600|MS* 4-4398|WCWarren (410 W116St) Mailing: 435 W116St, Box A-2|4025|OFFICE|212-854-4398
274739|COLUMBIA LAW SCHOOL FILM SOCIETY|600|MS* 4-2395|W&JWarren|4906|OFFICE|212-854-2395
274741|COLUMBIA LAW SCHOOL NEWS|600|MS* 4-5833|320B ECampus Mailing: 435 W116St;|4906|OFFICE|212-854-5833
274744|COLUMBIA LAW SOCCER CLUB|600|MS* 4-2395|W&JWarren|4906|OFFICE|212-854-2395
274746|COLUMBIA LAW SCHOOL YOGA CLUB|600|MS* 4-2395|W&JWarren|4906|OFFICE|212-854-2395
274748|COLUMBIA LAW SCHOOL SOCIETY FOR KARAOKE|600|MS* 4-2395|W&JWarren|4906|OFFICE|212-854-2395
274750|COLUMBIA LAW SOFTBALL CLUB|600|MS* 4-2395|W&JWarren|4906|OFFICE|212-854-2395
274752|COLUMBIA LAW WOMEN S ASSOCIATION|600|MS* 4-2395|W&JWarren|4906|OFFICE|212-854-2395
274754|COLUMBIA LL.M. ASSOCIATION (LAW)|600|MS* 4-2395|W&JWarren|4906|OFFICE|212-854-2395
274756|COLUMBIA MAGAZINE|600|MS* 1-4155|964 Interchurch|7721|OFFICE|212-851-4155
274760|COLUMBIA ORCHESTRA FOR ASIAN MUSIC|600|MS* 4-4909|401 Lerner|2602|OFFICE|212-854-4909
274762|COLUMBIA POWER LUNCH, EVERYBODY WINS|600|||||
274766|COLUMBIA PUBLISHING COURSE|600|||||
274771|COLUMBIA SCHOLASTIC PRESS ASSOCIATION|600|||||
274775|COLUMBIA SCIENCE AND TECHNOLOGY LAW REVIEW|600|MS* 4-2395|W&JWarren|4906|OFFICE|212-854-2395
274777|COLUMBIA SOCIETY OF CINCINNATUS (LAW)|600|MS* 4-2395|W&JWarren|4906|OFFICE|212-854-2395
274779|COLUMBIA SOCIETY OF INTERNATIONAL LAW|600|MS* 4-2395|W&JWarren|4906|OFFICE|212-854-2395
274783|COLUMBIA STUDIES IN THE CLASSICAL TRADITION|600|MS* 4-3702|624 Faywr|2861|OFFICE|212-854-3702
274788|COLUMBIA TENNIS CENTER|600||575 W218St||OFFICE|212-942-7100
274791|COLUMBIA UNIVERSITY ARCHIVES|600|MS* 4-3786|210 Low|4316|OFFICE|212-854-3786
274793|COLUMBIA UNIVERSITY DIRECTORY|600|||||
274795|COLUMBIA UNIVERSITY EMERGENCY MEDICAL SERVICE (CAVA)|600|||||
274797|COLUMBIA UNIVERSITY HEALTH SERVICES|600|||||
274800|COLUMBIA UNIVERSITY BULK MAILING CENTER  (MAIL SERVICES)|600||106 JRNL|3841|OFFICE|212-854-6594
274802|COLUMBIA UNIVERSITY MORNINGSIDE DENTAL ASSOCIATES|600||1244  AMSTAV (AT W121ST)||OFFICE|212-865-8467
274803|COLUMBIA UNIVERSITY OFFICE OF INSTITUTIONAL REAL ESTATE|600||400 W119St|8801||
274807|COLUMBIA UNIVERSITY OFFICE OF INVESTMENTS|600|MS* 1-2030|405 LEXINGTON AVE., 63FL (10174)|7715|OFFICE|212-851-2030
274809|COLUMBIA UNIVERSITY OFFICE OF UNIVERSITY APARTMENT HOUSING|600||400 W119St|8801||
274811|COLUMBIA UNIVERSITY PRESS|600||61 W62St (10023)||OFFICE|212-459-0600
274814|COLUMBIA UNIVERSITY RECORD|600|MS* 4-3283|402 LOW|4321|OFFICE|212-854-3283
274817|COLUMBIA UNIVERSITY SEMINARS ON MEDIA AND SOCIETY|600||||OFFICE|212-854-8995
274819|COLUMBIA UNIVERSITY STUDENT DENTAL PLAN|600||1242-44 AmstAv (at W121St)||OFFICE|212-865-8467
274820|COLUMBIA-VLA JOURNAL OF LAW AND THE ARTS|600|MS* 4-1607|424 W116St, Rm 207|4906|OFFICE|212-854-1607
274822|COLUMBIA WORKERS RIGHTS COALITION (LAW)|600|MS* 4-2395|W&JWarren|4906|OFFICE|212-854-2395
274824|COLUMBIAD  (UNIVERSITY ADVERTISING AGENCY)|600|MS* 4-9511|2929 Bway, 3fl|6601|OFFICE|212-854-9511
274826|COLUMBIAN, THE|600|MS* 4-3611|505 LERNER|2602|OFFICE|212-854-3611
274830|COLUMBIANA|600|MS* 4-3786|210 Low|4316|OFFICE|212-854-3786
274831|COLUMBIANET/COLUMBIAWEB ASSISTANCE|600|||||
274834|COMMENCEMENT INFORMATION|600|MS* 4-1753|EARL HALL|7720|OFFICE|212-854-1753
274835|COMMITTEE ON ART PROPERTIES|600|MS* 4-2877|West Gallery, Low|4331|OFFICE|212-854-2877
274836|COMMUNICATIONS SERVICES (CUIT)|600|MS* 4-6251|115 CmptrCtr|1685|OFFICE|212-854-6251
274846|COMMUNITY AFFAIRS, OFFICE OF|600|MS* 4-4469|302 LOW|4319|OFFICE|212-854-4469
274847|COMMUNITY DEVELOPMENT CLINIC|600|MS* 4-4291|8E14 Greene, Box C-16|4061|OFFICE|212-854-4291
274848|COMMUNITY IMPACT|600|MS* 4-1492|105 Earl|2010|OFFICE|212-854-1492
274883|COMMUNITY LAWYERING PROJECT|600|MS* 4-2395|W&JWarren|4906|OFFICE|212-854-2395
274885|COMPARATIVE LITERATURE AND SOCIETY,  INSTITUTE FOR|600|MS* 4-4541|Heyman Ctr|5700|OFFICE|212-854-4541
274888|COMPARATIVE MEDICINE, INSTITUTE OF|600|MC* 5-3837|650 W168St (BB 1810)||OFFICE|212-305-3837
274890|COMPLEMENTARY/ALTERNATIVE MEDICINE, ROSENTHAL CENTER FOR|600||630 W168ST, P&S BOX 75 (MAIL)||OFFICE|342-0101
274892|COMPUTATIONAL OPTIMIZATION RESEARCH CENTER  (CORC)|600|MS* 4-2385|821 SchapCtrEng|4704|OFFICE|212-854-2385
274894|COMPUTER MUSIC CENTER  (MUSIC DEPARTMENT )|600|MS* 4-9266|318 Prntis|5002|OFFICE|212-854-9266
274895|COMPUTER SALES: J&R @ COLUMBIA|600|MS* 4-8108|101 PHILOS|4926|OFFICE|212-854-8108
274898|COMPUTER SCIENCE DEPARTMENT|600||450 CmptrSci|0401|OFFICE|212-939-7000
274907|COMPUTING ACTIVITIES, CENTER FOR|600||||OFFICE|212-854-1919
274909|COMPUTING HELP DESK|600|||||
274912|COMPUTING SEMINARS|600|||||
274914|CONFERENCE CENTER, KELLOGG|600||15fl IntAff|3328||
274917|CONFERENCE HOUSING  (STUDENT SERVICES: HOUSING AND DINING SERVICES)|600|MS* 4-2775|118 HRTLY|3003|OFFICE|212-854-2775
274918|CONFLICT RESOLUTION EXPLORATION WINDOW (CREW)|600|MS* 4-2395|W&JWarren|4906|OFFICE|212-854-2395
274920|CONFERENCE SERVICES (LERNER HALL)|600|MS* 4-9068|7fl Lerner|2603|OFFICE|212-854-9068
274922|CONFLICT RESOLUTION EXPLORATION WINDOW (CREW) (LAW)|600|MS* 4-2395|W&JWarren|4906|OFFICE|212-854-2395
274924|CONSERVATION OF HUMAN RESOURCES, EISENHOWER CENTER FOR THE|600|||||
274927|CONSTRUCTION, DESIGN AND , DEPARTMENT OF|600|MS* 4-3214|B230 ECampus|3407|OFFICE|212-854-3214
274928|CONSTRUCTION/FACILITIES SAFETY OFFICER|600|MS* 4-8048|350 ENGTER|2215|OFFICE|212-854-8048
274929|CONTEMPORARY CIVILIZATION OFFICE  (CC)|600|MS* 4-2453|202 HMLTN|2811|OFFICE|212-854-2453
274931|CONTINUING EDUCATION, SCHOOL OF|600|||||
274962|CONTINUING EDUCATION IN THE HEALTH SCIENCES,  CENTER FOR|600|HS*5-3334|630 W168St, unit 39  (P&S Box 39)||OFFICE|212-305-3334
274964|CONTRACT ACCOUNTING|600|MS* 4-1037|1700 BWAY 10TH FL|7409|OFFICE|212/854-1037
274966|CONTROLLER|600|MS* 2810|1700 BWAY 10FL|3206|OFFICE|212-854-2810
274974|COUNCIL FOR EUROPEAN STUDIES|600|MS* 4-4172|420 WEST 118 ST|3310|OFFICE|212-854-4172
274982|CREDIT CALLING CARD (AT&T)|600|||||
274987|CROSS-NATIONAL STUDIES RESEARCH PROGRAM (SSW)|600|MS* 1-2269|1255 AMST AV|4600|OFFICE|212-851-2269
274988|CTV (TELEVISION STATION)|600|MS* 4-8900|510 LERNER|2602|OFFICE|212-854-8900
274994|CULTURAL, SCIENTIFIC, AND MEDIA RESOURCES GROUP|600|||||
274996|CURRENT MUSICOLOGY|600|MS* 4-1632|614 Dodge|1812|OFFICE|212-854-1632
274997|CURRIER FUND, STERLING|600|MS* 4-3813|408 Low|4336|OFFICE|212-854-3813
274998|CUSTODIAL SERVICES|600||||OFFICE|212-854-8256
275000|CZECH (SLAVIC LANGUAGES)|600|MS* 4-3941|708 Hmltn|2839|OFFICE|212-854-3941
275002|DAG HAMMARSKJOLD LOUNGE|600||1501 INTAFF|||
275005|DE VINIMUS  (WINE-TASTING SOCIETY)|600|MS* 4-2395|W&JWarren|4906|OFFICE|212-854-2395
275009|DEAN'S CUP (LAW)|600|MS* 4-2395|W&JWarren|4906|OFFICE|212-854-2395
275011|DENTAL AND ORAL SURGERY, SCHOOL OF|600||630 W168St|||
275021|DENTAL PLAN, STUDENT|600||||OFFICE|212-865-8467
275023|DERMATOLOGY DEPARTMENT|600|||||
275041|DESIGN AND CONSTRUCTION , DEPARTMENT OF|600|MS* 4-3214|B-230 ECampus|3407|OFFICE|212-854-3214
275042|DEUTSCHES HAUS|600|MS* 4-1858|420 W116St|2812|OFFICE|212-854-1858
275044|DEVELOPMENT, HEALTH SCIENCES DIVISION|600|MC* *8-7200|100 Haven, 29D||OFFICE|212-304-7200
275046|DEVELOPMENT AND ALUMNI RELATIONS, UNIVERSITY|600|MS* 1-7800|622 W 113 ST NY, NY 10025||OFFICE|212-851-7800
275048|DEVELOPMENT PROGRAMS|600|||||
275068|DIGITAL COPYING|600||||OFFICE|212-854-3233
275070|DIGITAL KNOWLEDGE VENTURES, COLUMBIA|600||330 5thAv, 12fl (10001)|4322|OFFICE|212-851-2800
275075|DINING SERVICES|600||||OFFICE|212-854-2782
275077|DIRECTORY, COLUMBIA UNIVERSITY|600|MS* 4-0000|115 COMPUTER CENTER||OFFICE|212-854-0000
275082|DISABILITY SERVICES, OFFICE OF|600|MS* 4-2388|802 Lerner|2605|OFFICE|212-854-2388
275085|DISSERTATION DEFENSE AND DEPOSIT|600|MS* 4-2866|107 Low|4304|OFFICE|212-854-2866
275088|DOMESTIC VIOLENCE PROJECT|600|MS* 4-7224|202B ECampus|4906|OFFICE|212-854-7224
275090|DONALD KEENE CENTER OF JAPANESE CULTURE|600|MS* 4-5036|507 Kent|3920|OFFICE|212-854-5036
275092|DORMITORIES|600||||OFFICE|212-854-2775
275094|DOUBLE DISCOVERY CENTER (CC)|600|MS* 4-3897|306 Lerner|2604|OFFICE|212-854-3897
275098|DRUG AND ALCOHOL PROBLEM|600|||||
275100|DUAL DEGREE COMMITTEE: JD/MBA (LAW)|600|MS* 4-2395|W&JWarren|4906|OFFICE|212-854-2395
275103|DUTCH STUDIES|600||||OFFICE|212-854-1856
275105|EARL HALL CENTER  (EARL HALL AND ST. PAUL S CHAPEL)|600|MS* 4-6242|203 Earl|2008|OFFICE|212-854-6242
275129|EARTH AND ENVIRONMENTAL SCIENCES DEPARTMENT|600|||||
275138|EARTH ENGINEERING CENTER|600|MS* 4-2905|1047 SWMd|4711|OFFICE|212-854-2905
275143|EARTH INSTITUTE AT COLUMBIA UNIVERSITY, THE|600|MS* 4-1984|405 Low|4335|OFFICE|212-854-1984
275145|EARTH RESOURCES ENGINEERING|600||||OFFICE|212-854-2905
275149|WEATHERHEAD EAST ASIAN INSTITUTE|600|MS* 4-2592|914 IntAff|3333|OFFICE|212-854-2592
275150|EAST ASIAN LANGUAGES AND CULTURES DEPARTMENT|600||||FAX|212-678-8629
275169|EAST CENTRAL EUROPE, CENTER ON|600|MS* 4-4627|1227 IntAff|3336|OFFICE|212-854-4627
275172|ECOLOGY, EVOLUTION AND ENVIRONMENTAL BIOLOGY, DEPARTMENT OF|600|MS* 4-9987|SCHRMEXT 10FL|5557|OFFICE|212-854-9987
275174|ECONOMIC POLICY MANAGEMENT, PROGRAM IN|600|MS* 4-6982|1303 INTAFF|3332|OFFICE|212-854-6982
275175|ECONOMICS DEPARTMENT|600|MS* 4-3680|1022 IntAff|3308|OFFICE|212-854-3680
275191|ELECTRICAL ENGINEERING DEPARTMENT|600|||||
275233|ELECTRONIC DATA SERVICE (EDS)|600|MS* 4-6012|201 IntAff|3301|OFFICE|212-854-6012
275234|ELECTRONIC MAIL|600|||||
275238|ELECTRONIC PUBLISHING INITIATIVE AT COLUMBIA (EPIC)|600|MS* 4-0164|507 BTLR|1103|OFFICE|212-854-0164
275239|ELECTRONIC TEXT SERVICE (ETS)|600|MS* 4-7547|305 Butler|1126|OFFICE|212-854-7547
275240|EMERGENCIES/AMBULANCE|600|||||
275243|EMPLOYER RELATIONS|600||ECampus|5727||
275246|EMPLOYMENT|600|||||
275260|ENERGY, MARINE TRANSPORTATION, AND PUBLIC POLICY, CENTER FOR|600|MS* 4-0602|1114 IntAff|3366|OFFICE|212-854-0602
275261|ENGINEERING AND APPLIED SCIENCE, THE FU FOUNDATION SCHOOL OF|600|MS* 4-2993|510 SWMd|4714|OFFICE|212-854-2993
275335|ENGINEERING COMMUTER ORGANIZATION|600|MS* 4-3611|530 SWMd|4708|OFFICE|212-854-3611
275336|ENGINEERING NEWS, COLUMBIA|600|MS* 4-7622|510 SWMd|4718|OFFICE|212-854-7622
275337|ENGLISH AND COMPARATIVE LITERATURE, DEPARTMENT  OF|600|MS* 4-3215|602 Philos|4927|OFFICE|212-854-3215
275340|ENGLISH FOR FOREIGN STUDENTS  (AMERICAN LANGUAGE PROGRAM)|600|MS* 4-3584|504 Lwsn|4113|OFFICE|212-854-3584
275341|ENTERPRISE MANAGEMENT, CENTER FOR|600|MS* 4-3470|311 Uris||OFFICE|212-854-3470
275343|ENTERTAINMENT, ARTS, AND SPORTS LAW SOCIETY  (EASLS)|600|MS* 4-2395|W&JWarren;  Mailing: 435 W116St|4906|OFFICE|212-854-2395
275345|ENVIRONMENTAL ENGINEERING|600||||OFFICE|212-854-2905
275347|ENVIRONMENTAL HEALTH AND RADIATION SAFETY  (MORNINGSIDE)|600|MS* 4-8749|398 EngTer|2215|OFFICE|212-854-8749
275360|ENVIRONMENTAL HEALTH AND SAFETY OFFICE  (MEDICAL CENTER)|600|MC* 5-6780|630 W168St, Box 8||OFFICE|212-305-6780
275377|ENVIRONMENTAL HEALTH SCIENCES DEPARTMENT   (PUBLIC HEALTH)|600|MC* 5-3464|60 HavenAv, B1||OFFICE|212-305-3464
275378|ENVIRONMENTAL LAW, COLUMBIA JOURNAL OF|600|MS* 4-1606|424 W116St, Room 116 Mailing: 435 W116St;|4906|OFFICE|212-854-1606
275380|ENVIRONMENTAL LAW SOCIETY|600|MS* 4-2395|W&JWarren|4906|OFFICE|212-854-2395
275384|ENVIRONMENTAL RESEARCH AND CONSERVATION, CENTER FOR   (CERC)|600|MS* 4-8186|1004 SchrmExt|5557|OFFICE|212-854-8186
275388|ENVIRONMENTAL SPECIALIST|600|HS* 5-6780|601 W168St, Ste 66||OFFICE|212-305-6780
275390|EPIDEMIOLOGY DEPARTMENT  (PUBLIC HEALTH)|600|MC*5-9412|722 W168ST||OFFICE|212-305-9412
275391|EQUAL OPPORTUNITY AND AFFIRMATIVE ACTION, OFFICE OF|600|MS* 4-5511|103 LOW|4333|OFFICE|212-854-5511
275393|ETHNOMUSICOLOGY, CENTER FOR|600|MS* 4-1247|701C Dodge|1815|OFFICE|212-854-1247
275394|ETS (ELECTRONIC TEXT SERVICE)|600|MS* 4-7547|305 Butler|1126|OFFICE|212-854-7547
275395|EUROPEAN LAW SOCIETY|600|MS* 4-2395|W&JWarren|4906|OFFICE|212-854-2395
275397|EUROPEAN LEGAL STUDIES CENTER|600|MS* 4-0084|606 W&JWarren, Box E-17|4094|OFFICE|212-854-0084
275399|EUROPEAN STUDIES, COUNCIL FOR|600|MS* 4-4727|1203-1203A INTAFF|3310|OFFICE|212-854-4727
275404|EUROPEAN STUDIES NEWSLETTER|600|MS* 4-4727|1203-1203A IntAff|3310|OFFICE|212-854-4727
275407|EVERYBODY WINS, COLUMBIA POWER LUNCH|600|||||
275411|EXECUTIVE M.P.A. PROGRAM|600||||OFFICE|212-854-2710
275415|EXECUTIVE VICE PRESIDENT FOR FINANCE|600|MS* 4-2600|314 LOW|4328|OFFICE|212-854-2600
275417|EXPERIENTIAL EDUCATION|600|MS* 4-6231|ECampus|5727|OFFICE|212-854-6231
275421|FACETS|600|MS* 4-7042|208 Philosophy Hall|9201|OFFICE|212-854-7042
275422|FACILITIES, COLUMBIA UNIVERSITY|600|||||
275549|FACULTY CLUB|600|MC* 5-5652|630 W168St, 4fl||OFFICE|212-305-5652
275550|FACULTY HOUSE|600||400 W117St (ECampus)|2301||
275562|FACULTY ROOM, USE OF|600|IC* 2549|INTERCHURCH, STE 530|7720|OFFICE|212-870-2549
275565|FAIR HOUSING CLINIC|600|MS* 4-4291|831 Greene;  Box E-3|4088|OFFICE|212-854-4291
275568|FAX (FACSIMILE)|600|||||
275577|FEDERALIST SOCIETY|600|MS* 4-2395|W&JWarren|4906|OFFICE|212-854-2395
275579|FELLOWS IN THE HUMANITIES, SOCIETY OF|600||HeymnCtr|5700|OFFICE|212-854-4632
275583|FELLOWSHIPS|600|||||212-854-4206
275585|FERRIS BOOTH COMMONS (STUDENT SERVICES)|600|MS* 4-4609|4fl Lerner||OFFICE|212-854-4609
275586|FILM DIVISION  (SCHOOL OF THE ARTS)|600|MS* 4-2815|513 Dodge|1805|OFFICE|212-854-2815
275587|FILM SOCIETY|600||||OFFICE|212-854-2395
275589|FINANCE, EXECUTIVE VICE PRESIDENT FOR|600|MS* 4-2600|314 LOW|4328|OFFICE|212-854-2600
275591|FINANCIAL AID|600|||||
275617|FINANCIAL ENGINEERING PROGRAM|600|MS* 4-2942|313 SWMD|4704|OFFICE|212-854-2942
275620|FINE ARTS LIBRARY|600||See Avery Architectural and Fine Arts Library||OFFICE|212-854-3501
275623|FIRE SAFETY OFFICER|600|||||
275627|FIRST AID AND OTHER EMERGENCIES|600|||||
275632|FLIGHT STRUCTURES, INSTITUTE OF  (CIVIL ENGINEERING)|600|MS* 4-2396|606 SWMd|4709|OFFICE|212-854-2396
275633|FOOD SERVICES|600||||OFFICE|212-854-2782
275637|FOREIGN STUDENT SERVICES|600||||OFFICE|212-854-3587
275639|FOUNDATION RELATIONS|600|IC* 2253|964 Interchurch|7720|OFFICE|212-870-2253
275641|FRATERNITIES AND SORORITIES|600|MS* 4-9134|515 LERNER|4205|OFFICE|212-854-9134
275670|FRED FRIENDLY SEMINARS, INC.|600|MS* 4-8995|101 Jrnl|3800|OFFICE|212-854-8995
275674|FRENCH AND ROMANCE PHILOLOGY DEPARTMENT|600|HS* 4-5863|||FAX|212-854-5863
275679|FRENCH HOUSE|600||||OFFICE|212-854-4482
275681|FRIENDS OF THE COLUMBIA LIBRARIES|600|MS* 4- 4746|506  BTLR|1103|OFFICE|212-854-4746
275682|FRITZ REINER CENTER FOR CONTEMPORARY MUSIC   (SCHOOL OF THE ARTS)|600|MS* 4-1295|602 Dodge|1824|OFFICE|212-854-1295
275683|FU FOUNDATION SCHOOL OF ENGINEERING AND APPLIED SCIENCE, THE|600|||||
275685|FULL-TIME POSITIONS|600|MS* 4-5494|ECampus|5727|OFFICE|212-854-5494
275688|GATEWAY LAB, BOTWINICK (SEAS)|600|MS* 4-4729|1220 SWMd||OFFICE|212-854-4729
275691|GAY, BISEXUAL, AND LESBIAN FACULTY, STAFF, AND SUPPORTERS AT COLUMBIA UNIVERSITY|600|MS* 4-7311||1121|OFFICE|212-854-7311
275693|GENERAL COUNSEL OF THE UNIVERSITY|600||412 Low|4308|OFFICE|212-854-4974
275697|GENERAL STUDIES, SCHOOL OF|600|||||
275726|GENETICS AND DEVELOPMENT DEPARTMENT|600|MC* 5-4011|701 W168St, Room 1602||OFFICE|212-305-4011
275728|GEOCHEMISTRY DIVISION|600||LMNT-DOH||OFFICE|845-365-8305
275731|GEOLOGICAL SCIENCES DEPARTMENT|600|||||
275735|GERIATRICS AND GERONTOLOGY, CENTER FOR|600||100 HavenAv, Tower 3-30F||OFFICE|212-781-0630
275736|GERMAN AMERICAN LAW SOCIETY|600|MS* 4-2395|W&JWarren|4906|OFFICE|212-854-2395
275738|GERMANIC LANGUAGES DEPARTMENT|600|MS* 4-3202|319 Hmltn|2812|OFFICE|212-854-3202
275752|GIFT PLANNING|600||964 Interchurch|7720|OFFICE|212-870-2357
275754|GIFT SYSTEMS|600||964 Interchurch|7724|OFFICE|212-870-2596
275756|GIFTS|600||See Art Properties; Libraries, University: Develop|||
275761|GODDARD INSTITUTE FOR SPACE STUDIE S (GISS)|600||2880 BWAY|0201||
275769|GOVERNMENT RELATIONS, OFFICE OF|600|MS* 4-3394|302 LOW|4319|OFFICE|212-854-3394
275770|GOVERNMENT SERVICE ORGANIZATION (LAW)|600|MS* 4-2395|W&JWarren|4906|OFFICE|212-854-2395
275772|GRADUATE SCHOOL, OF ARTS AND SCIENCES|600|MS* 4-2863|||FAX|212-854-2863
275790|GRADUATE STUDENT SERVICES/CREDENTIALS|600|MS* 4-3561|ECampus|5727|OFFICE|212-854-3561
275792|GRANTS, GOVERNMENT CONTRACTS AND|600||||OFFICE|212-854-1072
275794|GRANTS, OFFICE OF PROJECTS AND|600|MS* 4-6851|254 EngTer|2205|OFFICE|212-854-6851
275796|GREEK AND LATIN  (CLASSICS DEPARTMENT)|600|MS* 4-3902|617 Hmltn|2861|OFFICE|212-854-3902
275800|GREEK, MODERN|600|MS* 4-2189|515 Hmltn|2861|OFFICE|212-854-2189
275802|GREENHOUSE NURSERY SCHOOL, COLUMBIA|600||404 W116St|8850|OFFICE|212-666-4796
275806|GUIDE TO NEW YORK, COLUMBIA|600|MS* 4-2804|ECampus|5727|OFFICE|212-854-2804
275809|GYMNASIUM|600|||||
275815|HAMMARSKJOLD LOUNGE|600||6fl IntAff|||
275818|HAMMERSTEIN CENTER FOR THEATRE STUDIES   (SCHOOL OF THE ARTS)|600|MS* 4-3408|601 Dodge|1807|OFFICE|212-854-3408
275819|HANDICAPPED STUDENT SERVICES|600|MS* 4-2388|802 LERNER|2605|OFFICE|212-854-2388
275821|HARLEM HEALTH PROMOTION AND PREVENTION CENTER  (PUBLIC HEALTH)|600||513 W116St, 3fl||OFFICE|212-342-2301
275823|HARLEM HOSPITAL CENTER|600||506 LenoxAv (10037)||OFFICE|212-939-1000
275853|HARLEM TUTORIAL|600|MS* 4-2395|W&JWarren|4906|OFFICE|212-854-2395
275860|HARRIMAN INSTITUTE|600|MS* 4-4623|1212 IntAff|3345|OFFICE|212-854-4623
275861|HAZARDOUS MATERIALS OFFICER|600|MS* 4-4658|350 SWMD|2215|OFFICE|212-854-4658
275862|HEALTH AND BIOMEDICAL SCIENCES, EXECUTIVE VICE PRESIDENT FOR, AND DEAN OF THE FA|600|MC* 5-3592|630 W168St (P&S 2-401)||OFFICE|212-305-3592
275864|HEALTH INSURANCE (HR: BENEFITS AND COMPENSATION)|600|IC* 3074|1901 INTERCHURCH|7705|OFFICE|212-870-3074
275866|HEALTH INSURANCE, STUDENT|600||||OFFICE|212-854-7210
275868|HEALTH POLICY AND MANAGEMENT DEPARTMENT   (PUBLIC HEALTH)|600|MC* 5-0296|600 W168St, 6fl||OFFICE|212-305-0296
275869|HEALTH SCIENCES (MEDICAL  CENTER) FOR CONTINUING  EDUCATION IN THE|600|MC* 5-3334|630 W168St, Unit 39  (P&S Box 39)||OFFICE|212-305-3334
275871|HEALTH SCIENCES, GRADUATE AFFAIRS OFFICE|600||701 W168St (HHSC 4-406)||OFFICE|212-305-8058
275873|HEALTH SCIENCES CAMPUS (MEDICAL CENTER) , ASSISTANT VICE PRESIDENT OF PERSONNEL|600|MC* 5-3819|650 W168St||OFFICE|212-305-3819
275874|HEALTH SCIENCES (MEDICAL CENTER ) DEVELOPMENT OFFICE|600|MC* *8-7200|100 HavenAve (29D)||OFFICE|212-304-7200
275876|HEALTH SCIENCES(MEDICAL CENT FACILITIES MANAGEMENT, ASSOCIATE VICE PRESIDENT FOR|600|HS* 5-1347|630 W168St (P&S 2-460)||OFFICE|212-305-1347
275887|HEILBRUNN DEPARTMENT  FOR POPULATION AND FAMILY HEALTH (PUBLIC HEALTH)|600|HS* *8-5200|60 HavenAv, B2||OFFICE|212-304-5200
275888|HELEN HAYES HOSPITAL|600||West Haverstraw, NY 10993||OFFICE|845-947-3000
275889|HELLENIC STUDIES, PROGRAM IN|600|MS* 4-2189|515 Hmltn|2861|OFFICE|212-854-2189
275891|EARTH AND ENVIRONMENTAL ENGINEERING (HENRY KRUMB SCHOOL OF MINES)|600|MS* 4-2905|918 SWMd|4711|OFFICE|212-854-2905
275904|HERBERT IRVING COMPREHENSIVE CANCER CENTER|600|MC* 5-7846|PH 18-200, BOX 67||FAX|212-305-7846
275910|HERMES|600|MS* 4-8567|33 W60ST, 7FL (10023)|9136|OFFICE|212-854-8567
275912|HEYMAN CENTER FOR THE HUMANITIES|600|MS* 4-4270||5730|OFFICE|212-854-4270
275916|HIGHER EDUCATION OPPORTUNITY PROGRAM  (HEOP)|600||103 FRNLD|4747|OFFICE|212-854-3514
275924|HISPANIC INSTITUTE OF COLUMBIA UNIVERSITY|600|||||
275929|HISTORY DEPARTMENT|600||||FAX|212-932-0602
275938|HOLY NAME HOSPITAL|600||718 Teaneck Rd, Teaneck, NJ 07666||OFFICE|201-833-3000
275939|HORACE MANN THEATRE  (SCHOOL OF THE ARTS)|600||120St&Bway||OFFICE|212-678-3490
275940|HORTON MEMORIAL HOSPITAL|600||60 ProspectAv, Middletown, NY 10940||OFFICE|914-343-2424
275941|HOUSING ASSISTANCE PROGRAM, COLUMBIA (CHAP)|600||1901 INTERCHURCH|7705|OFFICE|212-870-3251
275943|HOUSING OFFICE, UNIVERSITY  APARTMENT (OFFICE OF INSTITUTIONAL REAL ESTATE)|600|MS* 4-9300|400 W119St|8801|OFFICE|212-854-9300
275944|HOWARD HUGHES MEDICAL INSTITUTE|600|||||
275948|HUMAN NUTRITION, INSTITUTE OF|600|MC* 5-4808|PH 15 East, Rm 1512, Box 61||OFFICE|212-305-4808
275951|HUMAN RESOURCES,|600||615 W 131ST (STUDEBAKER) 4TH FL NY NY 10027|||
276013|HUMAN RIGHTS, CENTER FOR THE STUDY OF|600|MS* 4-2479|1108 IntAff|3365|OFFICE|212-854-2479
276015|HUMAN RIGHTS INSTITUTE|600|MS* 4-2493|BOX B-28||OFFICE|212-854-2493
276017|HUMAN RIGHTS INTERNSHIP PROGRAM|600|MS* 4- 3247|WCWarren (410 W116St), Mailing: 435 W116St||OFFICE|212-854-3247
276019|HUMAN RIGHTS LAW REVIEW, COLUMBIA|600|MS* 4-1601|424 W116St, Room 106 Mailing: 435 W116St;|4906|OFFICE|212-854-1601
276021|HUMANITARIAN AFFAIRS PROGRAM|600|MS* 4-8825|1133 IntAff|3323|OFFICE|212-854-8825
276023|HUMANITIES, HEYMAN CENTER FOR THE|600|MS* 4-4270|HeymnCtr|5730|OFFICE|212-854-4270
276025|HUMANITIES, SOCIETY OF FELLOWS IN THE|600|MS* 4-4632|HeymnCtr|5700|OFFICE|212-854-4632
276029|HUMANITIES PROGRAM (CC)|600|MS* 4-2451|418 Hmltn|2811|OFFICE|212-854-2451
276030|I.D. OFFICE|600|MS* 4-4400|204 Kent|9209|OFFICE|212-854-4400
276031|IMPACT, COMMUNITY|600|||||
276033|INDUSTRIAL ASSOCIATES PROGRAM|600|MS* 4-8435|350A CHNDL|3173|OFFICE|212-854-8435
276034|INDUSTRIAL ENGINEERING AND OPERATIONS RESEARCH DEPARTMENT|600|MS* 4-2942|313 SWMD|4704|OFFICE|212-854-2942
276045|INDUSTRIAL HYGIENIST|600|MS* 4-8751|350 ENGTER|2215|OFFICE|212-854-8751
276046|INDUSTRY PLAYERS (LAW)|600|MS* 4-2395|W&JWarren|4906|OFFICE|212-854-2395
276048|INFORMATICS, DEPARTMENT OF BIOMEDICAL|600|HS* 5-5780|622 W168St, VC5||OFFICE|212-305-5780
276050|INFORMATION, PRESS|600||||OFFICE|212-854-5573
276052|INFORMATION AND RESOURCES, PROGRAM ON|600|MS* 4-7275|405 LOW|4335|OFFICE|212-854-7275
276056|INFORMATION AND VISITOR SERVICES|600||||OFFICE|212-854-4900
276058|INFORMATION SERVICES, VICE PRESIDENT FOR, AND UNIVERSITY LIBRARIAN|600|MS* 4-2247|517 Btlr|1101|OFFICE|212-854-2247
276062|INFORMATION TECHNOLOGY PLANNING AND STANDARDS|600|||||
276066|INFORMATION TECHNOLOGY, PROGRAMS IN|600||||OFFICE|212-854-9666
276068|INSTITUTE FOR CHILD AND FAMILY POLICY(SSW)|600|MS* 1-2272|1255 AMSTAV, RM 1122|4600|OFFICE|212-851-2272
276071|INSTITUTE FOR MEDIEVAL JAPANESE STUDIES|600|MS* 4-7403|509 Kent|3906|OFFICE|212-854-7403
276073|INSTITUTE FOR RESEARCH IN AFRICAN-AMERICAN STUDIES|600|MS* 4-7080|758 SchrmExt|5512|OFFICE|212-854-7080
276077|INSTITUTE FOR RESEARCH ON WOMEN AND GENDER|600|MS* 4-3277|763 SchrmExt|5508|OFFICE|212-854-3277
276079|INSTITUTE FOR SOCIAL AND ECONOMIC RESEARCH AND POLICY (ISERP)|600|MS* 4-3081|820  INTAFF|3355|OFFICE|212-854-3081
276091|INSTITUTE FOR SOCIAL AND ECONOMIC THEORY AND RESEARCH|600|MS* 4-3081|||OFFICE|212-854-3084
276093|INSTITUTE FOR THE STUDY OF EUROPE|600|MS* 4-4618|1227 IntAff|3337|OFFICE|212-854-4618
276094|INSTITUTE FOR THE STUDY OF HUMAN REPRODUCTION, INTERNATIONAL|600||1790 BWAY  2FL (10019)||OFFICE|646-756-8282
276096|INSTITUTE OF AFRICAN STUDIES|600|MS* 4-4633|1103 IntAff|3331|OFFICE|212-854-4633
276097|INSTITUTE OF CANCER RESEARCH|600|MC* 5-6900|701 W168St||OFFICE|212-305-6900
276099|INSTITUTE OF COMPARATIVE MEDICINE|600|MC* 5-3837|650 W168St (BB 1810)||OFFICE|212-305-3837
276101|INSTITUTE OF ELECTRICAL ELECTRONIC ENGINEERS  (IEEE)|600|MS*4-4909|505 LERNER|2602|OFFICE|212-854-4909
276104|INSTITUTE OF FLIGHT STRUCTURES  (CIVIL ENGINEERING)|600|MS* 4-2396|606 SWMd|4709|OFFICE|212-854-2396
276105|INSTITUTE OF HUMAN NUTRITION|600|MC* 5-4808|PH 15 EAST, RM 1512, BOX 61||OFFICE|212-305-4808
276109|INSTITUTE OF LATIN AMERICAN STUDIES|600|MS* 4-4643|834 IntAff|3339|OFFICE|212-854-4643
276112|INSTITUTE ON AGING AND ADULT HUMAN DEVELOPMENT (SSW)|600||1255 AMSTAV, RM 620C|4600|OFFICE|917-334-9320
276113|INSTITUTIONAL REAL ESTATE, COLUMBIA UNIVERSITY  OFFICE OF|600|MS* 4-9410|400 W119St|8801|OFFICE|212-854-9410
276114|INSTITUTIONAL REVIEW BOARD  (CPMC)|600|MC* 5-5883|263 BLACK||OFFICE|212-305-5883
276115|INSTRUMENT DESIGN FACILITY|600|MS* 4-4200|867 Chndl|3178|OFFICE|212-854-4200
276118|INSURANCE, MEDICAL, DENTAL, LIFE, AND LONG-TERM DISABILITY|600|IC* 3074|1901 Interchurch|7705|OFFICE|212-870-3074
276120|INTERACTIVE DESIGN LAB|600|MS* 4-1786|402 Jrnl|3820|OFFICE|212-854-1786
276121|INTERCHURCH CENTER|600||475 RvsdDr (10115)|||
276122|INTERCOLLEGIATE ATHLETICS|600|||||
276124|INTERCULTURAL RESOURCE CENTER  (IRC)|600|MS* 4-7461|552 W114St (10025)|5755|OFFICE|212-854-7461
276126|INTER-GREEK COUNCIL|600|MS* 4-9134|515 LERNER|4205|OFFICE|212-854-9134
276128|INTERNAL AUDIT|600|||||
276135|INTERNATIONAL AND PUBLIC AFFAIRS, SCHOOL OF|600|MS* 4-5406|420 W118St||OFFICE|212-854-5406
276185|INTERNATIONAL HOUSE|600||500 RvsdDr  (10027)||OFFICE|212-316-8400
276190|INTERNATIONAL LAW, COLUMBIA SOCIETY OF|600|MS* 4-2395|W&JWarren|4906|OFFICE|212-854-2395
276192|INTERNATIONAL ORGANIZATION, CENTER ON|600|MS* 4-1790|1314A INTAFF||OFFICE|212-854-1790
276195|INTERNATIONAL RESEARCH INSTITUTE FOR CLIMATE AND SOCIETY|600||Lmnt-Doh, Palisades, NY 10964||OFFICE|845-680-4468
276197|INTERNATIONAL STUDENTS AND SCHOLARS OFFICE|600|MS* 4-3587|524 RvsdDr|5724|OFFICE|212-854-3587
276199|INTERNET ASSISTANCE|600|MS* 4-1919|||OFFICE|212-854-1919
276202|INTERNET LAW JOURNAL|600|MS* 4-2395|W&JWarren|4906|OFFICE|212-854-2395
276204|INTERNSHIPS|600|MS* 4-5609|ECampus|5727|OFFICE|212-854-5609
276205|INTRAMURAL SPORTS OFFICE|600|MS* 4-4002|300 Level PFCtr||OFFICE|212-854-4002
276211|ITALIAN ACADEMY FOR ADVANCED STUDIES IN AMERICA|600|MS* 4-2306|1161 AmstAv|1401|OFFICE|212-854-2306
276215|ITALIAN DEPARTMENT (CC)|600|MS* 4-2308|502 Hmltn|2827|OFFICE|212-854-2308
276217|JAPANESE LEGAL STUDIES, CENTER FOR|600|MS* 4-4926|800/4 Greene;  Box A-24|4024|OFFICE|212-854-4926
276220|JAPANESE LEGAL STUDIES SOCIETY (NHK)|600|MS* 4-2395|W&JWarren|4906|OFFICE|212-854-2395
276222|JAPANESE STUDIES|600|MS* 4-5036|||OFFICE|212-854-5036
276226|JAZZ STUDIES, CENTER FOR|600|MS* 1-1633|PRINTIS, 4 FL MAILING 602 PHILOS|4927|OFFICE|212-851-1633
276230|JESSUP MOOT COURT EXECUTIVE BOARD (LAW)|600|MS* 4-2395|W&JWarren|4906|OFFICE|212-854-2395
276234|JEWISH LAW STUDENTS ASSOCIATION|600|MS* 4-2395|W&JWarren|4906|OFFICE|212-854-2395
276236|JEWISH THEOLOGICAL SEMINARY|600||3080 Bway  (10027)||OFFICE|212-678-8000
276255|JOHN JAY ASSOCIATES OF COLUMBIA COLLEGE|600|IC* 2288|917 Interchurch|7730|OFFICE|212-870-2288
276257|JOHN JAY SCHOLARS PROGRAM|600|MS* 4-5895|101 CRMAN|1205|OFFICE|212-854-5895
276259|JOURNAL OF ASIAN LAW, COLUMBIA|600|MS* 4-5510|424 W116St, Room 206 Mailing: 435 W116St;|4906|OFFICE|212-854-5510
276261|JOURNAL OF EAST EUROPEAN LAW, COLUMBIA|600|MS* 4-2268|424 W116St Mailing: 435 W116St;|4906|OFFICE|212-854-2268
276263|JOURNAL OF ENVIRONMENTAL LAW, COLUMBIA|600|MS* 4-1606|424 W116St, Room 116 Mailing: 435 W116St;|4906|OFFICE|212-854-1606
276265|JOURNAL OF EUROPEAN LAW, COLUMBIA|600|MS* 4-5811|Greenhouse|4906|OFFICE|212-854-5811
276267|JOURNAL OF GENDER AND LAW , COLUMBIA|600|MS* 4-1602|424 W116St, Room 103|4906|OFFICE|212-854-1602
276269|JOURNAL OF INTERNATIONAL AFFAIRS|600|MS* 4-4775|407B IntAff||OFFICE|212-854-4775
276272|JOURNAL OF LAW AND SOCIAL PROBLEMS, COLUMBIA|600|MS* 4-1603|424 W116St, Room 102 Mailing: 435 W116St;|4906|OFFICE|212-854-1603
276274|JOURNAL OF LAW AND THE ARTS, COLUMBIA-VLA|600|MS* 4-1607|424 W116St, Room 207 Mailing: 435 W116St;|4906|OFFICE|212-854-1607
276276|JOURNAL OF PHILOSOPHY|600||709 Philos|4972||
276279|JOURNAL OF TRANSNATIONAL LAW, COLUMBIA|600|MS* 4-1604|424 W116St, Room 200 Mailing: 435 W116St;|4906|OFFICE|212-854-1604
276281|JOURNALISM, GRADUATE SCHOOL OF|600||2950 Bway|3812|FAX|212-854-7837
276310|J. REUBEN CLARK SOCIETY|600|MS* 4-2395|W&JWarren|4906|OFFICE|212-854-2395
276312|JUILLIARD EXCHANGE PROGRAM|600|MS* 4-1223|403 Lerner|2607|OFFICE|212-854-1223
276314|JUILLIARD SCHOOL, THE|600||60 Lincoln Center Plaza  (10023)||OFFICE|212-799-5000
276316|JUNIOR CLASS (CC/SEAS)|600|MS* 4-3611|505  LERNER|2602|OFFICE|212-854-3611
276320|JUNIOR CLASS CENTER|600|MS* 4-1870|1fl Schap|8001|OFFICE|212-854-1870
276322|KATHRYN BACHE MILLER THEATRE|600||||OFFICE|212-854-1633
276324|KEENE, DONALD, CENTER OF JAPANESE CULTURE|600|MS* 4-5036|507 Kent|3920|OFFICE|212-854-5036
276326|KELLOGG CENTER|600||15fl IntAff|3328||
276329|KERNOCHAN CENTER FOR LAW, MEDIA, AND THE ARTS|600|MS* 4-7424|Mailing: 435 W116St;|4017|OFFICE|212-854-7424
276332|KLUGE SCHOLARS PROGRAM|600|MS* 4-5895|401 LERNER|2607|OFFICE|212-854-5895
276335|KOLEINU (LAW)|600|MS* 4-2395|W&JWarren|4906|OFFICE|212-854-2395
276337|KOREAN LEGAL STUDIES , CENTER FOR|600|MS* 5759|607 GREENE, BOX A-19||OFFICE|212-854-5759
276338|KOREAN STUDIES|600||||OFFICE|212-854-5028
276340|KOSHER DELI  (STUDENT ENTERPRISES)|600|MS* 4-7711|101 Hrtly|5727|OFFICE|212-854-7711
276343|LABOR RELATIONS|600||||OFFICE|212-870-2801
276345|LABORATORY SAFETY/CHEMICAL SAFETY OFFICER|600|MS* 4-2213|350 SWMD|2215|OFFICE|212-854-2213
276346|LABORATORY SAFETY OFFICERS|600|MC* 5-6780|601 W168St, Ste 66||OFFICE|212-305-6780
276350|LAMONT-DOHERTY EARTH OBSERVATORY|600||Palisades, NY 10964|||
276375|LANGUAGE RESOURCE CENTER|600|MS* 4-6341|353  INTAFF|3380|OFFICE|212-854-6341
276378|LATIN (CLASSICS DEPARTMENT)|600|MS* 4-3902|617 Hmltn|2861|OFFICE|212-854-3902
276380|LATIN AMERICAN STUDIES, INSTITUTE OF|600|MS* 4-4643|834 IntAff|3339|OFFICE|212-854-4643
276381|LATIN AMERICAN LAW STUDENT ASSOCIATION  (LALSA)|600|MS* 4-2395|108 Greene|4906|OFFICE|212-854-2395
276383|LATINO STUDIES PROGRAM|600|MS* 4-0507|424 Hamilton|2880|OFFICE|212-854-0507
276385|LAW AND CULTURE, CENTER FOR THE STUDY OF|600|MS* 4-2511|600/4 Greene||OFFICE|212-854-2511
276386|LAW REVUE|600|MS* 4-2395|Greene|4906|OFFICE|212-854-2395
276388|LAW SCHOOL DEMOCRATS|600|MS* 4-2395|W&JWarren|4906|OFFICE|212-854-2395
276390|LAW SCHOOL NEWS|600|MS* 4-5833|320B ECampus Mailing: 435 W116St;|4906|OFFICE|212-854-5833
276393|LAW, SCHOOL OF|600|MS* 4-7946|435 W116St||FAX|212-854-7946
276640|LAW, SCIENCE, AND TECHNOLOGY, SILVER PROGRAM IN|600|MS* 4-8385|800/3 Greene, Box E-26||OFFICE|212-854-8385
276641|LAWRENCE HOSPITAL|600||55 PalmerAv, Bronxville, NY 10708||OFFICE|914-787-1000
276642|LAZARSFELD CENTER FOR THE SOCIAL SCIENCES|600|MS* 4-3081|820  INTAFF|3355|OFFICE|212-854-3081
276646|LEROY NEIMAN CENTER FOR PRINT STUDIES|600|MS* 4-4065|310 Dodge|1806|OFFICE|212-854-4065
276648|LIBERAL STUDIES MASTER OF ARTS PROGRAMS|600|||||
276652|LIBRARIAN, UNIVERSITY|600|MS* 4-2247|517  BTLR|1101|OFFICE|212-854-2247
276653|LIBRARIES, UNIVERSITY|600|||||
276877|spare listings|600|HS* 7-3692|||OFFICE|212-305-3692
276904|Barnard Information|600|MS* 4-5262|||OFFICE|212-854-5262
276986|LION LINE (SCORES AND RESULTS)|600|MS* 4-3030|PFCtr||OFFICE|212-854-3030
276987|LOST AND FOUND|600|MS* 4-2796|111 Low|4301|OFFICE|212-854-2796
276988|M.A. ONLY PROGRAMS (GSAS)|600|||||
276991|MAA READY PROJECT|600||81 ClrmtAv||OFFICE|212-222-7087
276994|MAIL SERVICES CAMPUS DISTRIBUTION  (CENTRAL  MAIL ROOM)|600|MS* 4-2081|101 ServBldg|5701|OFFICE|212-854-2081
276997|MAIL, UNDERGRADUATE STUDENT|600|MS* 4-0101|4FL LERNER||OFFICE|212-854-0101
276998|MAILING CENTER, BULK, COLUMBIA UNIVERSITY  (MAIL SERVICES)|600|MS* 4-6594|106 JRNL|3841|OFFICE|212-854-6594
277004|MAISON FRANCAISE|600|MS* 4-4482|2fl Buell|4990|OFFICE|212-854-4482
277006|MANHATTAN SCHOOL OF MUSIC|600||120 ClrmtAv||OFFICE|212-749-2802
277009|MARCONI SOCIETY, INC.|600|MS* 4-7676|500 SWMd|4716|OFFICE|212-854-7676
277011|MARIA MOORS CABOT PRIZES|600|MS* 4-5984|701 Jrnl|3809|OFFICE|212-854-5984
277012|MARINE GEOLOGY AND GEOPHYSICS DIVISION|600||Lmnt-Doh||OFFICE|845-365-8430
277013|BASSETT HEALTHCARE|600||Cooperstown, NY 13326||OFFICE|607-547-3456
277016|MATERIALS SCIENCE AND ENGINEERING RESEARCH,  CENTER FOR|600||||OFFICE|212-854-3964
277018|MATHEMATICS DEPARTMENT|600|MS* 4-8962|||FAX|212-854-8962
277025|MECHANICAL ENGINEERING DEPARTMENT|600|MS* 4-2965|220 SWMd|4703|OFFICE|212-854-2965
277028|MECHANICAL ENGINEERS, AMERICAN SOCIETY OF  (ASME)|600||220 SWMd|4703|OFFICE|212-854-2954
277031|MEDIA CENTER FOR ART HISTORY, ARCHAEOLOGY, AND HISTORIC PRESERVATION|600|||||
277035|MEDICAL INSURANCE|600||||OFFICE|212-870-3074
277037|MEDICAL INSURANCE, STUDENT|600||||OFFICE|212-854-7210
277039|MEDICAL INFORMATICS, DEPARTMENT OF|600|HS* 5-5780|622 W168St, VC5||OFFICE|212-305-5780
277041|MEDICAL SERVICES, PRIMARY CARE|600|MS* 4-7426|||OFFICE|212-854-7426
277048|MEDICAL SCHOOL|600||||OFFICE|212-305-3595
277050|MEDICINE DEPARTMENT|600|MC* 5-5960|622 W168St (PH 8-East)||OFFICE|212-305-5960
277052|MEDIEVAL JAPANESE STUDIES, INSTITUTE FOR|600|MS* 4-7403|509 Kent|3906|OFFICE|212-854-7403
277054|MEMORIAL SERVICES|600|MS* 4-1487|110 Chapl|2008|OFFICE|212-854-1487
277055|MENOPAUSE AND HORMONAL DISORDERS, CENTER FOR|600||16 E60St (10022)||OFFICE|212-326-8548
277057|METALLURGICAL ENGINEERING|600|MS* 4-2905|918 SWMd|4711|OFFICE|212-854-2905
277060|Microbiology and Immunology, Department of|600|MC* 5-3647|701 W168St (HHSC 12-1208)||OFFICE|212-305-3647
277067|MIDDLE EAST INSTITUTE|600|MS* 4-2584|1112 IntAff|3340|OFFICE|212-854-2584
277068|MIDDLE EAST AND ASIAN LANGUAGES AND CULTURES DEPARTMENT|600|MS* 4-2556|602 Kent|3928|OFFICE|212-854-2556
277078|MILLER THEATRE|600|MS* 4-1633|201 Dodge , 2960 Bway (at W116St)|1801|OFFICE|212-854-1633
277083|MINERAL ENGINEERING, CHEMICAL METALLURGY, AND METALLURG ICAL ENGINEERING|600|MS* 4-2928|918 SWMd|4711|OFFICE|212-854-2928
277086|MINING ENGINEERING|600|MS* 4-2984|924 SWMD|4711|OFFICE|212-854-2984
277089|MINING ENGINEERS, AMERICAN INSTITUTE OF  (AIME)|600|MS* 4-2984|924 SWMD|4711|OFFICE|212-854-2984
277091|MIXOLOGY COURSE  (STUDENT ENTERPRISES)|600|MS* 4-4537|ECampus|5727|OFFICE|212-854-4537
277092|MODERN GREEK|600|MS* 4-2189|515 Hmltn|2861|OFFICE|212-854-2189
277094|MOLECULAR BIOPHYSICS, BIOCHEMISTRY AND, DEPARTMENT|600|MC* 5-3882|630 W168St, Box 36||OFFICE|212-305-3882
277096|MOLECULAR RECOGNITION, CENTER FOR|600|MC* 5-3973|630 W168St (P&S 11-401)||OFFICE|212-305-3973
277097|MOOT COURT EXECUTIVE BOARD|600|MS* 4-1600|424 W116St, Room 107 Mailing: 435 W116St||OFFICE|212-854-1600
277099|MORNINGSIDE AREA ALLIANCE  (MAA)|600||90 MngsdDr||OFFICE|212-749-1570
277103|MUSIC DEPARTMENT|600|MS* 4-3825|621 Dodge|1813|OFFICE|212-854-3825
277111|MUSLIM LAW STUDENTS ASSOCIATION|600|MS* 4-2395|W&JWarren|4906|OFFICE|212-854-2395
277115|NATIONAL ALUMNI PROGRAM|600|MS* 1-7800|622 W 113 ST NY, NY 10025|7725|OFFICE|212-851-7800
277118|NATIONAL BLACK LAW JOURNAL, THE|600|MS* 4-3318|Mailing: 435 W116St||OFFICE|212-854-3318
277120|NATIONAL CENTER FOR CHILDREN IN POVERTY   (PUBLIC HEALTH)|600||215 W125ST, 3FL||OFFICE|646-284-9600
277121|NATIONAL CENTER ON ADDICTION AND SUBSTANCE ABUSE|600||633 3rdAv (10017)||OFFICE|212-841-5200
277123|NATIONAL LAWYERS GUILD (NLG)|600|MS* 4-2395|Mailing: 435 W116St;|4906|OFFICE|212-854-2395
277125|NATIONAL OPPORTUNITY PROGRAM  (NOP)  (CC/SEAS)|600||||OFFICE|212-854-3414
277127|NATIONAL RESOURCE CENTER FOR EAST ASIAN STUDIES|600|MS* 4-2592|914 IntAff|3333|OFFICE|212-854-2592
277128|NATIONAL RESOURCE CENTER FOR EAST EUROPEAN, RUSSIAN, AND EURASIAN STUDIES|600|MS* 4-4008|1227 IntAff|3336|OFFICE|212-854-4008
277129|NATIONAL RESOURCE CENTER FOR MIDDLE EAST STUDIES|600|MS* 4-2584|1128 INTAFF|3334|OFFICE|212-854-2584
277130|NATIONAL RESOURCE CENTER FOR SOUTH ASIAN STUDIES|600|MS* 4-3616|1128 IntAff|3334|OFFICE|212-854-3616
277131|NATIONAL RESOURCE CENTER FOR WESTERN EUROPEAN STUDIES|600|MS* 4-4618|1227 IntAff|3336|OFFICE|212-854-4618
277138|NEIGHBORHOOD KIDS TUTORIAL PROGRAM|600|MS* 4-2395|W&JWarren; Mailing: 435 W116St|4906|OFFICE|212-854-2395
277142|NETWORK ASSISTANCE (CUIT)|600|||||
277145|NEUROBIOLOGY AND BEHAVIOR, CENTER FOR|600||722 W168ST, KOLB ANNEX, ROOM 865  MAILING: 1051 RV||OFFICE|212-543-5265
277149|NEUROLOGICAL SURGERY DEPARTMENT|600|MC* 5-5543|710 W168St, Room 441||OFFICE|212-305-5543
277151|NEUROLOGY DEPARTMENT|600|MC* 7- 1336|710 W168St||OFFICE|212-305-1336
277154|NEVIS LABS (PHYSICS)|600|NL* 72-8100|Irvington, NY 10533|5254|OFFICE|914-591-8100
277156|NEW MEDIA TEACHING AND LEARNING, COLUMBIA  CENTER FOR|600||||OFFICE|212-854-9059
277158|NEW MILFORD HOSPITAL|600||New Milford, CT (06776)||OFFICE|860-355-2611
277163|NEW YORK COLLEGE OF PODIATRIC MEDICINE  AND THE FOOT CLINICS|600||1800 Park Av (10035)||OFFICE|212-410-8000
277164|NEW YORK STATE CENTER FOR ADVANCED TECHNOLOGY|600||||OFFICE|212-305-2947
277166|NEW YORK STATE PSYCHIATRIC INSTITUTE AND HOSPITAL|600||1051 RvsdDr||OFFICE|212-543-5000
277167|NEWS, LAW SCHOOL|600|MS* 4-5833|320B ECampus; Mailing: 435 W116St||OFFICE|212-854-5833
277169|NEW YORK-PRESBYTERIAN HOSPITAL, COLUMBIA|600|HS* 5-2500|622 W168St||OFFICE|212-305-2500
277175|NSF INDUSTRY UNIVERSITY RESEARCH CENTER FOR|600|MS* 4-8394|911 SWMd|4711|OFFICE|212-854-8394
277177|NURSERY SCHOOLS|600|||||
277183|NURSING, SCHOOL OF|600|MC* 5-6937|617 W168St||FAX|212-305-6937
277195|NUTRITION, HUMAN, INSTITUTE OF|600|MC* 5-4808|PH 15 East, Rm 1512, Box 61||OFFICE|212-305-4808
277198|NYACK HOSPITAL|600||Nyack, NY  10960||OFFICE|845-348-2000
277199|OBSTETRICS AND GYNECOLOGY DEPARTMENT|600|MC* 5-2373|622  W168ST, PH-16||OFFICE|212-305-2373
277201|OCCUPATIONAL HEALTH|600|||||
277203|OCCUPATIONAL HYGIENE OFFICER|600|MC* 5-6780|601 W168ST, STE 63||OFFICE|212-305-6780
277205|OCCUPATIONAL THERAPY, PROGRAMS IN|600|MC* 5-3781|710 W168St||OFFICE|212-305-3781
277206|OCEANS AND CLIMATES DIVISION|600||Lmnt-Doh||OFFICE|845-365-8518
277207|OFF-CAMPUS HOUSING ASSISTANCE  (OCHA)|600|MS* 4-2773|419 W119St|8893|OFFICE|212-854-2773
277209|OFFICE OF SPONSORED RESEARCH (OSR)|600|MS* 4-5725|803B IntAff|3355|OFFICE|212-854-5725
277211|OMBUDS OFFICE|600|||5558||
277216|OPERATIONS RESEARCH DEPARTMENT, INDUSTRIAL ENGINEERING AND|600|MS* 4-2942|331 SWMd|4704|OFFICE|212-854-2942
277218|OPHTHALMOLOGY DEPARTMENT|600|MC* 6-2725|635 W165St||OFFICE|212-305-2725
277220|OPPORTUNITY PROGRAMS AND UNDERGRADUATE SERVICES (OPUS) (CC/SEAS)|600|MS* 4-3514|530 SWMd|4747|OFFICE|212-854-3514
277222|ORAL HISTORY RESEARCH OFFICE|600|MS* 4-7083|801 Btlr (Mail: Box 20, Btlr)|1129|OFFICE|212-854-7083
277228|ORCHESTRA, COLUMBIA UNIVERSITY|600|MS* 4-6689|806 Dodge|1813|OFFICE|212-854-6689
277229|ORGANIST|600|MS* 4- 1487|110 Chapl|2008|OFFICE|212-854-1487
277230|ORTHOPEDIC SURGERY DEPARTMENT|600|MC* 5-5974|622 W168St, PH-11||OFFICE|212-305-5974
277234|OSCAR HAMMERSTEIN II CENTER FOR THEATRE STUDIES  (SCHOOL OF THE ARTS)|600|MS* 4-3408|601 Dodge|1807|OFFICE|212-854-3408
277235|OTOLARYNGOLOGY/HEAD AND NECK SURGERY DEPARTMENT|600|MC* 6-5820|630 W168St||OFFICE|212-305-5820
277237|OUTDOOR ORIENTATION PROGRAM, COLUMBIA  (COOP, COBOP, COROP)  (CC)|600|MS* 4-3611|505 LERNER|2601|OFFICE|212-854-3611
277243|OWLS/MSG/SWIFT|600|MS* 4-2395|W&JWarren|4906|OFFICE|212-854-2395
277245|OXFORD-CAMBRIDGE SCHOLARS PROGRAM  (CC)|600|MS* 4-1219|208 HMLTN|2805|OFFICE|212-854-1219
277247|OXFORD INSURANCE (POINT-OF-SERVICE OR HMO)|600||||OFFICE|212-870-3074
277249|PALISADES MEDICAL CENTER|600||7600 River Rd, N Bergen, NJ 07047||OFFICE|201-854-5000
277250|P&S CLUB|600||50 HavenAv||OFFICE|212-304-7025
277251|P&S JOURNAL|600||630 W168ST  (PH  RM 132)||OFFICE|212-305-3877
277253|PANHELLENIC SORORITIES (COUNCIL)|600|MS* 4-9134|515 LERNER|4205|OFFICE|212-854-9134
277254|PARKER SCHOOL OF FOREIGN AND COMPARATIVE LAW|600|MS* 4-0426|534 Greene, Box D-1||OFFICE|212-854-0426
277255|TRANSPORTATION|600|MS* 4-3382|101 SERV BLDG|5701|OFFICE|212-854-3382
277256|PATHOLOGY DEPARTMENT|600|MC* 5-7164|630 W168St||OFFICE|212-305-7164
277260|PEDIATRICS DEPARTMENT|600|MC* 5-2934|630 W168St||OFFICE|212-305-2934
277264|PHARMACOLOGY DEPARTMENT|600|MC* 5-8778|630 W168ST, PH 7 WEST, RM 318||OFFICE|212-305-8778
277267|PHILOSOPHY DEPARTMENT|600|MS* 4-3196|708 Philos|4971|OFFICE|212-854-3196
277270|PHOTO STORE|600|MC* 5-5598|PRES HOSP 20||OFFICE|212-305-5598
277273|PHOTOCOPYING|600||||OFFICE|212-854-3233
277275|PHOTOGRAPHIC SERVICES|600|MS* 4-6527|752 SchrmExt|4321|OFFICE|212-854-6527
277277|PHOTOGRAPHY|600|MC* 5-7716|Pres Hosp 20||OFFICE|212-305-7716
277278|PHYSICAL EDUCATION AND INTERCOLLEGIATE ATHLETICS DEPARTMENT|600|MS* 4-8168|||FAX|212-854-8168
277342|PHYSICAL PLANT|600|||||
277344|PHYSICAL THERAPY, PROGRAM IN|600|MC* 5-3781|710 W168St||OFFICE|212-305-3781
277347|PHYSICS DEPARTMENT|600|MS* 4-3379|||FAX|212-854-3379
277370|PHYSIOLOGY AND CELLULAR BIOPHYSICS DEPARTMENT|600||630 W168St, Box 22|||
277372|PICKER CENTER FOR EXECUTIVE EDUCATION|600|MS* 4-2710|400 IntAff|3328|OFFICE|212-854-2710
277374|PLANETARY SCIENCE, INTERDEPARTMENTAL COMMITTEE ON ATMOSPHERIC AND|600||2880 Bway (10025)|207|OFFICE|212-678-5588
277375|PLANNING, URBAN|600|||||
277377|PLANNING AND INSTITUTIONAL RESEARCH|600|MS* 4-3036|401 LOW|4317|OFFICE|212-854-3036
277379|PLANNING AND SPACE MANAGEMENT, OFFICE OF|600|MS* 4-1115|B-230 ECampus|3403|OFFICE|212-854-1115
277383|POLISH (SLAVIC LANGUAGES)|600|MS* 4-3941|708 Hmltn|2839|OFFICE|212-854-3941
277385|POLITICAL SCIENCE DEPARTMENT|600||722 IntAff|3320||
277391|PORTUGUESE|600||||OFFICE|212-854-4187
277393|POSTBACCALAUREATE PREMEDICAL PROGRAM  (GS)|600|MS* 4-0467|404 Lwsn|4109|OFFICE|212-854-0467
277395|POSTBACCALAUREATE PROGRAM IN CLASSICS|600|MS*4-7821|617B Hmltn|2861|OFFICE|212-854-7821
277397|POSTCRYPT STUDENT ART GALLERY  (CC)|600|MS* 4-3611|Chapl bsmt||OFFICE|212-854-3611
277398|POSTERS|600|||||
277402|PREMEDICAL ASSOCIATION (GS)|600|MS* 4-5724|Lerner||OFFICE|212-854-5724
277403|PREMEDICAL SOCIETY, CHARLES DREW  (CC)|600|MS* 4-4909|505  LERNER|2602|OFFICE|212-854-4909
277405|PRE-PROFESSIONAL PROGRAMS, OFFICE 0F (CC)|600|MS* 4-8722|101 CRMAN|1205|OFFICE|212-854-8722
277407|PRESBYTERIAN HOSPITAL, COLUMBIA PRESBYTERIAN MEDICAL CENTER OF NEW YORK|600|HS* 5-2500|622 W168St||OFFICE|212-305-2500
277411|PRESIDENTS EMERITI OF THE UNIVERSITY|600|||||
277413|PRESIDENT'S OFFICE|600|MS* 4-9970|202  LOW|4309|OFFICE|212-854-9970
277417|PRESIDENT'S HOUSE|600|MS* 4-5700|60 MngsdDr|5101|OFFICE|212-854-5700
277420|PRESS, COLUMBIA UNIVERSITY|600||61 W62St (10023)||OFFICE|212-459-0600
277423|PRINT SERVICES|600|MS* 4-3233|106 Jrnl|3841|OFFICE|212-854-3233
277438|PRISON ACCESS WORKING GROUP|600|MS* 4-2395|W&JWarren|4906|OFFICE|212-854-2395
277440|PROFESSIONAL ENTREPRENEURS AT COLUMBIA (LAW)|600|MS* 4-2395|W&JWarren|4906|OFFICE|212-854-2395
277442|PROGRAM IN ECONOMIC POLICY MANAGEMENT|600|MS* 4-6982|1303 INTAFF|3332|OFFICE|212-854-6982
277443|PROGRAM IN HELLENIC STUDIES|600|MS* 4-2189|515 Hmltn|2873|OFFICE|212-854-2189
277445|PROGRAM ON INFORMATION AND RESOURCES|600|MS* 4-7275|405 Low|4335|OFFICE|212-854-7275
277449|PROGRESSIVE FORUM (LAW)|600|MS* 4-2395|W&JWarren|4906|OFFICE|212-854-2395
277451|PROJECT ACT II|600|IC* 4-3268|1942 Interchurch|4600|OFFICE|212-870-3268
277454|PROJECTION SERVICES|600|MC* 5-8356|Pres Hosp 20||OFFICE|212-305-8356
277455|PROJECTS AND GRANTS, OFFICE OF|600|MS* 4-6851|254 EngTer|2205|OFFICE|212-854-6851
277457|PROSPECTS: AN ANNUAL OF AMERICAN CULTURAL STUDIES|600|MS* 4-8253|603 Lwsn|4106|OFFICE|212-854-8253
277459|PROVOST OF THE UNIVERSITY|600|MS* 4-2403|205 Low|4313|OFFICE|212-854-2403
277482|PSYCHIATRIC INSTITUTE AND HOSPITAL, NEW YORK STATE|600||1051 RvsdDr||OFFICE|212-543-5000
277483|PSYCHIATRY DEPARTMENT|600||1051 RvsdDr||OFFICE|212-543-5305
277485|PSYCHOANALYTIC TRAINING AND RESEARCH, CENTER FOR|600||1051 RvsdDr||OFFICE|212-927-5000
277487|PSYCHOLOGY DEPARTMENT|600|MS* 4-2069|415 Milbank|5501|OFFICE|212-854-2069
277493|PUBLIC AFFAIRS, VICE PRESIDENT FOR|600|MS* 4-2401|301 Low|4319|OFFICE|212-854-2401
277497|PUBLIC HEALTH, MAILMAN SCHOOL OF|600||722 W168St||OFFICE|212-305-4797
277527|PUBLIC INFORMATION AND COMMUNICATIONS, OFFICE OF|600|MS* 4-5573|402 LOW|4321|OFFICE|212-854-5573
277536|PUBLIC INTEREST LAW, CENTER FOR|600|MS* 4-6158|WCWarren (410 W116St) Mailing: 435 W116St, Box A-2||OFFICE|212-854-6158
277539|PUBLIC INTEREST LAW FOUNDATION  (PILF)|600|MS* 4-5917|112 Greene|4906|OFFICE|212-854-5917
277541|PUBLIC INTEREST LAW INITIATIVE (PILI)|600||44 MngsdDr, Box C-27|3525|OFFICE|212-851-1060
277544|PUBLIC INTEREST LAW STUDENTS ASSOCIATION (PILSA)|600|MS* 4-2395|W&JWarren|4906|OFFICE|212-854-2395
277548|PUBLICATIONS|600||||OFFICE|212-459-0600
277552|PUBLICATIONS, OFFICE OF  UNIVERSITY|600|MS* 4-2793|2929 Bway, 3fl|6601|OFFICE|212-854-2793
277564|PULITZER PRIZES|600|MS* 4-3841|709 Jrnl|3865|OFFICE|212-854-3841
277570|QUARTO|600|MS* 4-3774||||212-854-3774
277572|QANUN (LAW)|600|MS* 4-2395|W&JWarren|906|OFFICE|212-854-2395
277574|RABI SCHOLARS PROGRAM (CC)|600|MS* 4- 2446|403 Lerner|2607|OFFICE|212-854-2446
277576|RABI SCHOLAR ROOM|600|MS* 4-6149|814 Pupin|5227|OFFICE|212-854-6149
277577|RADIATION LAB, COLUMBIA|600||||OFFICE|212-854-3265
277579|RADIATION ONCOLOGY DEPARTMENT|600|MC* 5-7077|622 W168ST BHN B-11||OFFICE|212-305-7077
277582|RADIATION SAFETY OFFICE|600|||||
277588|RADIO STATION WKCR-FM (CC)|600|MS* 4-9921|LERNER, 2ND FL.||OFFICE|212-854-9921
277592|RADIOLOGY DEPARTMENT|600|MC* 5-9729|630 W168St, P&S Box 28||OFFICE|212-305-9729
277596|RAPE CRISIS/ANTI-VIOLENCE SUPPORT  CENTER|600||123 Brooks Hall  (Barnard Quad) Mailing: 8fl Lerne|2606||
277598|REAL ESTATE MANAGEMENT|600|MS* 4-9300|400 W 119 SY|8801|OFFICE|212-854-9300
277600|RECORD, COLUMBIA UNIVERSITY|600|MS* 4-3283|402  LOW|4321|OFFICE|212-854-3283
277602|RECORDS MANAGEMENT AND UNIVERSITY ARCHIVES|600||||OFFICE|212-854-3786
277604|RECRUITING PROGRAMS|600|MS* 4-8646|ECampus|5727|OFFICE|212-854-8646
277610|REHABILITATION MEDICINE DEPARTMENT|600|MC* 5-4818|630 W168St, Box 38||OFFICE|212-305-4818
277612|REID HALL INC.|600|MS* 4-3813|408 Low|4336|OFFICE|212-854-3813
277613|REID HALL PROGRAMS (PARIS)|600|MS* 4-2559|203 Lwsn|4119|OFFICE|212-854-2559
277616|REINER CENTER FOR CONTEMPORARY MUSIC  (SCHOOL OF THE ARTS)|600|MS* 4-1295|602 Dodge|1824|OFFICE|212-854-1295
277617|RELIGION DEPARTMENT|600|MS* 1-4122|80 CLRMAV, RM 103 NEW YORK NY 10027|9610|OFFICE|212-851-4122
277620|RELIGIOUS ACTIVITIES|600||See Earl Hall Center  (Earl Hall and St. Paul s Ch||OFFICE|212-854-6242
277623|REPRODUCTIVE SCIENCES, CENTER FOR|600|MC* 5-2377|630 W168St, 16th fl||OFFICE|212-305-2377
277625|RESEARCH COMPLIANCE|600|||||
277633|REVIEW, COLUMBIA (CC)|600|MS* 4-4909|505  LERNER|2602|OFFICE|212-854-4909
277635|REVISTA HISPANICA MODERNA|600|||||
277639|REVSON FELLOWS PROGRAM|600|CX* 4023|420 W116St, Apt 1A|6940|OFFICE|212-280-4023
277643|RIGHTSLINK|600|MS* 4-2395|B202 ECampus|4906|OFFICE|212-854-2395
277647|ROMANIC REVIEW|600|MS* 4-2500|521 Philos|4903|OFFICE|212-854-2500
277648|ROSENTHAL CENTER FOR COMPLEMENTARY/ALTERNATIVE MEDICINE|600||630 W168ST, P&S BOX 75 (MAIL)||OFFICE|212-342-0101
277650|ROSS ARCHITECTURE GALLERY|600|MS* 4-3414|Buell||OFFICE|212-854-3414
277651|ROTUNDA OF LOW LIBRARY, USE OF|600|IC* 2549|INTERCHURCH STE 530|7720|OFFICE|212-870-2549
277652|RUSSIAN DEPARTMENT  (SLAVIC LANGUAGES)|600|MS* 4-3941|708 Hmltn|2839|OFFICE|212-854-3941
277654|RUSSIAN INSTITUTE  (HARRIMAN INSTITUTE)|600|MS* 4-4623|1212 IntAff|3345|OFFICE|212-854-4623
277655|SAFETY OFFICE, ENVIRONMENTAL HEALTH AND|600|||||
277659|ST. LUKES CORNWALL HOSPITAL|600||70 DuBois St, Newburgh, NY 12550||OFFICE|914-561-4400
277660|ST. LUKES ROOSEVELT HOSPITAL CENTER|600||1000 Tenth Av (10025)||OFFICE|212-523-4000
277661|ST. MARYS HOSPITAL FOR CHILDREN|600||29-01 216 St, Bayside, NY 11360||OFFICE|718-281-8800
277662|ST. PAUL'S CHAPEL|600||See Earl-Hall Center|||
277663|ST. THOMAS MORE SOCIETY (LAW)|600|MS* 4-2395|W&JWarren|4906|OFFICE|212-854-2395
277665|ST. VINCENT'S MEDICAL CENTER|600||2800 Main St, Bridgeport, CT 06606||OFFICE|203-576-6000
277666|SCHAPIRO CENTER FOR THEATRE AND MUSIC, ALMA|600||605 W115St, Box 104, lower level|||
277671|SCHOLARSHIPS FOR OFFICERS  DEPENDENT CHILDREN|600||||OFFICE|212-870-3074
277673|SCHOLASTIC PRESS ASSOCIATION, COLUMBIA|600|||||
277677|SCIENCE AND RELIGION, CENTER FOR THE STUDY OF|600|MS* 1-1825|3041 BROADWAY NEW YORK, NEW YORK 10027|9601|OFFICE|212-851-1825
277683|SCIENCE HONORS PROGRAM|600|MS* 4-3354|713 Pupin|5256|OFFICE|212-854-3354
277684|SCIENCE, TECHNOLOGY, AND ENVIRONMENTAL POLICY, CENTER FOR|600|MS* 4-5725|803 IntAff|355|OFFICE|212-854-5725
277686|SECRETARY OF THE UNIVERSITY, EXECUTIVE VICE PRESIDENT AND|600|MS* 4-4157|211 Low|4324|OFFICE|212-854-4157
277689|SECURITY|600|||||
277695|SECURITY , ASST VICE PRESIDENT FOR|600|||||
277697|SEISMOLOGY DIVISION|600||Lmnt-Doh||OFFICE|845-365-8522
277698|SEMINARS, UNIVERSITY|600|MS* 4-2389|305 FacHs|2302|OFFICE|212-854-2389
277700|SENATE, UNIVERSITY|600|MS* 4-6836|406 Low|4334|OFFICE|212-854-6836
277705|SENIOR CLASS (CC/SEAS)|600|MS* 4-4909|505 LERNER|2602|OFFICE|212-854-4909
277709|SENIOR CLASS CENTER|600|MS* 4-8711|103 BwayRes|9401|OFFICE|212-854-8711
277711|SERBO-CROATIAN  (SLAVIC LANGUAGES)|600|MS* 4-3941|708 Hmltn|2839|OFFICE|212-854-3941
277713|SERGIEVSKY, GERTRUDE H. , CENTER|600|MC* 5-2515|P&S Box 16, 630 W168St||OFFICE|212-305-2515
277715|SHAPING LAW AGAINST PRIVILEGE (SLAP) (LAW)|600|MS* 4-2395|W&JWarren|4906|OFFICE|212-854-2395
277722|SLAVIC LANGUAGES DEPARTMENT|600|MS* 4-3941|708 Hmltn|2839|OFFICE|212-854-3941
277724|SOCCER CLUB|600||||OFFICE|212-854-2395
277730|SOCIAL INDICATORS SURVEY CENTER|600|MS* 1-2384|1255 AMST AVE, RM 715|4600|OFFICE|212-851-2384
277733|SOCIAL INTERVENTION GROUP|600|MS* 1-2108|1255 AMSTAV, RM 820|4600|OFFICE|212-851-2108
277736|SOCIAL WORK, SCHOOL OF|600|MS* 1-2300|1255 AMSTERDAM AVE, N Y 10027|4600|OFFICE|212-851-2300
277760|SOCIAL WORK PRACTICE (SSW), CENTER FOR THE STUDY OF|600|MS* 1-2266|1255 AMST AVE, RM 1115|4600|OFFICE|212-851-2266
277761|SOCIETY AND MEDICINE, CENTER FOR THE STUDY OF|600|MC* 5-4184|P&S Box 11, 630 W168St||OFFICE|212-305-4184
277763|SOCIETY FOR A HUMANE DRUG POLICY|600||||OFFICE|212-854-2395
277765|SOCIETY FOR ALTERNATIVE DISPUTE RESOLUTION  (SADR)|600|MS* 4-2395|W&JWarren|4906|OFFICE|212-854-2395
277767|SOCIETY FOR CHINESE LAW|600|MS* 4-2395|W&JWarren|4906|OFFICE|212-854-2395
277769|SOCIETY FOR HEALTH, BIOETHICS, AND THE LAW|600|MS* 4-2395|W&JWarren|4906|OFFICE|212-854-2395
277771|SOCIETY FOR LAW AND IDEAS|600|MS* 4-2395|W&JWarren|4906|OFFICE|212-854-2395
277773|SOCIETY FOR LAW, SCIENCE, AND TECHNOLOGY|600|MS* 4-2395|W&JWarren|4906|OFFICE|212-854-2395
277775|SOCIETY OF AMERICAN HISTORIANS|600|MS* 4-5943|603 Faywr|2538|OFFICE|212-854-5943
277778|SOCIETY OF FELLOWS IN THE HUMANITIES|600|MS* 4-4632|HeymnCtr|5700|OFFICE|212-854-4632
277782|SOCIETY OF IMMIGRANT AND REFUGEE RIGHTS  (LAW)|600|MS* 4-2395|W&JWarren|4906|OFFICE|212-854-2395
277785|SOCIOLOGY DEPARTMENT|500|MS* 4-2973|501 Knox Hall|9649|OFFICE|212-854-2973
277787|SOCIOMEDICAL SCIENCES DEPARTMENT  (PUBLIC HEALTH)|600|HS* 5-5656|722 W168St, 9fl||OFFICE|212-305-5656
277790|SOFTWARE SITE LICENSES|600|||||
277793|SOIL MECHANICS LAB, THE DONALD M. BURMISTER  (CIVIL ENGINEERING)|600|MS* 4-3153|706 SWMd|4709|OFFICE|212-854-3153
277798|SOPHOMORE CLASS (CC/SEAS)|600|MS* 4-3611|505 LERNER|2602|OFFICE|212-854-3611
277804|SORORITIES|600||||OFFICE|212-854-9134
277806|SOUTH ASIAN LAW STUDENTS ASSOCIATION  (SALSA)|600|MS* 4-2395|W&JWarren||OFFICE|212-854-2395
277807|SOUTHERN ASIAN INSTITUTE|600|MS* 4-3616|1128A IntAff|3334|OFFICE|212-854-3616
277808|SOUVENIR AGENCY  (STUDENT ENTERPRISES)|600|MS* 4-6235|ECampus|5727|OFFICE|212-854-6235
277809|SPACE MANAGEMENT, PLANNING AND, OFFICE OF|600|MS* 4-1115|B-230 ECampus|3403|OFFICE|212-854-1115
277811|SPACE STUDIES, GODDARD INSTITUTE FOR|600||||OFFICE|212-678-5500
277813|SPANISH AND PORTUGUESE DEPARTMENT|600|||||
277820|SPECIAL STUDENTS PROGRAM|600|MS* 4-9666|203 Lwsn|4119|OFFICE|212-854-9666
277822|SPECTATOR, COLUMBIA DAILY|600||2875 BWAY, RM 303||OFFICE|212-854-9550
277836|SPEECH AND LANGUAGE PATHOLOGY|600||||OFFICE|212-678-3895
277838|Office of Work/Life|600|MS* 4-8019|535 West 116th Street (North Gallery, Low Library)|4337|OFFICE|212-854-8019
277840|SPORTS|600||||OFFICE|212-854-2548
277842|STAMFORD HOSPITAL|600||SHELBOURNERD AT WBROADST,STAMFORD, CT 06901||OFFICE|203-325-7000
277843|STATIONERY|600|||||
277845|STATISTICS DEPARTMENT|600|MS* 1-2125|1255 AMSTAV, RM.1005|4690|OFFICE|212-851-2132
277849|STERLING CURRIER FUND|600|MS* 4-3813|408 Low|4336|OFFICE|212-854-3813
277850|STROUD CENTER|600||||OFFICE|212-781-0630
277854|STUDENT AFFAIRS, DEAN OF (CC/SEAS)|600|MS* 4-2446|405 Lerner|2607|OFFICE|212-854-2446
277855|STUDENT AFFAIRS, OFFICE OF (CC/SEAS)|600|MS* 4-2446|403 Lerner|2607|OFFICE|212-854-2446
277857|STUDENT ENGAGEMENT|600|MS* 4-3611|515 LERNER|2601|OFFICE|212-854-3611
278187|STUDENT EMPLOYMENT|600|MS* 4-6233|||OFFICE|212-854-6233
278191|STUDENT ENTERPRISES, COLUMBIA|600|MS* 4-4535|ECampus|5727|OFFICE|212-854-4535
278204|STUDENT GOVERNMENT OFFICE|600|||||
278215|STUDENT SENATE|600|MS* 4-6044|Mailing: 435  W116St ;|4906|OFFICE|212-854-6044
278217|STUDENT SERVICES CENTER, CONTINUING EDUCATION|600|MS* 4- 9666|203 Lwsn|4119|OFFICE|212-854-9666
278219|STUDENT SERVICES, OFFICE OF THE VICE PRESIDENT FOR|600|MS* 4-4400|208 Philos|9201|OFFICE|212-854-4400
278243|HEALTH SERVICES AT COLUMBIA|600||JJAY; MAILING; 519 W 114ST|3601||
278290|RESIDENCE HALLS|600|||||
278500|STUDENT TRAVEL CENTER  (STA  Travel)|600|||||
278507|STUDENTS FOR REPRODUCTIVE FREEDOM (LAW)|600|MS* 4-2395|W&JWarren|4906|OFFICE|212-854-2395
278509|STUDY OF LAW AND CULTURE|600|MS* 4-2511|600/4 Greene||OFFICE|212-854-2511
278510|SUMMER AND ACADEMIC YEAR PROGRAMS FOR HIGH SCHOOL STUDENTS|600|MS* 4-9666|303 Lwsn||OFFICE|212-854-9666
278514|SUMMER SESSION|600|||||
278522|SURGERY DEPARTMENT|600|||||
278529|SUSTAINABLE DEVELOPMENT INITIATIVE  (BUSINESS SCHOOL)|600|MS* 4-3489|454 Arms||OFFICE|212-854-3489
278534|TEACHING AND LEARNING CENTER|600||||OFFICE|212-854-9058
278536|TEACHING ENGLISH TO SPEAKERS OF OTHER LANGUAGES  (TESOL)|600|MS* 4- 9666|203 Lwsn|4119|OFFICE|212-854-9666
278538|TELECOMMUNICATIONS (MEDICAL CENTER)|600||650 W168St, Bsmnt||OFFICE|212-305-7777
278539|TELECOMMUNICATIONS  (MORNINGSIDE CAMPUS),  OFFICE OF|600||||OFFICE|212-854-6251
278541|TELECOMMUNICATIONS RESEARCH, CENTER FOR|600|MS* 4-2498|801 SchapCtrEng|4712|OFFICE|212-854-2498
278543|TELEVISION STATION CTV (CC)|600|MS* 4-8900|505 LERNER|2602|OFFICE|212-854-8900
278547|TEMPLE HOYNE BUELL CENTER FOR THE STUDY OF AMERICAN ARCHITECTURE|600|MS* 4-8165|3fl Buell|0362|OFFICE|212-854-8165
278548|TENURE REVIEWS, COORDINATOR OF|600||||OFFICE|212-854-1328
278550|TERRACE RESTAURANT  (BUTLER HALL)|600||400 W119St||OFFICE|212-666-9490
278551|TESOL|600||||OFFICE|212-854-9666
278553|TEXAS CLUB (LAW)|600|MS* 4-2395|W&JWarren|4906|OFFICE|212-854-2395
278555|THEATRE ARTS DIVISION  (SCHOOL OF THE ARTS)|600|MS* 4-3408|601 Dodge|1807|OFFICE|212-854-3408
278557|TOMPKINS HALL NURSERY AND CHILDCARE CENTER|600||21 ClrmtAv||OFFICE|212-666-3340
278558|TOURS, CAMPUS|600||213 Low|4318||
278563|TRANSFER AND VISITING STUDENT ORGANIZATION (LAW)|600|MS* 4-2395|W&JWarren|4906|OFFICE|212-854-2395
278568|TRAVEL DIRECTIONS TO COLUMBIA|600|||||
278570|TRAVEL SERVICES|600|||||
278577|Office of the Controller (Procurement)|600|MS* 4-2122|Studebaker Bldg,615 West 131st Street,3rd Floor||Office|212-854-2122
278656|TREASURY|600|||||
278670|TUTORING|600|||||
278675|TYPESETTING|600|||||
278677|UKRAINIAN (SLAVIC LANGUAGES)|600|MS* 4-3941|708 Hmltn|2839|OFFICE|212-854-3941
278679|UN STUDIES PROGRAM|600|MS* 4-1790|1314A INTAFF||OFFICE|212-854-1790
278681|UNEMPLOYMENT ACTION CENTER  (LAW)|600|MS* 4-2395|W&JWarren|4906|OFFICE|212-854-2395
278685|UNION THEOLOGICAL SEMINARY|600||3041 Bway (10027)||OFFICE|212-662-7100
278690|UNIVERSITY APARTMENT HOUSING, OFFICE OF|600|MS* 4-9300|400 W119St|8801|OFFICE|212-854-9300
278695|UNIVERSITY CEREMONIES|600|IC* 2549|INTERCHURCH STE 530|7720|OFFICE|212-870-2549
278704|UNIVERSITY LIBRARIAN, VICE PRESIDENT FOR INFORMATION SERVICES AND|600|MS* 4-2247|517 Btlr|1101|OFFICE|212-854-2247
278711|UNIVERSITY RECORD, COLUMBIA|600|MS* 4-3283|304 Low|4321|OFFICE|212-854-3283
278715|UNIVERSITY SEMINARS|600|MS* 4-2389|305 FacHs|2302|OFFICE|212-854-2389
278717|UNIVERSITY SENATE|600|MS* 4-6825|406 Low|4334|OFFICE|212-854-6825
278728|URBAN STUDIES PROGRAM (CC)|600|MS* 4-2441|208 Hmltn|2805|OFFICE|212-854-2441
278730|UROLOGY DEPARTMENT|600|MC* 7-0112|161 FtWshAv||OFFICE|212-305-0112
278732|UTILITIES SYSTEMS, FACILITIES MANAGEMENT|600|||||
278734|VALLEY HOSPITAL|600||Ridgewood, NJ (07450)||OFFICE|201-447-8000
278737|VICE PRESIDENT FOR ARTS AND SCIENCES|600|MS* 4-8296|208 Low|4314|OFFICE|212-854-8296
278747|VICE PRESIDENT, EXECUTIVE, FOR HEALTH AND BIOMEDICAL SCIENCES AND DEAN OF THE FA|600|HS* 5-3592|630 W168St (P&S 2-401)||OFFICE|212-305-3592
278749|VICE PRESIDENT FOR HUMAN RESOURCES|600|IC* 2832|1901 Interchurch|7705|OFFICE|212-870-2832
278752|VICE PRESIDENT FOR INFORMATION SERVICES AND UNIVERSITY LIBRARIAN|600|MS* 4-2247|517 Btlr|1101|OFFICE|212-854-2247
278756|VICE PRESIDENT FOR UNIVERSITY BUDGET AND FINANCIAL PLANNING|600|MS* 4-3200|635 W115ST|8122|OFFICE|212-854-3200
278759|VIDEO|600|MC* 5-8356|Pres Hosp 20||OFFICE|212-305-8356
278763|VIOLENCE RESEARCH AND PREVENTION, CENTER FOR  (PUBLIC HEALTH)|600|MC* 7-7748|600 W168St||OFFICE|212-305-7748
278764|VISITORS CENTER AND SERVICES|600||213 Low|4318||
278774|VISUAL ARTS DIVISION  (SCHOOL OF THE ARTS)|600|MS* 4-4065|310 Dodge|1806|OFFICE|212-854-4065
278777|WALLACH ART GALLERY|600|MS* 4-2877|8fl Schrm|5517|OFFICE|212-854-2877
278785|WARE LIBRARY|600|MS* 4-3501|||OFFICE|212-854-3501
278787|WEDDINGS|600|MS* 4-1487|110 Chapl|2008|OFFICE|212-854-1487
278789|WEEKLY CALENDAR   (COLUMBIA UNIVERSITY RECORD)|600|MS* 4-3282|304 Low|4321|OFFICE|212-854-3282
278791|WELDING STUDIO  (SCHOOL OF THE ARTS)|600|CX* 2453|501 Prntis||OFFICE|212-280-2453
278792|WESTERN EUROPE, CENTER ON|600|MS* 4-4627|1227 IntAff|3336|OFFICE|212-854-4627
278795|WHITE PLAINS HOSPITAL CENTER|600||White Plains, NY (10601)||OFFICE|914-681-0600
278800|WOMEN AND GENDER, INSTITUTE FOR RESEARCH ON|600|MS* 4-3277|763 SchrmExt|5508|OFFICE|212-854-3277
278802|WOMEN ENGINEERS, SOCIETY OF  (SWE)|600|MS* 4-3611|505  LERNER|2602|OFFICE|212-854-4900
278804|WOMEN OF COLOR COALITION (LAW)|600|MS* 4-2395|W&JWarren|4906|OFFICE|212-854-2395
278806|WOMEN'S CENTER (CC)|600|MS* 4-4907|401 Lerner|2602|OFFICE|212-854-4907
278808|WOMEN'S HEALTH, CENTER FOR|600||16 E60St, NY (10022)   1-800-91WOMEN||OFFICE|212-326-8540
278810|WOMEN'S MINIMAL ACCESS SURGERY, CENTER FOR|600|HS* 6-8770|622 W168St, PH16    877-GYNSURG||OFFICE|212-305-8770
278813|WOMEN'S REPRODUCTIVE CARE, CENTER FOR|600||1790 Bway, 2fl (10019)||OFFICE|646-756-8282
278815|WOMEN'S STUDIES PROGRAM|600|MS* 4-3277|763 SchrmExt|5508|OFFICE|212-854-3277
278821|WRITING DIVISION  (SCHOOL OF THE ARTS)|600|MS* 4-4391|415 Dodge|1804|OFFICE|212-854-4391
278823|WRITING PROGRAM|600|||||
278826|YEARBOOK|600|||||
278836|YOUTH JUSTICE ASSOCIATION|600|MS* 4-2395|W&JWarren||OFFICE|212-854-2395
278841|ACADEMIC TECHNOLOGIES|500|MS* 4-6933|1fl Lehm||OFFICE|212-854-6933
278842|ADMINISTRATIVE COMPUTING|500|MS* 4-8791|Lower level, Elliott||OFFICE|212-854-8791
278843|ADMISSIONS OFFICE|500|MS* 4-2014|111 Mlbk||OFFICE|212-854-2014
278844|ADVISERS, CLASS|500|MS* 4-2024|105 Mlbk||OFFICE|212-854-2024
278845|ALCOHOL/SUBSTANCE ABUSE PROGRAM|500|MS* 4-2128|132 Hwtt||OFFICE|212-854-2128
278846|ALUMNAE AFFAIRS|500|||||
278847|AMERICAN STUDIES DEPARTMENT|500|MS* 4-2159|415 Lehm||OFFICE|212-854-2159
278848|ANTHROPOLOGY DEPARTMENT|500|MS* 4-9389|411 Mlbk||OFFICE|212-854-9389
278849|ARCHITECTURE DEPARTMENT|500|MS* 4-8430|310 Brnrd||OFFICE|212-854-8430
278850|ARCHIVIST|500|MS* 4-4079|10 Lehm||OFFICE|212-854-4079
278851|ART HISTORY DEPARTMENT|500|MS* 4-2118|301 Brnrd||OFFICE|212-854-2118
278852|ASIAN AND MIDDLE EAST CULTURES|500|MS* 4-5417|321 Mlbk||OFFICE|212-854-5417
278853|BIOLOGICAL SCIENCES DEPARTMENT|500|MS* 4-2437|1203 Altschul||OFFICE|212-854-2437
278854|BROOKS HALL|500|MS* 4-1805|Front Desk||OFFICE|212-854-1805
278855|BUDGET AND PLANNING OFFICE|500|MS* 4-6032|101 Mlbk||OFFICE|212-854-6032
278856|BUILDINGS AND GROUNDS|500|||||
278858|BULLETIN OFFICE|500|MS* 4-2119|McIntosh||OFFICE|212-854-2119
278859|Bursar - Barnard College|500|MS* 4-2026|15 Mlbk||OFFICE|212-854-2026
278860|CAREER DEVELOPMENT|500|MS* 4-2033|11 Mlbk||OFFICE|212-854-2033
278863|CENTENNIAL SCHOLARS|500|MS* 4-6146|330 MLBK||OFFICE|212-854-6146
278865|CENTRAL RECORDS|500|MS* 4-2008|16 Mlbk||OFFICE|212-854-2008
278866|CHEMISTRY DEPARTMENT|500|MS* 4-8461|607A  ALTSCHUL||OFFICE|212-854-8461
278867|CLASS DEANS|500|MS* 4-2024|105 Mlbk||OFFICE|212-854-2024
278868|CLASSICS DEPARTMENT|500|MS* 4-2597|215 MLBK||OFFICE|212-854-2597
278869|COLLEGE ACTIVITIES|500|MS* 4-2096|209 McIntosh||OFFICE|212-854-2096
278870|Barnard College President Office|500|MS* 4-2021|Milbank 109||OFFICE|212-854-2021
278871|COMPUTER CENTERS|500|||||
278875|Controller - Barnard College|500|MS* 4-2010|15 Mlbk||OFFICE|212-854-2010
278876|COUNSELING SERVICE|500|MS* 4-2092|1FL HWTT||OFFICE|212-854-2092
278877|DANCE DEPARTMENT|500|MS* 4-2995|204 BrnrdAn||OFFICE|212-854-2995
278879|DEAN OF STUDIES|500|MS* 4-2024|105 Mlbk||OFFICE|212-854-2024
278880|DEAN OF THE COLLEGE|500|MS* 4-3075|105 Mlbk||OFFICE|212-854-3075
278881|DEAN OF THE FACULTY|500|MS* 4-2708|110 Mlbk||OFFICE|212-854-2708
278882|DEVELOPMENT OFFICE|500|MS* 4-2001|115 MLBK||OFFICE|212-854-2001
278885|DINING HALL|500|MS* 4-6647|Hwtt||OFFICE|212-854-6647
278886|DISABILITY SERVICES, OFFICE FOR|500|MS* 4-4634|105 Hwtt||OFFICE|212-854-4634
278887|ECONOMICS DEPARTMENT  (ECONOMIC HISTORY, ECONOMICS AND MATHEMATICS)|500|MS* 4-3454|4A Lehm||OFFICE|212-854-3454
278888|EDUCATION|500|MS* 4-7072|336 MLBK||OFFICE|212-854-7072
278891|ELLIOTT HALL|500|MS* 4-8020|Front Desk||OFFICE|212-854-8020
278892|ENGLISH DEPARTMENT|500|MS* 4-2116|417 Brnrd||OFFICE|212-854-2116
278893|ENVIRONMENTAL SCIENCE DEPARTMENT|500|MS* 4-5120|404 Altschul||OFFICE|212-854-5120
278896|FACILITIES SERVICES|500|||||
278899|Finance and Planning - Barnard College|500|MS* 4-2003|101 Mlbk||OFFICE|212-854-2003
278901|FIRST-YEAR FOCUS COORDINATOR|500|MS* 4-7556|110 Sulz||OFFICE|212-854-7556
278902|FIRST-YEAR SEMINAR PROGRAM|500|MS* 4-3577|332G MLBK||OFFICE|212-854-3577
278903|FOOD SERVICE|500|MS* 4-2129|Hwtt||OFFICE|212-854-2129
278904|FOREIGN AREA STUDIES|500|MS* 4-2159|415 Lehm||OFFICE|212-854-2159
278905|FOREIGN STUDENT ADVISER|500|MS* 4-2024|105 Mlbk||OFFICE|212-854-2024
278906|FRENCH DEPARTMENT|500|MS* 4-8312|320 Mlbk||OFFICE|212-854-8312
278907|GENERAL COUNSEL|500|MS* 4-2088|49 CLRMTAV||OFFICE|212-854-2088
278908|GERMAN DEPARTMENT|500|MS* 4-8312|320D MLBK||OFFICE|212-854-8312
278909|GRANTS OFFICE|500|MS* 4-2001|224 MLBK||OFFICE|212-854-2001
278910|GREEK (CLASSICS DEPARTMENT)|500|MS* 4-2597|215 MLBK||OFFICE|212-854-2597
278911|HEALTH SERVICE|500|MS* 4-2091|Lower level, Brks||OFFICE|212-854-2091
278912|HIGHER EDUCATION OPPORTUNITY PROGRAM|500|MS* 4-3583|111 Hwtt||OFFICE|212-854-3583
278913|HISTORY DEPARTMENT|500|MS* 4-2159|415 Lehm||OFFICE|212-854-2159
278914|HOUSING OFFICE|500|MS* 4-5561|110 Sulz||OFFICE|212-854-5561
278919|INFORMATION|500|MS* 4-5262|104 Brnrd||OFFICE|212-854-5262
278920|INSTITUTE FOR URBAN EDUCATION|500|MS* 4-2121|335 Mlbk||OFFICE|212-854-2121
278921|INSTITUTIONAL PLANNING|500|MS* 4-6031|101 MLBK||OFFICE|212-854-6031
278922|ITALIAN DEPARTMENT (BC)|500|MS* 4-8312|320 Mlbk||OFFICE|212-854-8312
278923|JAMES ROOM|500|MS* 4-2120|414 Brnrd||OFFICE|212-854-2120
278924|JEWISH STUDIES|500|MS* 4-2597|219 Mlbk||OFFICE|212-854-2597
278925|JONG WRITING CENTER|500|MS* 4-8941|121 Reed||OFFICE|212-854-8941
278926|LATIN (CLASSICS DEPARTMENT)|500|MS* 4-2597|215 MLBK||OFFICE|212-854-2597
278927|LAUNDRY|500|MS* 4-4313|Brnrd bsmt||OFFICE|212-854-4313
278928|LIBERTY|500|MS* 4-7520|5 Milbk||OFFICE|212-854-7520
278929|LIBRARY|500|||||
278938|LOST AND FOUND|500|MS* 4-3362|104 Brnrd||OFFICE|212-854-3362
278939|MAIL SERVICES|500|||||
278942|MATHEMATICS DEPARTMENT|500|MS* 4-3577|333 MLBK,  518 MATH||OFFICE|212-854-3577
278945|MEDIA SERVICES|500|MS* 4-2418|3FL LEHM||OFFICE|212-854-2418
278946|MEDIEVAL AND RENAISSANCE STUDIES|500|MS* 4-2112|421 BRNRD||OFFICE|212-854-2112
278947|MINOR LATHAM PLAYHOUSE|500|MS* 4-2079|1fl Mlbk||OFFICE|212-854-2079
278948|MORTARBOARD|500|MS* 4-4568|102 McIntosh||OFFICE|212-854-4568
278949|MULTICULTURAL AFFAIRS|500|MS* 4-9130|210 McIntosh||OFFICE|212-854-9130
278950|MUSIC DEPARTMENT|500|MS* 4-5096|319 Mlbk||OFFICE|212-854-5096
278951|OFFICE SERVICES|500|||||
278954|PHILOSOPHY DEPARTMENT|500|MS* 4-4689|326 Mlbk||OFFICE|212-854-4689
278955|PHYSICAL EDUCATION DEPARTMENT|500|MS* 4-2085|206 Brnrd||OFFICE|212-854-2085
278956|PHYSICS AND ASTRONOMY DEPARTMENT|500|MS* 4-3628|503 ALTSCHUL||OFFICE|212-854-3628
278958|PLIMPTON HALL|500|MS* 4-3417|Front Desk||OFFICE|212-854-3417
278959|POLITICAL SCIENCE DEPARTMENT|500|MS* 4-8422|417A-B  LEHM||OFFICE|212-854-8422
278960|POTTERY CO-OP|500|MS* 4-5645|107 McIntosh||OFFICE|212-854-5645
278961|PRE-COLLEGE PROGRAM|500|MS* 4-8866|112 Hwtt||OFFICE|212-854-8866
278962|PREPROFESSIONAL ADVISERS|500|MS* 4-2024|105 Mlbk||OFFICE|212-854-2024
278963|PRESIDENT'S OFFICE|500|MS* 4-9970|202 Low|4309|OFFICE|212-854-9970
278964|PROVOST'S OFFICE|500|MS*4-2708|110 Mlbk||OFFICE|212-854-2708
278965|PSYCHOLOGY DEPARTMENT|500|MS* 4-3608|406 Schermerhorn|5501|OFFICE|212-854-3608
278966|PUBLIC AFFAIRS OFFICE|500|MS* 4-2037|49 CLRMTAV||OFFICE|212-854-2037
278967|PURCHASING OFFICE|500|MS* 4-5204|107 McIntosh||OFFICE|212-854-5204
278968|RECORDS, CENTRAL|500|MS* 4-2008|16 Mlbk||OFFICE|212-854-2008
278969|REGISTRAR|500|MS* 4-2011|107 Mlbk||OFFICE|212-854-2011
278970|RELIGION DEPARTMENT|500|MS* 4-2597|219 Mlbk||OFFICE|212-854-2597
278971|RESIDENCE HALLS|500|||||
278987|RESIDENTIAL LIFE|500|MS* 4-5561|1st Floor Sulzberger||OFFICE|212-854-5561
278988|SAFETY AND SECURITY OFFICE|500|MS* 4-3362|104 Brnrd||OFFICE|212-854-3362
278989|SCIENCE TECHNOLOGY ENTRY PROGRAM (STEP)|500|MS* 4-1314|5 Mlbk||OFFICE|212-854-1314
278990|SKIP-STOP|500|MS* 4-3000|121 McIntosh||OFFICE|212-854-3000
278991|SLAVIC DEPARTMENT|500|MS* 4-5417|226A MLBK||OFFICE|212-854-5417
278992|SNACK BAR|500|MS* 4-6571|McIntosh||OFFICE|212-854-6571
278993|SOCIOLOGY DEPARTMENT|500|MS* 4-4226|501 Knox Hall|9649|OFFICE|212-854-4226
278996|SPANISH AND LATIN AMERICAN CULTURES|500|MS* 4-2597|219 Mlbk||OFFICE|212-854-2597
278997|SPECIAL EVENTS|500|MS* 4-8021|122 MCINTOSH||OFFICE|212-854-8021
278998|STUDENT GOVERNMENT|500|MS* 4-2126|116 McIntosh||OFFICE|212-854-2126
278999|STUDENT LIFE|500|MS* 4-3095|210 McIntosh||OFFICE|212-854-3095
279000|STUDENT MAIL SERVICES|500|MS* 4-2095|108 McIntosh||OFFICE|212-854-2095
279002|THEATRE|500|MS* 4-2080|507 Mlbk||OFFICE|212-854-2080
279005|TODDLER CENTER|500|MS* 4-8271|417 Mlbk||OFFICE|212-854-8271
279006|TRANSCRIPT SERVICE|500|MS* 4-7462|107 Mlbk||OFFICE|212-854-7462
279007|TWU LOCAL 264|500|MS* 4-2032|LOWER LEVEL BRNRD||OFFICE|212-854-2032
279008|UAW LOCAL 2110|500|MS* 4-9654|20 Mlbk||OFFICE|212-854-9654
279009|URBAN STUDIES|500|MS* 4-4073|418A MLBK||OFFICE|212-854-4073
279010|VICE PRESIDENT FOR DEVELOPMENT AND ALUMNAE AFFAIRS|500|MS* 4-2001|115 Mlbk||OFFICE|212-854-2001
279011|VICE PRESIDENT FOR  ADMINISTRATION|500|MS* 4-2003|103A MLBK||OFFICE|212-854-2003
279013|WOLLMAN LIBRARY|500|||||
279015|WOMEN, CENTER FOR RESEARCH ON|500|MS* 4-2067|101 Brnrd||OFFICE|212-854-2067
279016|WOMEN S STUDIES DEPARTMENT|500|MS* 4-2108|201 Brnrd||OFFICE|212-854-2108
279017|WRITING CENTER, JONG|500|MS* 4-8941|121 Reed||OFFICE|212-854-8941
279018|WRITING PROGRAM|500|MS* 4-2724|411B  BRNRD||OFFICE|212-854-2724
279025|ACCOUNTING, CASH AND INVESTMENT SERVICES|400|TC* 3016|175 GDODGE  (BOX 30)||OFFICE|212-678-3016
279031|ADULT EDUCATION GUIDED INTENSIVE STUDY  (AEGIS)|400|TC* 3760|201 Main (Box 50)||OFFICE|212-678-3760
279037|ALUMNI RELATIONS|400|TC* 3215|193 GDODGE (BOX 306)||OFFICE|212-678-3215
279055|ARTS AND HUMANITIES, DEPARTMENT OF|400|TC* 3799|334B  HMANN (BOX 104)||OFFICE|212-678-3799
279061|ASSOCIATE DEAN FOR ACADEMIC ADMINISTRATION|400|TC* 3052|113 MAIN (BOX 151)||OFFICE|212-678-3052
279065|AUDIOVISUAL SERVICES|400|TC* 3822|60 GDODGE  (BOX 130)||OFFICE|212-678-3822
279068|BIOBEHAVIORAL SCIENCES, DEPARTMENT OF|400|TC* 3895|1152B Thndk (Box 180)||OFFICE|212-678-3895
279071|BOOKSTORE|400|TC* 3920|1224 AMSTERDAM AVE (BOX 17)||OFFICE|212-678-3920
279079|BUDGET AND PLANNING|400|TC* 4179|175 GDodge (Box 30)||OFFICE|212-678-4179
279080|BURSAR S OFFICE (Student Accounts)|400|||||
279082|BUSINESS OFFICE (Controller's Office)|400|TC* 3016|175 GDODGE  (BOX 30)||OFFICE|212-678-3016
279085|CAFETERIA|400|TC* 3168|75 GDODGE (BOX 29)||OFFICE|212-678-3168
279092|CAPITAL PROJECTS AND CONSTRUCTION|400|TC* 3012|28 Main (Box 162)||OFFICE|212-678-3012
279093|CAREER SERVICES, OFFICE OF|400|TC* 3140|44 HMann (Box 161)||OFFICE|212-678-3140
279098|CENTER FOR EDUCATIONAL OUTREACH AND INNOVATION (CEO&I)|400|TC* 3987|107 Main (Box 132)||OFFICE|212-678-3987
279118|CENTER FOR OPPORTUNITY AND OUTCOMES|400|TC* 3076|650A Thndk (Box 223)||OFFICE|212-678-3076
279121|CENTER FOR TECHNOLOGY AND SCHOOL CHANGE|400|TC* 3773|501 AND 503 RUSSL (BOX 8)||OFFICE|212-678-3773
279122|CENTER FOR THE STUDY OF THE FAMILY AS EDUCATOR|400|TC* 3187|274 GDodge (Box 123)||OFFICE|212-678-3187
279151|COMPUTING AND INFORMATION SERVICES  (CIS)|400|TC* 3485|241 HMann (Box 43)||OFFICE|212-678-3485
279179|CONTROLLER'S OFFICE|400|TC* 3016|175 GDODGE (BOX 30)||OFFICE|212-678-3016
279190|COPYRIGHT PERMISSION SERVICES|400|TC* 3703|34 Main (Box 192)||OFFICE|212-678-3703
279191|COUNCIL FOR EXCEPTIONAL CHILDREN  (CEC)|400|TC* 3076|530H THNDK (BOX 223)||OFFICE|212-678-3076
279192|COUNSELING AND CLINICAL PSYCHOLOGY, DEPARTMENT OF|400|TC* 3257|428 HMann||OFFICE|212-678-3257
279195|COURSE PACKET PREPARATION|400||||OFFICE|212--678-3703
279201|CURRICULUM AND TEACHING,  DEPARTMENT OF|400|TC* 3765|306 Main (Box 31)||OFFICE|212-678-3765
279203|BUSINESS SERVICES|400|TC* 3055|134 THMPS (BOX 235)||OFFICE|212-678-3055
279206|DEAF AND HARD OF HEARING SERVICES|400|TC* 3853|164 THNDK (BOX 105)||OFFICE|212-678-3853
279208|ACADEMIC AFFAIRS AND DEAN OF THE COLLEGE|400|TC* 3050|122 Main (Box 54)||OFFICE|212-678-3050
279417|DEVELOPMENT AND EXTERNAL AFFAIRS, OFFICE OF|400|TC* 3231|193 GDodge (Box 306)||OFFICE|212-678-3231
279442|DISABILITIES, ACCESS AND SERVICES FOR INDIVIDUALS WITH|400|TC* 3689|166 THNDK (BOX 105)  V/TTY||OFFICE|212-678-3689
279445|DISTANCE LEARNING PROJECT|400|TC* 8182|505A RUSSL (BOX 164)||OFFICE|212-678-8182
279446|DOCTORAL STUDIES, OFFICE OF|400|TC* 4058|153 HMANN (BOX 172)||OFFICE|212-678-4058
279447|DOCUMENT SERVICES (WORD PROCESSING, DUPLICATING/COPYRIGHT)|400|TC* 3703|34 Main (Box 192)||OFFICE|212-678-3703
279450|DORIS DILLON CENTER TC INNOVATIONS, THE|400||307 FIFTH AVE., 4FL, NYC 10016 (TC BOX 194)||OFFICE|212-404-7821
279456|EARTH FRIENDS|400|TC* 3955|LITTLE COMMONS, HMANN BASEMENT  (BOX 188)||OFFICE|212-678-3955
279463|ELBENWOOD CENTER FOR THE STUDY OF THE  FAMILY AS EDUCATOR|400|TC* 3187|274A GDODGE (BOX 123)||OFFICE|212-678-3187
279465|EMERITI FACULTY INFORMATION|400|TC* 3991|122 MAIN (BOX 54)||OFFICE|212-678-3991
279468|EMPLOYEE ASSISTANCE PROGRAM  (EAP)|400||136 E57St (10022);||OFFICE|212-935-3030
279478|FACILITIES|400|TC* 3010|28 Main (Box 162)||OFFICE|212-678-3010
279495|VICE PRESIDENT FOR FINANCE AND ADMINISTRATION, OFFICE OF THE|400|TC* 3042|115 Main (Box 23)||OFFICE|212-678-3042
279511|GIFTEDNESS, PROGRAM IN|400|TC* 3801|307 MAIN (BOX 31)||OFFICE|212-678-3801
279513|GRANTS AND CONTRACTS ACCOUNTING|400|TC* 4112|422F Thmps (Box 21)||OFFICE|212-678-4112
279514|GRANTS AND SPONSORED PROGRAMS|400|TC* 4106|128 Main (Box 151)||OFFICE|212-678-4106
279518|GRADUATE WRITING CENTER|400|TC* 3789|46B HMANN ( BOX 88)||OFFICE|212-678-3789
279519|HEALTH AND BEHAVIOR STUDIES, DEPARTMENT OF|400|TC* 3964|531 Thndk (Box 114)||OFFICE|212-678-3964
279523|HEALTH PROMOTION, CENTER FOR|400|TC* 3964|531 THNDK (BOX 119)||OFFICE|212-678-3964
279524|HEALTH SERVICE, COLUMBIA UNIVERSITY|400|MS* 4-2284|JOHN JAY HALL 519 W114ST (BOX 519)||OFFICE|212-854-2284
279528|HEARING IMPAIRMENT, PROGRAM IN|400|TC* 3867|528 Thndk (Box 223)||OFFICE|212-678-3867
279530|HECHINGER INSTITUTE ON EDUCATION AND  THE MEDIA|400||525 W, 120TH STREET  (BOX 127)||OFFICE|212-851-1072
279531|HERITAGE SCHOOL PROJECT|400|TC* 3360|444I Macy (Box 78)||OFFICE|212-678-3360
279539|HOLLINGWORTH PRESCHOOL|400|TC* 4001|326 HMann (Box 170)||OFFICE|212-678-4001
279541|HOUSING, RESIDENCE LIFE, AND SECURITY|400|TC* 3235|1B  WHITT (BOX 312)||OFFICE|212-678-3235
279554|HUMAN DEVELOPMENT, DEPARTMENT OF|400|TC* 3882|453 GDodge (Box 118)||OFFICE|212-678-3882
279568|INSTITUTE FOR LEARNING TECHNOLOGIES  (ILT)|400|TC* 4000|322 Thmps (Box 144)||OFFICE|212-678-4000
279569|INSTITUTE FOR URBAN AND MINORITY EDUCATION  (IUME)|400|||||
279588|INSTITUTIONAL STUDIES, OFFICE OF|400|TC* 3706|423 Thmps (Box 151)||OFFICE|212-678-3706
279592|INSTRUCTIONAL MEDIA LAB|400|TC* 3559|265 Macy (Box 130)||OFFICE|212-678-3559
279595|INSTRUCTIONAL TECHNOLOGY AND MEDIA, PROGRAM IN|400|TC* 3344|322 Thmps (Box 8)||OFFICE|212-678-3344
279596|INTERNATIONAL AND TRANSCULTURAL STUDIES, DEPARTMENT OF|400|TC* 3947|357 MACY (BOX 211)||OFFICE|212-678-3947
279598|INTERNATIONAL CENTER FOR COOPERATION AND CONFLICT RESOLUTION  (ICCCR)|400||232 HMANN (BOX 84)||OFFICE|800-290-3664
279601|INTERNATIONAL EDUCATIONAL DEVELOPMENT|400|TC* 3184|374 GDODGE (BOX 55)||OFFICE|212-678-3184
279606|J. M. HUBER INSTITUTE FOR LEARNING IN ORGANIZATIONS|400|TC* 3366|203 Main (Box 187)||OFFICE|212-678-3366
279614|LIBRARIES, GOTTESMAN|400|TC* 3494|(Box 307)||OFFICE|212-678-3494
279655|LOST AND FOUND (Information Desk)|400|TC* 3335|1ST FL MAIN (BOX 225)||OFFICE|212-678-3335
279661|MAIL ROOM|400|TC* 3700|23  MAIN (BOX 198)||OFFICE|212-678-3700
279665|MATHEMATICS, SCIENCE, AND TECHNOLOGY, DEPARTMENT OF|400|TC* 3405|321 Thmps (Box 19)||OFFICE|212-678-3405
279668|MEDIA SERVICES|400|TC* 3822|60 GDODGE (BOX 130)||OFFICE|212-678-3822
279669|METROPOLITAN SCHOOL STUDY COUNCIL|400|TC* 3163|959 THNDK (BOX 12)||OFFICE|212-678-3163
279679|MUSIC AND MUSIC EDUCATION, PROGRAM IN|400|TC* 3283|520 HMann (Box 139)||OFFICE|212-678-3283
279680|MYSAK, EDWARD D., SPEECH AND HEARING CLINIC|400|TC* 3409|169 Macy (Box 191)||OFFICE|212-678-3409
279681|NATIONAL CENTER FOR RESTRUCTURING EDUCATION, SCHOOLS, AND TEACHING  (NCREST)|400|TC* 3432|411 Main (Box 110)||OFFICE|212-678-3432
279691|NURSE EXECUTIVES, PROGRAM FOR|400|TC* 3421|201 Main (Box 150)||OFFICE|212-678-3421
279698|ORGANIZATION AND LEADERSHIP,  DEPARTMENT OF|400|TC* 3258|212 MAIN,  STE A   (BOX 175)||OFFICE|212-678-3258
279701|PAYROLL (BUSINESS OFFICE)|400|TC* 3047|134 Thmps (Box 235)||OFFICE|212-678-3047
279702|PEACE CORPS FELLOW PROGRAM|400|TC* 4080|5L Whitt (Box 90)||OFFICE|212-678-4080
279703|PEACE EDUCATION, CENTER ON|400|TC* 8116|278  GDODGE (BOX 171)||OFFICE|212-678-8116
279706|PHILOSOPHY AND EDUCATION, PROGRAM IN|400|MS* 4138|334 HMann (Box 204)||OFFICE|212-678-4138
279716|PHYSICAL EDUCATION, PROGRAM IN|400|TC* 3324|1056 THNDK (BOX 126)||OFFICE|212-678-3324
279721|PRESERVICE PROGRAM|400|TC* 3695|308C MAIN (BOX 31)||OFFICE|212-678-3695
279723|PRESIDENT OF THE COLLEGE|400|TC* 3131|124 Main (Box 163)||OFFICE|212-678-3131
279743|PURCHASING AND ADMINISTRATIVE SERVICES|400|TC* 3136|29 MAIN (BOX 198)||OFFICE|212-678-3136
279754|REGISTRAR'S OFFICE|400|TC* 4050|152 HMann (Box 311)||OFFICE|212-678-4050
279774|RISK MANAGEMENT|400|TC* 8164|28 MAIN (BOX 48)||OFFICE|212-678-8164
279790|SECURITY|400|TC* 3098|106  WHITT (BOX 225)||OFFICE|212-678-3098
279795|SHIPPING AND RECEIVING|400|TC* 3721|502 W 121 St (Box 198)||OFFICE|212-678-3721
279806|SPECIAL EDUCATION|400|TC* 3880|528 THNDK (BOX 223)||OFFICE|212-678-3880
279810|SPONSORED PROGRAMS, OFFICE OF|400|TC* 4105|422 Thmps (Box 151)||OFFICE|212-678-4105
279817|STRATEGIC PLANNING OFFICE|400|TC* 3314|178 GDODGE (BOX 306)||OFFICE|212-678-3314
279818|STUDENT ACCOUNTS, OFFICE OF|400|TC* 3056|133 Thmps (Box 305)||OFFICE|212-678-3056
279819|STUDENT ACTIVITIES AND PROGRAMS, OFFICE OF|400|TC* 3690|161 THNDK (BOX 42)||OFFICE|212-678-3690
279845|STUDIES IN ART EDUCATION|400|TC* 4082|444E MACY (BOX 78)||OFFICE|212-678-4082
279852|TEACHER EDUCATION AND SCHOOL-BASED SUPPORT|400|TC* 3502|4FL RUSSL  (BOX 97)||OFFICE|212-678-3502
279853|TEACHER OPPORTUNITY CORPS|400|TC* 3466|5L Whitt (Box 97)||OFFICE|212-678-3466
279854|TEACHERS COLLEGE PRESS|400|TC* 3929|1234 Amsterdam Ave (Box 303)||OFFICE|212-678-3929
279855|TEACHERS COLLEGE RECORD|400|TC* 3774|282 GDODGE (BOX 103)||OFFICE|212-678-3774
279857|TEACHING ENGLISH TO SPEAKERS OF OTHER  LANGUAGES  (TESOL)|400|TC* 3795|316B MAIN (BOX 66)||OFFICE|212-678-3795
279862|UNION LOCAL #707|400|TC* 3014|31 MAIN||OFFICE|212-678-3014
279863|TELECOMMUNICATIONS, OFFICE OF|400|TC* 3456|54 THNDK (BOX 108)||OFFICE|212-678-3456
279874|UNION LOCAL 32 B/J|400|TC* 3014|31 Main||OFFICE|212-678-3014
279875|UNION 2110|400|TC* 4158|31 Main||OFFICE|212-678-4158
279876|VICE PRESIDENT FOR DEVELOPMENT AND EXTERNAL AFFAIRS|400|TC* 3231|193 GDodge (Box 306)||OFFICE|212-678-3231
279878|VIDEO CONFERENCING INFORMATION|400|TC* 3822|||OFFICE|212-678-3822
279880|VIDEO SERVICES INFORMATION|400|TC* 3359|202 MACY (BOX 130||OFFICE|212-678-3359
279883|WINTER ROUND TABLE|400|TC* 4111|422A  (BOX 102)||OFFICE|212-678-4111
279887|WORKSHOP INFORMATION|400|TC* 3302|234 HMANN (BOX 43)||OFFICE|212-678-3302
279973|KRAFT CENTER FOR JEWISH LIFE|600|MS* 4-5111|606 W 115 ST||OFFICE|212-854-5111
281571|COURSE AND GRADE INQUIRY SYSTEM|600||||OFFICE|212-854-7373
281573|TELEPHONE REGISTRATION SYSTEM|600||||OFFICE|212-854-8282
281575|LERNER HALL HOSPITALITY DESK|600|||||212-854-9067
283119|THE SCHOOL AT COLUMBIA UNIVERSITY|600|MS*1-4215|556 W 110 ST|4344|OFFICE|212-851-4215
317988|ACADEMIC SUCCESS PROGRAMS/OPUS (CC/SEAS)|600|MS* 4-3514|103 FRNLD;|4747|OFFICE|212-854-3514
326974|FEDERAL CREDIT UNION|600||||OFFICE|212-854-8228
326976|BRAZILIAN STUDIES, CENTER FOR|600|MS* 4-4644|828B INTAFF|3323|OFFICE|212-854-4644
326978|CENTER FOR BRAZILIAN STUDIES|600|MS* 4-4644|828B INTAFF|3323|OFFICE|212-854-4644
326980|CENTER FOR GLOBAL HEALTH AND ECONOMIC DEVELOPMENT (CGHED)|600|MS* 4-2462|HOGAN 100 LEVEL|3277|OFFICE|212-854-2462
326982|CENTER FOR GLOBALIZATION AND SUSTAINABLE DEVELOPMENT (CGSD)|600|MS* 4-3615|HOGAN, 100 LEVEL|3277|OFFICE|212-854-3615
327121|INFERTILITY|600||1790BWAY 2FL (10019)||OFFICE|646-756-8282
327123|MAHONEY CENTER FOR MIND AND BRAIN|600|EXT. 101|722 W168ST, KOLB ANNEX, RM 561||OFFICE|212-543-6931
327757|WASTE REMOVAL|600|MS* 4-8256|||OFFICE|212-854-8256
328096|SCHOLARS AND FELLOWSHIPS OFFICE (CC)|600|MS* 4-5895|401 LERNER|2607|OFFICE|212-854-5895
329316|CENTER FOR BIOETHICS|600||630 W168ST, RMS 3-470  MAILING 1051 RVSDR (UNIT 25||OFFICE|212-342-0452
330232|IRB (INSTITUTIONAL REVIEW BOARD) MORNINGSIDE|600||475 RIVERSIDE DR. ROOM 522||OFFICE|212-870-3585
331116|SENIOR EXECUTIVE VICE PRESIDENT OF THE UNIVERSITY|600|MS* 4-9967|311 LOW|4342|OFFICE|212-854-9967
331121|SCIENCE AND TECHNOLOGY VENTURES|600|||||
331153|RESIDENTIAL PROGRAMS, OFFICE OF (CC)|600|MS* 4-6805|101 CRMAN|4205|OFFICE|212-854-6805
331783|KECK CENTER FOR COGNITION AND PLASTICITY|600||722 W168ST KOLB ANNEX, RM 561, EXT.101||OFFICE|543-6931
331791|RESEARCH DEVELOPMENT OFFICE (RDO)|600|MS* 4-0742|811 INTAFF|3355|OFFICE|212-854-0742
331795|STUDENT AFFAIRS OFFICE, CONTINUING EDUCATION|600|MS* 4-9666|203 LWSN|4119|OFFICE|212-854-9666
332467|INTERNATIONAL SERVICES|400|TC* 3939|163 THNDK (BOX 308)||OFFICE|212-678-3939
335644|EAST ASIAN INSTITUTE, WEATHERHEAD|600|MS* 4-2592|914 INTAFF:|3333|OFFICE|212-854-2592
383829|ACADEMIC RESOURCE CENTER (ARC)|600|MS* 4-4097|308 LWSN;|4106|OFFICE|212-854-4097
384726|BIOMEDICAL INFORMATICS, DEPARTMENT OF|600|MC* 5-5780|622 W168ST, VC5||OFFICE|212-305-5780
384730|CENTER FOR COMPUTATIONAL LEARNING SYSTEMS|600|IC* 1280|850 INTERCHURCH|7717|OFFICE|212-870-1280
384936|COLUMBIA BIOLOGICAL SOCIETY|600|MS* 4-4909|505 LERNER|2602|OFFICE|212-854-4909
384938|COLUMBIA-CHINA BUSINESS ASSOCIATION (CCBA)|600|MS* 4-4909|505 LERNER|2602|OFFICE|212-854-4909
384944|COLUMBIA COMMUNITY SERVCE, INC.|600|MS* 4-4289|302 LOW|4319|OFFICE|212-854-4289
384945|COLUMBIA INNOVATION ENTERPRISES, FINANCIAL AFFAIRS|600|MS* 1-1675|475 RVSDDR, STE 840|7740|OFFICE|212-851-1675
384947|INVESTMENT MANAGEMENT COMPANY|600|MS*1- 2030|405 LEXINGTON AVE.,63FL ,10174|7715|OFFICE|212-851-2030
387163|COLUMBIA UNIVERSITY FILM PRODUCTIONS (CUFP OR CUPDC)|600|MS* 4-4909|505 LERNER|2602|OFFICE|212-854-4909
387256|COLUMBIA TUTORING AND TRANSLATING AGENCY|600|MS* 4-4888|ECAMPUS|5727|OFFICE|212-854-4888
387257|COMMISSION ON ELECTIONS, NOMINATIONS AND APPOINTMENTS (CENA)|600|MS* 4-4909|505 LERNER|2602|OFFICE|212-854-4909
387259|COMMUNICATIONS AND EXTERNAL AFFAIRS, VICE PRESIDENT FOR|600|MS* 4-9962|308 LOW|4342|OFFICE|212-854-9962
387393|COMPUTATIONAL LEARNING SYSTEMS, CENTER FOR|600|IC* 1280|850 INTERCHURCH|7717|OFFICE|212-870-1280
387395|CONSTRUCTION COORDINATION, DEPARTMENT OF|600|MS* 4-1833|B230 ECAMPUS|3407|OFFICE|212-854-1833
387396|CONTEMPORARY BLACK HISTORY, CENTER FOR (CCBN)|600|MS* 4-1489|760 SCHRMEXT|5512|OFFICE|212-854-1489
387398|CONTEMPORARY MUSIC, FRITZ REINER CENTER FOR (SCHOOL OF THE ARTS)|600|MS* 4-1295|602 DODGE|1824|OFFICE|212-854-1295
387400|CORPORATE AND FOUNDATION RELATIONS|600|IC* 2253|964 INTERCHURCH|7720|OFFICE|212-870-2253
388415|ENVIRONMENTAL SCIENCE AND POLICY, MASTER OF PUBLIC ADMINISTRATION IN|600|MS* 4-3142|1408 INTAFF|3323|OFFICE|212-854-3142
388418|EXECUTIVE VICE PRESIDENT FOR RESEARCH|600|MS* 4-1656|313  LOW|4310|OFFICE|212-854-1656
389287|GOVERNMENT AND COMMUNITY AFFAIRS, EXECUTIVE VICE PRESIDENT FOR|600|MS* 4-2871|313 LOW|4329|OFFICE|212-854-2871
389289|GROUNDSKEEPING|600|MS* 4-3389|B230 ECAMPUS|3401|OFFICE|212-854-3389
389297|HEALTH SCIENCES HOUSING ASSIGNMENT OFFICE|600||BARD||OFFICE|212-304-7000
389729|HOUSING AND DINING SERVICES|600||118 HRTLY|3003|FAX|212-678-5224
389761|HOUSING SERVICES, OFFICE OF|600||50 HAVEN AVE||OFFICE|212-304-7000
390031|IMMIGRATION, ETHNICITY, AND RACE, PROJECT ON|600|MS* 4-7530|509C INTAFF|3355|OFFICE|212-854-7530
390033|INNOVATION ENTERPRISES, FINANCIAL AFFAIRS, COLUMBIA|600|MS* 1-1675|475 RVSDDR, STE 840|7740|OFFICE|212-851-1675
390041|CENTER FOR CONTEMPORARY BLACK HISTORY (CCBH)|600|MS* 4-1489|760 SCHRMEXT|5512|OFFICE|212-854-1489
390422|LABYRINTH BOOKS|600||536 W112ST (10025)||OFFICE|212-865-1588
390449|LINKING LIVES HEALTH EDUCATION PROGRAM (SSW)|600||1255 AMST AV, RM 735||OFFICE|212-851-1655
390641|PUBLIC SAFETY, OFFICE OF (formerly Security)|600|||||
390969|VIDEO NETWORK, COLUMBIA|600|MS* 4-6447|530 SWMD|4719|OFFICE|212-854-6447
391323|NOTARY PUBLIC|600|MS* 4-6514|213 LOW LIBRARY||OFFICE|212-854-6514
391326|ORANGE REGIONAL MEDICAL CENTER|600||60 PROSPECT AV MIDDLETOWN, NY 10940||OFFICE|845-343-2424
391358|RESEARCH, EXECUTIVE VICE PRESIDENT FOR|600|MS* 4-1656|305 LOW|431O|OFFICE|212-854-1656
391360|TROPICAL AGRICULTURE PROGRAMS|600||LAMONT HALL LMNT-DOH, 2G PALISADES NY 10964||OFFICE|845-365-8322
392368|CENTER FOR CHILDREN IN POVERTY (PUBLIC HEALTH), NATIONAL|600||215 W125ST 3FL||OFFICE|646-284-9600
392375|COLUMBIA COLLEGE STUDENT COUNCIL (CCSC)|600|MS* 4-4909|505 LERNER|2602|OFFICE|212854-4909
392377|COLUMBIA WOMEN'S BUSINESS SOCIETY (CWBS)|600|MS* 4-4909|505 LERNER|2602|OFFICE|212-854-4909
394589|PARKING|600|MS* 4-9455|400 W 119 ST|8801|OFFICE|212-854-9455
396354|COLUMBIA COOPERATIVE AGING PROGRAM (CCAP)|600||3FW-038 ALLEN||OFFICE|212-932-4909
403685|PHOTOGRAPHY INSTITUTE, THE (TPI)|600|MS* 4-5688|WATSON HALL, 612 W. 115 ST #109|6001|OFFICE|212-854-5688
409435|ELEMENTARY SCHOOLS|600|MS* 1-4215|556 W110ST|9601|OFFICE|212-851-4215
409949|STUDENT ACCOUNTS|600||||OFFICE|212-854-4206
455886|COLUMBIA ANXIETY AND TRAUMATIC STRESS PROGRAM|600||1775 B'WAY, SUITE 601, NEW YORK, NY 10019||OFFICE|212-246-5744
460715|ARNOT HEALTH|600||600 ROE AVE, ELMIRA, NY 14905||OFFICE|607-737-4100
460724|INSTITUTE FOR CANCER GENETICS|600|MS* 1-5273|303 RBERRIE||OFFICE|212-851-5273
460734|BUSINESS SERVICES|600|||||
460737|CANADIAN CULTURE CLUB (CC)|600|MS* 4-4909|505 LERNER|2602|OFFICE|212-854-4909
460904|CENTER ON MEDICINE AS A PROFESSION|600|MC* 5-0421|630 168ST P&S BOX 11||OFFICE|212-305-0421
460929|COLUMBIA INVESTMENT MANAGEMENT COMPANY|600|MS* 1-2030|405 LEXINGTON AV 63RD FL 10174|7715|OFFICE|212-851-2030
460964|COLUMBIA JOURNAL OF LITERARY CRITICISM|600|MS* 4-4909|505 LERNER HALL|2602|OFFICE|212-854-4909
460969|COLUMBIA TRANSFER ALLIANCE (CC)|600|MS* 4-4909|505 LERNER|2602|OFFICE|212-854-4909
460973|COLUMBIA UNIVERSITY MEDICAL CENTER|600|MC* 5-3592|630 W 168ST, P&S2-401||OFFICE|212-305-3592
460976|COLUMBIA UNIVERSITY PSYCHOLOGY SOCIETY (CC)|600|MS*4-4909|505 LERNER|2602|OFFICE|212-852-4909
461215|MULTICULTURAL AFFAIRS|600|||||
461242|PEOPLESOFT ERP|600|MS*1-2915|330 FIFTH AVE, 11FL (10001)|4323|OFFICE|212-851-2915
461247|KAVIL INSTITUTE FOR BRAIN SCIENCES|600|||||
461319|EVENING EXTENSION PROGRAM|600|MS*4-9666|203 LWSN|4119|OFFICE|212-854--9666
461320|COLUMBIA ALUMNI CENTER|600|MS* 1-7800|622 W 113 ST. NY, NY 10025|4520|OFFICE|212-851-7800
461338|FIBROID CENTER OF NEW YORK|600|MC* 5-1107|161 FTWSH AV, STE 447||OFFICE|212-305-1107
461341|ISABELLA GERIATRIC CENTER|600||515 AUDUBON AVE (10040)||OFFICE|212-342-9200
461342|NORTHERN WESTCHESTER HOSPITAL|600||400 E MAIN ST, MOUNT KISCO, NY 10549||OFFICE|914-666-1200
461343|RESPONSIBLE CONDUCT OF RESEARCH|600|||||
461366|EXECUTIVE VICE PRESIDENT FOR HEALTH AND BIOMEDICAL SCIENCES|600|MC*5-3592|630 W168ST ( P & S 2-401 )||OFFICE|212-305-3592
461371|EXECUTIVE VICE PRESIDENT FOR COMMUNICATIONS AND EXTERNAL AFFAIRS|600|MS* 4-9962|308 LOW|4342|OFFICE|212-854-9962
461376|FAMILY ANNEX, THE|600||560 W116ST||OFFICE|212-749-3271
461381|EROUPE, INSTITUTE FOR THE STUDY OF|600|MS* 4-4618|1227 INTAFF|3355|OFFICE|212-854-4618
471484|INSIDE NEW YORK (STUDENT ENTERPRISES)|600|MS* 4-2804|ECAMPUS|5727|OFFICE|212-854-2804
475965|WOMEN'S MINIMUM ACCESS SURGERY|600|MC* 5-1107|161 FTWAHAV, STE 447||OFFICE|212-305-1107
475980|UNIVERSITY EVENT MANAGEMENT (LERNER HALL)|600|MS* 4-5798|7FL LERNER|2603|OFFICE|212-854-5798
476253|LOUIS ARMSTRONG JAZZ PERFORMANCE|600|MS* 4-9862|816D DODGE|1825|OFFICE|212-854-9862
477298|COLUMBIA UNIVERSITY  EMPLOYMENT INFORMATION CENTER|600|MS* 1-1551|3180 BROADWAY, NEW YORK,NY 10027||OFFICE|212-851-1551
477299|GATEWAY WORKFORCE DEVELOPMENT PROGRAM AT CU|600|MS* 1-1552|31-80 BROADWAY||OFFICE|212-851-1552
478074|MEDICAL CENTER, COLUMBIA UNIVERSITY|600|MC* 5-3592|630 W168ST, P &S2-401||OFFICE|212-305-3592
478077|MEDICINE AS A PROFESSION, CENTER ON|600|MC* 5-0421|630 W168ST, P&S BOX 11||OFFICE|212-305-0421
482082|INSTITUTE OF WAR AND PEACE STUDIES, SALTZMAN|600|MS* 4-4616|1332  INTAFF|3347|OFFICE|212-854-4616
482217|ADMINISTRATION|500|MS* 4-2003|103A MLBK||OFFICE|212-854-2003
482218|AFRICA AND AFRICAN DIASPORA STUDIES|500|MS* 4-9850|326 MLBK||OFFICE|212-854-9850
482220|FINANCIAL AID OFFICE|500|MS*4 2154|14 MLBK||OFFICE|212-854-2154
482221|Vice President for Finance and Planning - Barnard College|500|MS* 4-2003|101 MLBK||OFFICE|212-854-2003
482222|HUMAN RESOURCES OFFICE|500|||||
483279|TRANSLATING, TUTORING AND,  AGENCY, COLUMBIA (STUDENT ENTERPRISES)|600|MS* 4-4888|ECAMPUS|5727|OFFICE|212-854-4888
484974|COLUMBIA UNDERGRADUATE SOCIOLOGY ORGANIZATION (CC)|600|MS* 4-4909|505 LERNER|2602|OFFICE|212-854-4909
484978|SALTZMAN INSTITUTE OF WAR AND PEACE STUDIES|600|MS* 4-4616|1332 INAFF|3347|OFFICE|212-854-4616
485370|ENVIRONMENTAL SAFETY OFFICE (MEDICAL CENTER)|600|MC@ 5-6780|601 W168ST, STE 66||OFFICE|212-305-6780
489340|ART GALLERY, WALLACH|600|MS* 4-7288|8FL SCHRM|5517|OFFICE|212-854-7288
491059|POLITICAL SCIENCE STUDENTS ASSOCIATION (PSSA)|600|MS* 4-4909|505 LERNER|2602|OFFICE|212-854-4909
492254|ACCOUNTS PAYABLES|400|TC* 3055|134 THMPS (BOX 235)||OFFICE|212-678-3055
493891|PURCHASING OFFICE|600|||||
494714|CENTER FOR THE PROFESSIOANL EDUCATION OF TEACHERS (CPET)|400|TC* 3869|416 MAIN HALL||OFFICE|212-678-3869
494728|BILINGUAL EXTENSION INSTITUTE FOR SPEECH-LANGUAGE PROVIDERS|400|TC* 3890|1152B THNDK (BOX 180)||OFFICE|212-678-3890
494729|FINANCIAL AID OFFICE|400|TC* 3714|138 HMANN (BOX 309)||OFFICE|212-678-3714
494734|HUMAN RESOURCES, OFFICE OF|400|TC* 3175|112 MAIN (BOX 149)||OFFICE|212-678-3175
494736|NATIONAL CENTER FOR CHILDREN AND FAMILIES|400|TC* 3338|254 THNDK (BOX 39)||OFFICE|212-678-3338
494737|RESEARCH QUARTERLY FOR EXERCISE AND SPORT EDITORIAL|400|TC* 3731|959A THNDK (BOX 126)||OFFICE|212-678-3731
494739|SPECIAL COUNSEL TO THE PRESIDENT (OFFICE OF DIVERSITY AND COMMUNITY)|400|TC* 3732|128 MAIN (BOX 220)||OFFICE|212-678-3732
518588|COLUMBIA UNIVERSITY INFORMATION TECHNOLOGY (CUIT)|600|||||
518941|EXECUTIVE VICE PRESIDENT AND SECRETARY OF THE UNIVERSITY|600|MS* 4-4157|211 LOW|4324|OFFICE|212-854-4157
519304|CENTER FOR INTERNATIONAL CONFLICT RESOLUTION|600|MS* 4-5623|1102 INTAFF|3369|OFFICE|212-854-5623
522514|AMERICAN SOCIETY OF CIVIL ENGINEERS (ASCE)|600|MS* 4-3143|610 SWMD|4709|OFFICE|212-854-3143
522595|BUSINESS POSTBACCALAUREATE (CONTINUING EDUCATION)|600|MS* 4-9666|203 LWSN|4119|OFFICE|212-854-9666
522601|CANCER GENETICS, INSTITUTE FOR|600||303 RBERRIE||OFFICE|212-851-5273
523461|COLUMBIA INSTITUTE FOR TELE-INFORMATION (CITI)|600|MS* 4-4222|1-A URIS|9135|OFFICE|212-854-4222
523852|CATERING|600||||OFFICE|212-854-4630
523862|ENTERPRISE SYSTEMS PROJECT|600|MS* 1-2915|330 5AV, 11FL (10001)|4323|OFFICE|212-851-2915
524099|COLUMBIA BARTENDING AGENCY AND SCHOOL OF MIXOLOGY(STUDENT ENTERPRISES)|600|MS* 4-4537|ECAMPUS|5727|OFFICE|212-854-4537
524297|INSTITUTE FOR ISRAEL AND JEWISH STUDIES|600|MS* 4-2581|511 FAYWR|2509|OFFICE|212-854-2581
524305|ISRAEL AND JEWISH STUDIES, INSTITUTE FOR|600|MS* 4-2581|511 FAYWR|2509|OFFICE|212-854-2581
524312|ITALIAN POETRY REVIEW|600|MS* 4-7396|1161 AMSTAV|1401|OFFICE|212-854-7396
528235|COLUMBIA TELEVISION  (CTV)|600|MS* 4-8900|510 LERNER|2601|OFFICE|212-854-8900
528238|JEWISH LIFE, KRAFT CENTER FOR|600|MS* 4-5111|60W W115ST||OFFICE|212-854-5111
528242|LAW REVIEW, COLUMBIA|600|MS* 4-4398|WCWARREN (410 W116ST, MAILING: 435 W116ST, BOX A-2|4025|OFFICE|212-854-4398
528386|MEDICAL INSURANCE (HR: BENEFITS AND COMPENSATION)|600|IC* 3074|1901 INTERCHURCH|7705|OFFICE|212-870-3074
528389|MUSIC, CONTEMPORARY, FRITZ REINER CENTER FOR|600|MS* 4-1295|602 DODGE|1824|OFFICE|212-854-1295
528677|TUITION EXEMPTION (HR: BENEFITS AND COMPENSATION)|600|IC*  3074|1901 INTERCHURCH|7705|OFFICE|212-870-3074
528678|TRAINING AND DEVELOPMENT (HR ORGANIZATIONAL SERVICES)|600|IC* 2708|1220 INTERCHURCH|7709|OFFICE|212-870-2708
528679|STUDENT PROMOTING EMPOWERMENT AND KNOWLEDGE  (SPEAK)|600|MS* 4-4909|505 LERNER|2602|OFFICE|212-854-4909
528820|AMERICAN LANGUAGE PROGRAM|600|MS* 4-3584|504 LWSN|4113|OFFICE|212-854-3584
528821|BARNARD  ORGANIZATION  OF SOUL SISTRES (BOSS) (CC)|600|MS* 4-4909|505 LERNER|2602|OFFICE|212-854-4909
529056|Document Services|500|MS* 4-2087|13 MLBK||OFFICE|212-854-2087
529057|Management Information and Network Services (MINS)|500|MS* 4-8791|LOWER LEVEL ELLIOTT||OFFICE|212-854-8791
529058|Vagelos Alumnae Center|500|MS* 4-2005|HWTT||OFFICE|212-854-2005
529059|ACADEMIC COMPUTING SERVICES|400|TC* 3302|234 HMAN BOX 43||OFFICE|212-678-3302
529180|ADMINISTRATIVE INFORMATION SERVICES|400|TC* 3485|241 HMANN (BOX 43)||OFFICE|212-678-3845
529181|ADMISSIONS OFFICE|400|TC* 3710|146 HMANN (BOX 302)||OFFICE|212-678-3710
529205|ASSISTANT DEAN FOR ACADEMIC AFFAIRS|400|TC* 3991|122 MAIN (BOX 54)||OFFICE|212-678-3991
529207|ASSOCIATE CONTROLLER|400|TC* 8206|134 THMPS (BOX 72)||OFFICE|212-854-8206
529212|ASSOCIATE DEAN FOR ENROLLMENT AND STUDENT SERVICES|400|TC* 3423|148 HMAN (BOX 109)||OFFICE|212-678-3423
529230|COLUMBIA VIDEO NETWORK|600|MS* 4-6447|530 SWMD|4719|OFFICE|212-854-6447
529389|DIVERSITY AND COMMUNITY, OFFICE OF THE PRESIDENT|400|TC* 3391|120 MAIN (BOX 220)||OFFICE|212-678-3391
529391|EMERGENCY ONLY|400|TC* 3333|||OFFICE|212-678-3333
529392|EVENT PLANNING|400|TC* 3716|194 GDODGE (BOX 306)||OFFICE|212-678-3716
529393|EXTERNAL AFFAIRS|400|TC* 3412|186 GDODGE (BOX 306)||OFFICE|212-678-3412
529400|GIFTS AND ALUMNI RECORD PROCESSING|400|TC* 3077|197 GDODGE (BOX 306)||OFFICE|212-678-3077
529401|GOODMAN FAMILY COMPUTER CLASSROOM|400|TC* 3302|234 HMANN (BOX 43)||OFFICE|212-678-3302
529570|HELP DESK, CIS (Faculty and staff)|400|TC* 3300|(BOX 43)||OFFICE|212-678-3300
529571|HELP DESK, CIS (Students)|400|TC* 3304|(BOX 43)||OFFICE|212-678-3304
529576|HELP DESK, TELECOM|400||||OFFICE|212-678-3456
529585|SOUL  (CC)|600|MS* 4-4909|401 LERNER|2602|OFFICE|212-854-4909
529591|INSTITUTIONAL REVIEW BOARD|400|TC* 4105|422K THMPS (BOX 151)||OFFICE|212-678-4105
529592|INSURANCE AND IMMUNIZATION RECORDS, OFFICE OF|400|TC* 3006|159 THND (BOX 308)||OFFICE|212-6778-3006
529626|MICROCOMPUTER CLASSROOM|400|TC* 3807|345 MACY (BOX 43)||OFFICE|212-678-3807
529628|OFFICE OF ACCREDITATION AND ASSESSMENT|400|TC* 4157|420 RUSSL (BOX 203)||OFFICE|212-678-4157
529631|OMBUDSPERSON, FACULTY/PROFESSIONAL STAFF|400|TC* 3391|128 MAIN (BOX 220)||OFFICE|212-678-3391
529632|OMBUDSPERSON, STUDENT|400|TC* 4169|280 GDODGE (BOX 75)||OFFICE|212-678-4169
529745|VOICE MAIL ASSISTANCE, INSTALLATION/REMOVAL|400||||OFFICE|212-678-3456
530023|PRIMARY TUITION SCHOLARSHIPS FOR OFFICER'S CHILDREN|600|||||
530025|PRIMARY TUITION SCHOLARSHIPS FOR OFFICER'S CHILDREN|600|||||
530307|Center For Educational and Psychological Services (CEPS)|400|TC* 3262|657 THNDK (BOX 91)||OFFICE|212-678-3262
530310|Center For The Professional Education Of Teachers (CPET)|400|TC* 3869|416B MAIN (BOX 182)||OFFICE|212-678-3869
530733|Union Local 2110 UAW|400|TC* 4158|31 MAIN (BOX 20)||OFFICE|212-678-4158
530734|psychology, Social-Organizational|400|TC* 3249|222 MAIN (BOX 6)||OFFICE|212-678-3249
536955|ALICE!, COLUMBIA'S HEALTH PROMOTION PROGRAM|600|MS* 4-5453|7FL LERNER|2608|OFFICE|212-854-5453
538556|CENTER ON INTERNATIONAL ORGANIZATION|600|MS* 4-1790|||OFFICE|212-854-1790
539301|COLUMBIA  REVIEW, THE|600|MS* 4-4909|505 LERNER|2602|OFFICE|212-854-4909
539317|CONFERENCE HOUSING (HOUSING AND DINING SERVICES)|600|MS* 4-2775|118 HRTLY|3003|OFFICE|212-854-2775
539571|COUNSELING AND PSYCHOLOGICAL SERVICES|600|MS* 4-2878|8FL LERNER|2606|OFFICE|212-854-2878
539574|DISCIPLINARY PROCEDURE FOR SEXUAL MISCONDUCT|600|MS* 4-1717|703 LERNER||OFFICE|212-854-1717
539697|ACADEMIC INFORMATION SYSTEMS (ACIS)|600|||||
539703|EMPLOYEE RECORDS|600|MS* 1-4094|1700 B'WAY||OFFICE|212-851-4094
542913|QUANTITATIVE METHODS IN THE SOCIAL SCIENCES PROGRAM (QMSS)|600|MS* 4-7813|811 INTAFF|3355|OFFICE|212-854-7813
542915|QUEER ALLIANCE|600|MS* 4-4909|505 LERNER|2602|OFFICE|212-854-4909
667792|CENTRE FOR THE STUDY OF DEMOCRACY, TOLERATION AND RELIGION|600|MS* 4-5264|IAB 833, 420 W 118TH ST,NY, NY 10027|3323|OFFICE|212-854-5264
667969|WEIGHT CONTROL CENTER|600||161 FORT WASHINGTON IRVING PAVILION ROOM 645||OFFICE|212-305-5568
669519|SUBSTANCE TREATMENT AND RESEARCH SERVICES (STARS)|600||513 W 168TH ST, 3RD FL,NEW YORK, NY 10032||OFFICE|212-923-3031
691444|STUDEBAKER (Reception Desk)|600|MS* 1-0615|615 W 131ST NY NY 10027|8750|OFFICE|212-851-0615
691450|COLUMBIA-HARLEM SMALL BUSINESS DEVELOPMENT CENTER (SBDC)|600|MS* 4-6444|310 URIS HALL||OFFICE|212-854-6444
