id|name|parent|tie_line|address|mail_code|phone_type|phone_number
273610|MORNINGSIDE CAMPUS   99 OR|273609|MS* 4-5555|||OFFICE|212-854-5555
273611|HEALTH SCIENCES CAMPUS|273609|MC* 5-7979|||OFFICE|212-305-7979
273613|FAX|273612|MS* 4-7260|||FAX|212-854-7260
273662|FAX|273661|MS* 4-7670|||FAX|212-854-7670
273666|AMERICAN LANGUAGE PROGRAM|273665|MS* 4-3584||4113|OFFICE|212-854-3584
273667|Architecture, planning and Preservation|273665|||0330|OFFICE|212-854-3510
273670|Arts, The|273665|MS* 4-2134||1808|OFFICE|212-854-2134
273671|Berlin Consosrtium|273665|MS* 4-2559||4119|OFFICE|212-854-2559
273672|Business|273665|MS* 4-1961||5910|OFFICE|212-854-1961
273674|Columbia College|273665|MS* 4-2521||2807|OFFICE|212-854-2521
273676|Continuing Education|273665|MS* 4- 9666||4119|OFFICE|212-854-9666
273681|Dental and Oral Surgery|273665|MC* 5-3478|||OFFICE|212-305-3478
273683|Engineering and Applied Science|273665|||||
273686|General Studies|273665|MS* 4-2772||4101|OFFICE|212-854-2772
273689|Graduate School of Arts & Sciences|273665|MS* 4-8903||4304|OFFICE|212-854-8903
273691|Institute of Human Nutrition|273665|MC* 5-4808|||OFFICE|212-305-4808
273694|International and Public Affairs|273665|MS* 4-6216||3325|OFFICE|212-854-6216
273696|Admissions|276281|MS* 4-8608||3808|OFFICE|212-854-8608
273697|Law|273665|MS* 4-2670||4004|OFFICE|212-854-2670
273698|Liberal Studies Master of Arts Program|273665|MS* 4-4737||4304|OFFICE|212-854-4737
273700|Nursing|273665|MC* 5-5756|||OFFICE|212-305-5756
273702|Physical and Occupational Therapy|273665|MC* 5-3781|||OFFICE|212-305-3781
273703|Physicians and Surgeons|273665|MC* 5-3595|||OFFICE|212-305-3595
273705|Public Health|273665|MC* 5-3927|||OFFICE|212-305-3927
273706|Reid Hall Programs|273665|MS* 4-2559||4119|OFFICE|212-854-2559
273707|Social Work|273665|MS* 1-2400|||OFFICE|212-851-2400
273708|Special Students Program|273665|MS* 4- 9666||4119|OFFICE|212-854-9666
273709|Summer Session|273665|MS* 4- 9666||4114|OFFICE|212-854-9666
273717|FAX|273716|MS* 4-1368|||FAX|212-854-1368
273719|FAX|273718|MS* 4-7060|||FAX|212-854-7060
273720|DIRECTOR|273718|MS* 4-7002|||OFFICE|212-854-7002
273721|ASSISTANT TO THE DIRECTOR|273718|MS* 4-7010|||OFFICE|212-854-7010
273727|INFORMATION|273726|MS* 4-2468|||OFFICE|212-854-2468
273735|Architecture|273732|MS* 4-9543||0330|OFFICE|212-854-9543
273739|BUSINESS|273732|MS* 4-8815||9136|OFFICE|212-854-8815
273741|COLUMBIA COLLEGE|273732|MS1* 7800||4520|OFFICE|212-851-7800
273743|DENTAL AND ORAL SURGERY|273732|MC* 5-6881|||OFFICE|212-305-6881
273746|ENGINEERING|273732|MS* 4-4472||4718|OFFICE|212-854-4472
273748|GENERAL STUDIES|273732|MS* 4-8498||4121|OFFICE|212-854-8498
273750|GRADUATE SCHOOL OF ARTS AND SCIENCES|273732|MS* 1-2177||4306|OFFICE|212-851-2177
273752|INTERNATIONAL AND PUBLIC AFFAIRS|273732|MS* 4-8671||3328|OFFICE|212-854-8671
273756|LAW|273732|MS* 4-8241||4003|OFFICE|212-854-8241
273760|LIBRARY SERVICE|273732|MS* 4-4746||1103|OFFICE|212-854-4746
273761|NURSING|273732|MC* 5-3742|||OFFICE|212-305-3743
273764|PHARMACY|273732|MC* 5-6083|||OFFICE|212-305-6083
273765|PHYSICIANS AND SURGEONS|273732|MC* 5- 1472|||OFFICE|212-305-1472
273767|MAILMAN SCHOOL OF PUBLIC HEALTH|273732|MC* 5-6083|||OFFICE|212-305-6083
273769|SOCIAL WORK|273732|MS* 1-2375|||OFFICE|212-851-2375
273777|FAX|273776|MS* 4-0012|||FAX|212-854-0012
273781|MORNINGSIDE CAMPUS   99 OR|273780|MS* 4-5555|||OFFICE|212-854-5555
273782|MEDICAL CENTER|273780|MC* 5-7979|||OFFICE|212-305-7979
273785|FAX|273784||||FAX|212-870-3555
273789|www.law.columbia.edu/studentservices|273788|||||
273797|office|273795|MS* 4-2984||||212-854-2984
273798|FAX|273795|MS* 4-7081|||FAX|212-854-7081
273801|WWW.AMNH.ORG|273800|||||
273803|FAX|273802||||FAX|212-222-4256
273804|WWW.LAW.COLUMBIA.EDU/STUDENTSERVICES/|273802|||||
273809|OFFICE|273808|MS* 4-4909||2602|OFFICE|212-854-4909
273813|WWW.LAW.COLUMBIA.EDU/STUDENTSERVICES/|273812|||||
273817|FAX|273814|MC* 5-3970|||FAX|212-305-3970
273820|OFFICE|273819|MC* 5-2179|||OFFICE|212-305-2179
273822|FAX|273819|MC* 5-8980|||FAX|212-305-8980
273823|CHAIR' S FAX|273819|MC* 5-3296|||OFFICE|212-305-3296
273825|FAX|273824||||FAX|212-854-7347
273826|WWW.COLUMBIA.EDU/CU/ANTHROPOLOGY|273824|||||
273832|Department Office and Information|273831|MS* 4-4457||4701|OFFICE|212-854-4457
273838|Graduate Student/T.A. Offices|273831|MS* 4-6671||4701|OFFICE|212-854-6671
273840|Materials Science and Engineerig Program|273831|MS* 4-7860||4701|OFFICE|212-854-7860
273841|Materials Science and Engineering Labs|273831|||||
273848|Medical Physics Program|273831|MC* 6-2256||4701|OFFICE|212-305-2256
273851|NASA Cooperative Program/Goddard Institute for Space Studies|273831|||0201|OFFICE|212-678-5620
273852|Plasma Physics Laboratory|273831|||||
273858|Solid State and Optical Physics Laboratories|273831|||||
273862|Teaching Laboratories|273831|||||
273868|DIRECTOR|273867|MS* 4-4723||5517|OFFICE|212-854-4723
273869|ASSOCIATE DIRECTOR|273867|MS* 4-2150||3907|OFFICE|212-854-2150
273870|PROGRAM COORDINATOR|273867|MS* 4-1390||5518|OFFICE|212-854-1390
273874|FAX|273873||||FAX|212-866-9664
273878|FAX|273877||||FAX|212-864-0410
273882|ADVANCED ARCHITECTURAL DESIGN|273877|MS* 4-2444||0330|OFFICE|212-854-2444
273883|ALUMNI ASSOCIATION|273877|MS* 4-9543|||OFFICE|212-854-9543
273884|ARCHITECTURE PROGRAM|273877|MS* 4-2444||0330|OFFICE|212-854-2444
273885|AVERY ARCHITECTURAL AND FINE ARTS LIBRARY|273877|MS* 4-3501||0301|OFFICE|212-854-3501
273886|MATERIAL RESEARCH LABORATORY|273877|||||
273889|DEAN|273877|MS* 4-3473||0330|OFFICE|212-854-3473
273891|HISTORIC PRESERVATION PROGRAM|273877|MS* 4-3518||0366|OFFICE|212-854-3518
273892|REAL ESTATE DEVELOPMENT PROGRAM|273877|MS* 4-3524|||OFFICE|212-854-3524
273893|SLIDE LIBRARY|273877|MS* 4-5118||0330|OFFICE|212-854-5118
273894|TEMPLE HOYNE BUELL CENTER FOR THE STUDY OF AMERICAN ARCHITECTURE|273877|MS* 4-8165||0362|OFFICE|212-854-8165
273895|URBAN DESIGN PROGRAM|273877|MS* 4-1816||0330|OFFICE|212-854-1816
273896|URBAN PLANNING PROGRAM|273877|MS* 4-3513||0330|OFFICE|212-854-3513
273898|FAX|273897|MS* 4-7320|||FAX|212-854-7320
273910|FAX|273909|MS* 4-7329|||FAX|212-854-7329
273911|ADVISORY COUNCIL|273909|MS* 4-4505||5517|OFFICE|212-854-4505
273912|ART HUMANITIES PROGRAM|273909|MS* 4-4507|||OFFICE|212-854-4507
273913|CHAIR|273909|MS* 4-4505|||OFFICE|212-854-4505
273914|COLUMBIA COLLEGE REPRESENTATIVE|273909|MS* 4-4505|||OFFICE|212-854-4505
273915|CURATOR OF VISUAL RESOURCES|273909|MS* 4-3044||5517|OFFICE|212-854-3044
273917|DEPARTMENTAL ADMINISTRATOR|273909|MS* 4-4504|||OFFICE|212-854-4504
273918|BUSINESS MANAGER|273909|MS* 4-4506|||OFFICE|212-854-4506
273919|GENERAL STUDIES REPRESENTATIVE|273909|MS* 4-4505|||OFFICE|212-854-4505
273920|GRADUATE STUDIES, DIRECTOR OF|273909|MS* 4-4507|||OFFICE|212-854-4507
273921|GRADUATE COORDINATOR|273909|MS* 4-4507|||OFFICE|212-854-4507
273922|LIBRARY , AVERY ARCHITECTURAL AND FINE ARTS|273909|MS* 4-3501||0301|OFFICE|212-854-3501
273925|UNDERGRADUATE COORDINATOR|273909|MS* 4-4505|||OFFICE|212-854-4505
273926|VISUAL MEDIA CENTER|273909|MS* 4-3044|||OFFICE|212-854-3044
273929|FAX|273928|MS* 4-4676|||FAX|212-854-4676
273930|INFO@MCAH.COLUMBIA.EDU|273928|||||
273931|WWW.MCAH.COLUMBIA.EDU|273928|||||
273936|PAULA VIAL LEMPERT ART HISTORY AND MEDIA STUDIO|273928|MS* 4-8544|||OFFICE|212-854-8544
273938|STAFF ASSOCIATE FOR ARCHAEOLOGY AND HISTORIC PRESERVATION|273928|MS* 4-1937|||OFFICE|212-854-1937
273940|DIRECTOR|273928|MS* 4-8521|||OFFICE|212-854-8521
273941|ASSOCIATE DIRECTOR|273928|MS* 4-1938|||OFFICE|212-854-1938
273942|DESIGN STUDIO|273928|MS* 4-1939|||OFFICE|212-854-1939
273943|PROGRAM COORDINATOR FOR PROJECTS AND GRANTS|273928|MS* 4-4606|||OFFICE|212-854-4606
273945|TECHNOLOGY, MANAGER FOR|273928|MS* 4-8544|||OFFICE|212-854-8544
273948|CURATOR OF ART PROPERTIES|273947|MS* 4-6800|||OFFICE|212-854-6800
273949|STORAGE|273947|MS* 4-2505|||OFFICE|212-854-2505
273958|www.columbia.edu/cu/jla|273957|||||
273960|FAX|273959|MS* 4-4911|||FAX|212-854-4911
273962|FAX|273961|MS* 4-7733|||FAX|212-854-7733
273964|ALUMNI AFFAIRS|273961|MS* 4 -7873||1803|OFFICE|212-854-7873
273965|DEAN|273961|MS* 4-2876||1803|OFFICE|212-854-2876
273966|DEVELOPMENT|273961|MS* 4-7724||1803|OFFICE|212-854-7724
273967|DIGITAL MEDIA CENTER|273961|MS* 4-8923||1805|OFFICE|212-854-8923
273968|FILM DIVISION|273961|MS* 4-2815||1805|OFFICE|212-854-2815
273970|LEROY NEIMAN CENTER FOR PRINT STUDIES|273961|MS* 4-4065||1806|OFFICE|212-854-4065
273972|STUDENT AFFAIRS|273961|MS*4- 3343||1803|OFFICE|212-854-3343
273973|THEATRE ARTS DIVISION|273961|MS* 4-3408||1807|OFFICE|212-854-3408
273976|VISUAL ARTS DIVISION|273961|MS* 4-4065||1806|OFFICE|212-854-4065
273979|WRITING DIVISION|273961|MS* 4-4391||1804|OFFICE|212-854-4391
273987|FAX|273986||||FAX|212-678-8629
273991|FAX|273990|MS* 4-0500|||FAX|212-854-0500
273995|www.columbia.edu/cu/asiaweb|273994|||||
273998|FAX|273997|MS* 4-8121|||FAX|212-854-8121
273999|COLUMBIA COLLEGE|273997|MS* 4-3278||5246|OFFICE|212-854-3278
274000|GENERAL STUDIES|273997|MS* 4-3278||5246|OFFICE|212-854-3278
274001|GRADUATE SCHOOL OF ARTS AND SCIENCES|273997|MS* 4-3278||5246|OFFICE|212-854-3278
274002|LIBRARY (PHYSICS AND ASTRONOMY)|273997|MS* 4-3943||5251|OFFICE|212-854-3943
274003|READING ROOM|273997|MS* 4-3278||5246|OFFICE|212-854-3278
274004|TEACHING ASSISTANTS|273997|||5246||
274010|OFFICE|274009|MS* 4-3257|||OFFICE|212-854-3257
274012|FAX|274009|MS* 4-8121|||FAX|212-854-8121
274018|ART AND VIDEO PRODUCTION|274016|MC* 5-8362|||OFFICE|212-305-8362
274019|BUSINESS OFFICE|274016|MC* 5-8357|||OFFICE|212-305-8357
274020|COMPUTER SLIDES|274016|MC* 5- 8362|||OFFICE|212-305-8362
274021|GRAPHICS|274016|MC* 5-8362|||OFFICE|212-305-8362
274022|MEDICAL ILLUSTRATION|274016|MC* 5-8362|||OFFICE|212-305-8362
274023|PHOTOGRAPHY|274016|MC* 5-7716|||OFFICE|212-305-7716
274024|PHOTO STORE|274016|||||
274026|PROJECTION SERVICES|274016|MC* 5-8356|||OFFICE|212-305-8356
274027|VIDEO PRODUCTION|274016|MC* 5-8356|||OFFICE|212-305-8356
274029|OFFICE|274028|MS* 4-4175|||OFFICE|212-854-4175
274031|FAX|274028|MS* 4-3164|||FAX|212-854-3164
274033|MORNINGSIDE CAMPUS|274032|||7712|OFFICE|212-851-5771
274035|HEALTH SCIENCES CAMPUS|274032||||OFFICE|212-342-4758
274042|FAX|274040||||FAX|212-928-4441
274044|www.law.columbia.edu/studentservices|274043|||||
274047|www.bankstreet. edu|274046|||||
274048|BANK STREET BOOKSTORE|274046||||OFFICE|212-678-1654
274050|BANK STREET FAMILY CENTER|274046||||OFFICE|212-875-4412
274051|BANK STREET SCHOOL FOR CHILDREN ADMISSIONS|274046||||OFFICE|212-875-4433
274058|FAX|274057|HS* 5-7932|||FAX|212-305-7932
274060|PR18@COLUMBIA.EDU|274059|||||
274062|BIOLOGY@COLUMBIA.EDU|274061|||||
274063|FAX|274061||||FAX|212-865-8246
274064|BUSINESS OFFICE|274061|MS* 4-4595||2401|OFFICE|212-854-4595
274065|LIBRARY|274061|MS* 4-4715||2457|OFFICE|212-854-4715
274066|STOCKROOM|274061|MS* 4-4046||2401|OFFICE|212-854-4046
274076|FAX|274075|MS* 4-8725|||FAX|212-854-8725
274079|FAX|274077||||FAX|212-928-4441
274083|FAX|274082|MC* 5-5775|||FAX|212-305-5775
274108|OFFICE|274107|MS* 4-2981|||OFFICE|212-854-2981
274121|INFORMATION|274120|MS* 4-4909|||OFFICE|212-854-4909
274126|FAX|274125||||FAX|212-866-8713
274127|COLUMBIA UNIVERSITY MEDICAL BOOKSTORE|274125||||OFFICE|212-923-2149
274136|FAX|274135||||FAX|212-222-0193
274138|DISTRIBUTION|274137|||||
274140|PUBLICATION  (OFFICE OF UNIVERSITY PUBLICATIONS)|274137|MS* 4-2793||6601|OFFICE|212-854-2793
274145|LAMONT-DOHERTY/MORNINGSIDE EVENING SHUTTLE|274144|MS* 4-5029|||OFFICE|212-854-5029
274146|MORNINGSIDE HEIGHTS/MORNINGSIDE SHUTTLE|274144|MS* 4-7233|||OFFICE|212-854-7233
274147|MEDICAL CENTER HARLEM/MORNINGSIDE SHUTTLE|274144|MS* 4-3382|||OFFICE|212-854-3382
274157|ALUMNI RELATIONS|274148|MS* 4-8815|||OFFICE|212-854-8815
274159|BUSINESS ADMINISTRATION, EXECUTIVE EDUCATION IN|274148|MS* 4-3395||5926|OFFICE|212-854-3395
274161|CAREER SERVICES|274148|MS* 4-5471||9148|OFFICE|212-854-5471
274167|CENTER ON JAPANESE ECONOMY AND BUSINESS|274148|MS* 4-3976||5961|OFFICE|212-854-3976
274169|CHAZEN INSTITUTE|274148|MS* 4-4750||9151|OFFICE|212-854-4750
274171|COLUMBIA INSTITUTE FOR TELE-INFORMATION  (CITI)|274148|MS* 4-4222||9135|OFFICE|212-854-4222
274175|COMPUTING AND INFORMATION SERVICES|274148|MS* 4-2960|||OFFICE|212-854-2960
274176|COMPUTER HELP DESK|274148|MS* 4-3730||9147|OFFICE|212-854-3730
274179|DEAN S OFFICE|274148|MS* 4-3401||9142|OFFICE|212-854-3401
274181|DEVELOPMENT OFFICE|274148|MS* 4-3425||9136|OFFICE|212-854-3425
274183|DOCTORAL PROGRAM|274148|MS* 4-2836|||OFFICE|212-854-2836
274185|ENTREPRENEURSHIP PROGRAM|274148|MS* 4-3244||9102|OFFICE|212-854-3244
274187|EXECUTIVE EDUCATION|274148|MS* 4-3395||5926|OFFICE|212-854-3395
274189|EXECUTIVE M.B.A. PROGRAM|274148|MS* 4-2211||9161|OFFICE|212-854-2211
274191|EXECUTIVES IN RESIDENCE|274148|MS* 4-6100||9148|OFFICE|212-854-6100
274195|FINANCIAL PLANNING|274148|MS* 4-5564||9134|OFFICE|212-854-5564
274197|GRADUATE BUSINESS ASSOCIATION|274148|MS* 4-8970||9145|OFFICE|212-854-8970
274198|HERMES|274148|MS* 4-8567|||OFFICE|212-854-8567
274200|HUMAN RESOURCES|274148|MS* 4-2355||9144|OFFICE|212-854-2355
274202|INSTITUTE FOR MARKETING|274148|MS* 4-3465||5543|OFFICE|212-854-3465
274203|INSTITUTE FOR NOT-FOR-PROFIT MANAGEMENT|274148|MS* 4-6018||5926|OFFICE|212-854-6018
274205|LIBRARY, THOMAS J. WATSON|274148|MS* 4-4000||9163|OFFICE|212-854-4000
274207|OPERATIONS|274148|MS* 4-6117||9143|OFFICE|212-854-6117
274210|PROFESSIONAL DEVELOPMENT|274148|MS* 4-5471||9148|OFFICE|212-854-5471
274212|PUBLIC AFFAIRS|274148|MS* 4-2747|||OFFICE|212-854-2747
274216|PUBLICATIONS|274148|MS* 4-8567||9138|OFFICE|212-854-8567
274218|STUDENT ACADEMIC AFFAIRS|274148|MS* 4-4191||9152|OFFICE|212-854-4191
274220|STUDENT ACTIVITIES|274148|MS* 4-5563||9145|OFFICE|212-854-5563
274222|SUSTAINABLE DEVELOPMENT INITIATIVE|274148|MS* 4-3489|||OFFICE|212-854-3489
274227|www.columbia.edu/cu/cblr|274226|||||
274229|TERRACE RESTAURANT|274228||||OFFICE|212-666-9490
274230|Butler Library|276653|||1121||
274235|COLUMBIANET|274234|MS* 4-3078|||OFFICE|212-854-3078
274236|RECORD, COLUMBIA UNIVERSITY|274234|MS* 4-3283||4321|OFFICE|212-854-3283
274239|INFORMATION|274238|MS* 4-4444|||OFFICE|212-854-4444
274243|EMERGENCIES/AMBULANCE|274242|||||
274248|FAX|274247|MC* 5-7846|||FAX|212-305-7846
274253|FAX|274252|HS* 5-1741|||FAX|212-305-1741
274262|FAX|274261|MS* 4-4084|||FAX|212-854-4084
274267|INFORMATION 99 OR|274266|MS* 4-5555|||OFFICE|212-854-5555
274273|FAX|274270|MC* 5-3970|||FAX|212-305-3970
274275|FAX|274274|MC* 5-5775|||FAX|212-305-5775
274277|GENERAL INFORMATION|274276|MC* 5-2947|||OFFICE|212-305-2947
274278|DEPUTY DIRECTOR|274276|MC* 5-2944|||OFFICE|212-305-2944
274279|FAX|274276|MC* 5-0196|||FAX|212-305-0196
274293|FAX|274292|MS* 4-5640|||FAX|212-854-5640
274295|CAREER COUNSELING|274292|MS* 4-5609|||OFFICE|212-854-5609
274297|CAREER RESOURCE LIBRARY|274292|MS* 4-5609|||OFFICE|212-854-5609
274298|DEAN|274292|MS* 4-3376|||OFFICE|212-854-3376
274299|EMPLOYER RELATIONS (DIRECTOR)|274292|MS* 4-0607|||OFFICE|212-854-0607
274300|EMPLOYER RELATIONS  (JOB FAIRS)|274292|MS* 4-5494|||OFFICE|212-854-5494
274301|EXPERIENTIAL EDUCATION (DIRECTOR)|274292|MS* 4-0799|||OFFICE|212-854-0799
274304|FULL-TIME POSITIONS|274292|MS* 4-5494||5727|OFFICE|212-854-5494
274305|Graduate Student Career Development|274292|MS* 4-5609|||OFFICE|212-854-5609
274307|INTERNSHIPS|274292|MS* 4-5609|||OFFICE|212-854-5609
274308|RECRUITING PROGRAMS|274292|MS* 4-5494|||OFFICE|212-854-5494
274310|STUDENT EMPLOYMENT|274292|MS* 4-6233|||OFFICE|212-854-6233
274322|FAX|274321||||FAX|212-678-5648
274323|DIRECTOR|274321||||OFFICE|212-678-5564
274324|DEPARTMENTAL ADMINISTRATOR|274321||||OFFICE|212-678-5543
274325|SECRETARY|274321||||OFFICE|212-678-5626
274328|FAX|274327||||FAX|212-305-3213
274330|FAX|274329||||FAX|212-854-3099
274331|www.columbia.edu/cu/ccls|274329|||||
274337|FAX|274336||||FAX|212-781-6047
274348|FAX|274345|MS* 4-8188|||FAX|212-854-8188
274349|PHONE|274345|MS* 4-8179|||OFFICE|212-854-8179
274358|FAX|274357||||FAX|845-365-8922
274360|1314A  INTAFF|274359|MS* 4-1790|||OFFICE|212-854-1790
274361|fFax|274359|MS* 4-1854|||FAX|212-854-1854
274363|FAX|274362||||FAX|212-749-9524
274369|FAX|274368|MS* 1-1634|||FAX|212-851-1634
274370|jazz@ columbia.edu|274368|||||
274371|www.jazz.columbia.edu|274368|||||
274384|FAX|274383||||FAX|212-326-8577
274386|FAX|274385|MC* 5-5594|||FAX|305- 5594
274390|MAILING: 1051 RVSDD (UNIT 87)|274389||||OFFICE|212-543-5265
274391|FAX|274389||||FAX|212-543-5410
274392|CAO1@COLUMBIA.EDU|274389|||||
274393|CPMCNET.COLUMBIA.EDU/DEPT/NEUROBEH/|274389|||||
274400|FAX|274399||||FAX|212-543-5677
274404|FAX|274403|HS* 5-3869|||FAX|212-305-3869
274409|FAX|274408|MS* 4-8925|||FAX|212-854-8925
274412|FAX|274411|MS* 4-0500|||FAX|212-854-0500
274414|FAX|274413||||FAX|212-316-4578
274418|FAX|274417|MC* 5-6416|||FAX|212-305-6416
274420|FAX|274419||||FAX|212-865-8246
274421|www.columbia.edu/cu/cssr|274419|||||
274426|phone|274425|MS* 4-2556|||OFFICE|212-854-2556
274433|FAX|274432||||FAX|326- 5528
274438|FAX|274437||||FAX|646-756-8280
274440|FAX|274439|MS* 4-4019|||FAX|212-854-4019
274444|phone|274443|MS* 4-4008|||OFFICE|212-854-4008
274449|phone|274448|MS* 4-4618|||OFFICE|212-854-4618
274461|FAX|274460|MS* 4-3054|||FAX|212-854-3054
274462|CHAIRMAN|274460|MS* 4-4452||4721|OFFICE|212-854-4452
274463|ARTIFICIAL ORGANS RESEARCH LAB|274460|MS* 4-4448||4721|OFFICE|212-854-4448
274466|ELECTROCHEMISTRY LAB|274460|MS* 4-4463||4721|OFFICE|212-854-4463
274470|POLYMER SYNTHESIS LAB|274460|MS* 4-9384||4721|OFFICE|212-854-9384
274471|SOFT MATERIALS LAB|274460|MS* 4-9383||4721|OFFICE|212-854-9383
274475|FAX|274474||||FAX|212-932-1289
274476|ADMINISTRATION FOR UNDERGRADUATE AFFAIRS|274474|MS* 4-2163||3174|OFFICE|212-854-2163
274477|ALUMNI RELATIONS|274474|MS* 4-8435||3173|OFFICE|212-854-8435
274479|BUDGET OPERATIONS  DIRECTOR|274474|MS* 4-4199||3175|OFFICE|212-854-4199
274480|BUILDING MANAGER|274474|MS* 4-5902||3172|OFFICE|212-854-5902
274481|CHAIRMAN|274474|MS* 4-2204||3120|OFFICE|212-854-2204
274482|CHEMSTORES|274474|MS* 4-2792||3171|OFFICE|212-854-2792
274483|COMPUTER FACILITIES|274474|MS* 4-3183||3180|OFFICE|212-854-3183
274484|DEPARTMENT OFFICE|274474|MS* 4-2163||3178|OFFICE|212-854-2163
274488|DIRECTOR , RESEARCH AND TECHNOLOGY|274474|MS* 4- 4200||3167|OFFICE|212-854-4200
274489|GENERAL STUDIES/SUMMER SESSION|274474|MS* 4-2163||3174|OFFICE|212-854-2163
274490|GLASSBLOWER|274474|||3181|OFFICE|203-877-1107
274491|INDUSTRIAL ASSOCIATES PROGRAM|274474|MS* 4-8435||3173|OFFICE|212-854-8435
274493|LIBRARY|274474|MS* 4-4709||3177|OFFICE|212-854-4709
274494|MASS SPECTROMETER FACILITY|274474|MS* 4-2165||3183|OFFICE|212-854-2165
274495|NMR  FACILITY|274474|MS* 4-2155||3179|OFFICE|212-854-2155
274496|CHANDLER LABS  (CORRIDOR TELEPHONES)|274474|||||
274503|HAVEMEYER AND HAVEMEYER ADDITION  (LABORATORY TELEPHONES)|274474|||||
274515|FAX|274514||||FAX|212-678-8629
274524|WWW.LAW.COLUMBIA.EDU/STUDENTSERVICES/|274523|||||
274526|FAX|274525||||FAX|845-365-8922
274530|CITIBANK CUSTOMER SERVICE (24 HOURS)|274529||||OFFICE|212-627-3999
274532|FAX|274531|MS* 4-6267|||FAX|212-854-6267
274533|CARLETON LAB|274531|MS* 4-3158||4709|OFFICE|212-854-3158
274535|FLIGHT STRUCTURES, INSTITUTE OF|274531|MS* 4-2396||4709|OFFICE|212-854-2396
274536|THE DONAL M. BURMISTER SOIL MECHANICS LAB|274531|MS* 4-3153||4709|OFFICE|212-854-3153
274540|PHONE|274539|MS* 4-4909||2602|OFFICE|212-854-4909
274543|WWW.LAW.COLUMBIA.EDU/STUDENTSERVICES/|274542|||||
274548|FAX|274547|MS* 4-7856|||FAX|212-854-7856
274553|FAX|274552||||FAX|212-305-3213
274557|WWW.LAW.COLUMBIA.EDU/STUDENTSERVICES/|274556|||||
274559|WWW.LAW.COLUMBIA.EDU/STUDENTSERVICES/|274558|||||
274561|FAX|274560|MS* 4-3894|||FAX|212-854-3894
274565|Alumni Association|274562|MC* 5-3498|||OFFICE|212-305-3498
274568|BURSAR  (STUDENT INFORMATION SERVICES)|274562|MC* 5-3633|||OFFICE|212-305-3633
274569|Clinical Trials, Office of|274562|MC* 5-3360|||OFFICE|212-305-3360
274570|Columbia Innovation Enterprises|274562|MC* 5-5198|||OFFICE|212-305-5198
274572|CONTINUING EDUCATION|274562|MC* 5-3334|||OFFICE|212-305-3334
274573|DEAN OF THE FACULTY OF MEDICINE|274562|MC* 5-3592|||OFFICE|212-305-3592
274574|DEVELOPMENT, HEALTH SCIENCES|274562||||OFFICE|212-304-7200
274575|EXTERNAL RELATIONS|274562|MC* 5-7131|||OFFICE|212-305-7131
274576|FACILITIES OPERATIONS|274562|MC* 5-3753|||OFFICE|212-305-3753
274577|GRADUATE AFFAIRS|274562|MC* 5-8058|||OFFICE|212-305-8058
274578|HUMAN RESOURCES|274562|MC* 5-3819|||OFFICE|212-305-3819
274579|INFORMATION/MAIL ROOM|274562|MC* 5-3497|||OFFICE|212-305-3497
274580|MINORITY AFFAIRS|274562|MC* 5-4158|||OFFICE|212-305-4158
274581|P&S CLUB|274562|MC*  2-7025|||OFFICE|212-304-7025
274582|PUBLIC RELATIONS|274562|MC* 5-3900|||OFFICE|212-305-3900
274583|REGISTRAR  (STUDENT INFORMATION SERVICES)|274562|MC* 5-3992|||OFFICE|212-305-3992
274584|RESEARCH ADMINISTRATION|274562|MC* 5-4191|||OFFICE|212-305-4191
274585|SCHOLARLY RESOURCES|274562|MC* 5-3688|||OFFICE|212-305-3688
274586|SECURITY|274562|MC* 5-8100|||OFFICE|212-305-8100
274587|Student Affairs|274562|MC* 5-3806|||OFFICE|212-305-3806
274595|PHONE|274594|MS* 4-3257|||OFFICE|212-854-3257
274597|FAX|274594|MS*4-8121|||FAX|212-854-8121
274600|FAX|274599|MS*4-2358|||FAX|212-854-2358
274601|www.columbia.edu/cu/cblr|274599|||||
274603|FAX|274602|MS* 4-1909|||FAX|212-854-1909
274604|CENTER FOR MATERIALS SCIENCE AND ENGINEERING RESEARCH|274602|MS* 4-3964||8903|OFFICE|212-854-3964
274606|CENTER FOR NANOSCALE SCIENCE AND ENGINEERING|274602|MS* 4-3266||8903|OFFICE|212-854-3266
274608|INSTITUTE FOR ENVIRONMENTAL MOLECULAR SCIENCES|274602|MS* 4-3264||8903|OFFICE|212-854-3264
274610|MICROELECTRONICS SCIENCE LAB|274602|MS* 4-3265||8903|OFFICE|212-854-3265
274617|ADMINISTRATIVE OFFICES|274612|||||
274622|EXECUTIVE DIRECTOR|274612|MS* 4-1692|||OFFICE|212-854-1692
274623|BUSINESS MANAGER|274612|MS* 4-0211|||OFFICE|212-854-0211
274625|WWW.LAW.COLUMBIA.EDU/STUDENTSERVICES/|274624|||||
274628|WWW.LAW.COLUMBIA.EDU/STUDENTSERVICES/|274627|||||
274632|ALUMNI AFFAIRS AND DEVELOPMENT, OFFICE OF|274629|MS* 7800||4520|OFFICE|212-851-7800
274634|BUDGET OPERATIONS|274629|MS* 4- 9094||2808|OFFICE|212-854-9094
274636|CAREER EDUCATION|274629|MS* 4-5609||5727|OFFICE|212-854-5609
274639|CLASS CENTERS|274629|||||
274648|COLUMBIA COLLEGE BULLETIN|274629|MS* 4-2442||2805|OFFICE|212-854-2442
274649|COLUMBIA COLLEGE TODAY|274629||||OFFICE|212-851-7852
274651|CONTEMPORARY CIVILIZATION OFFICE|274629|MS* 4-2453||2811|OFFICE|212-854-2453
274653|DEAN OF STUDENT AFFAIRS|274629|MS* 4-2446||2607|OFFICE|212-854-2446
274654|DEAN OF THE FACULTY, OFFICE OF THE|274629|MS* 4-2441||2805|OFFICE|212-854-2441
274656|DOUBLE DISCOVERY CENTER|274629|MS* 4-3897||2604|OFFICE|212-854-3897
274660|HUMANITIES PROGRAM|274629|MS* 4-2451||2811|OFFICE|212-854-2451
274662|INFORMATION TECHNOLOGY|274629|MS* 4-6245|||OFFICE|212-854-6245
274665|INTERCULTURAL RESOURCE CENTER  (IRC)|274629|MS* 4-7461||5755|OFFICE|212-854-7461
274667|JOHN JAY SCHOLARS PROGRAM|274629|MS* 4-5895||1205|OFFICE|212-854-5895
274669|JUILLIARD EXCHANGE PROGRAM|274629|MS* 4-1223||2607|OFFICE|212-854-1223
274671|KLUGE SCHOLARS PROGRAM|274629|MS* 4-5895||2607|OFFICE|212-854-5895
274675|OPPORTUNITY PROGRAMS AND UNDERGRADUATE SERVICES  (OPUS)|274629|MS* 4-3514||3705|OFFICE|212-854-3514
274677|OXFORD-CAMBRIDGE SCHOLARS PROGRAM|274629|MS* 4-1219||2805|OFFICE|212-854-1219
274679|PRE-PROFESSIONAL PROGRAMS, OFFICE OF|274629|MS* 4-8722||1205|OFFICE|212-854-8722
274683|RESIDENTIAL PROGRAMS, OFFICE OF|274629|MS* 4-6805||4205|OFFICE|212-854-6805
274685|STUDENT ACTIVITIES|274629|MS* 4-3611||2601|OFFICE|212-854-3611
274695|FAX|274694||||FAX|212-851-2801
274699|FAX|274698||||FAX|212-865-1294
274702|HRCHAP@COLUMBIA.EDU|274701|||||
274703|WWW.HR.COLUMBIA.EDU/HR/HTML/CHAP.HTML|274701|||||
274705|www.columbia.edu/cu/hrlr|274704|||||
274711|www.columbia.edu/cu/asiaweb/|274710|||||
274713|www.columbia.edu/cu/jeel|274712|||||
274715|www.columbia.edu/cu/jel|274714|||||
274717|www.columbia.edu/cu/eurojournal/index.htm|274716|||||
274719|www.columbia.edu/cu/jgl|274718|||||
274721|www.columbia.edu/cu/jlsp|274720|||||
274723|FAX|274722|MS* 4-5994|||FAX|212-854-5994
274724|www.columbia.edu/cu/jtl/|274722|||||
274725|spare|276877|||||
274729|WWW.LAW.COLUMBIA.EDU/STUDENTSERVICES/|274728|||||
274731|WWW.LAW.COLUMBIA.EDU/STUDENTSERVICES/|274730|||||
274733|FAX|274732|MS*4-7801|||FAX|212-854-7801
274735|WWW.LAW.COLUMBIA.EDU/STUDENTSERVICES/|274734|||||
274737|FAX|274736|MS* 4-7801|||FAX|212-854-7801
274740|WWW.LAW.COLUMBIA.EDU/STUDENTSERVICES/|274739|||||
274742|FAX|274741|MS* 4-1229|||FAX|212-854-1229
274743|WWW.LAW.COLUMBIA.EDU/STUDENTSERVICES/STUDORG2000.SHTML|274741|||||
274745|WWW.LAW.COLUMBIA.EDU/STUDENTSERVICES/|274744|||||
274747|WWW.LAW.COLUMBIA.EDU/STUDENTSERVICES/|274746|||||
274749|WWW.LAW.COLUMBIA.EDU/STUDENTSERVICES/|274748|||||
274751|WWW.LAW.COLUMBIA.EDU/STUDENTSERVICES/|274750|||||
274753|WWW.LAW.COLUMBIA.EDU/STUDENTSERVICES/|274752|||||
274755|WWW.LAW.COLUMBIA.EDU/STUDENTSERVICES/|274754|||||
274761|FAX|274760|MS* 4-3434|||FAX|212-854-3434
274767|INFORMATION|274766|MS* 4-1898|||OFFICE|212-854-1898
274768|FAX|274766|MS* 4-7618|||FAX|212-854-7618
274772|INFORMATION|274771|MS* 4-9400|||OFFICE|212-854-9400
274773|FAX|274771||||FAX|212-854-9401
274774|STUDENT PRESS REVIEW, THE|274771|MS* 4-9400||5711|OFFICE|212-854-9400
274776|www.stlr.org|274775|||||
274778|WWW.LAW.COLUMBIA.EDU/STUDENTSERVICES/|274777|||||
274780|WWW.LAW.COLUMBIA.EDU/STUDENTSERVICES/|274779|||||
274792|FAX|274791|MS* 4-7320|||FAX|212-854-7320
274796|INFORMATION  99 OR|274795|MS* 4-5555|||OFFICE|212-854-5555
274799|AMBULANCE   99 OR|274797|MS* 4-5555|||OFFICE|212-854-5555
274801|FAX|274800||||FAX|212-222-0193
274804|DEPUTY VICE PRESIDENT, ASSOCIATE DIRECTOR,|274803|||||
274805|FINANCIAL MANAGEMENT, CONSTRUCTION,|274803|||||
274806|INFORMATION SYSTEMS|274803|MS* 4-9410|||OFFICE|212-854-9410
274808|FAX|274807|MS* 1-2040|||FAX|212-851-2040
274810|RENTING, LEASING, OPERATIONS|274809|MS* 4-9300|||OFFICE|212-854-9300
274812|FAX|274811||||FAX|212-459-3678
274815|CALENDAR|274814|MS* 4-3282||4321|OFFICE|212-854-3282
274821|www.columbia.edu/cujla|274820|||||
274823|WWW.LAW. COLUMBIA.EDU/STUDENTSERVICES/|274822|||||
274825|FAX|274824|MS* 4-9534|||FAX|212-854-9534
274827|PHONE|274826|MS* 4-7866|||OFFICE|212-854-7866
274829|FAX|274826|MS* 4-3434|||FAX|212-854-3434
274832|COMPUTING HELP DESK|274831|MS* 4-1919|||OFFICE|212-854-1919
274833|CONSULTANT@COLUMBIA.EDU|274831|||||
274837|FAX|274836|MS* 4-2000|||FAX|212-854-2000
274838|BILLING QUESTIONS|274836|MS* 4-4444|||OFFICE|212-854-4444
274839|CABLE TV|274836|MS* 4-5000|||OFFICE|212-854-5000
274840|CALLING CARD  (AT&T CREDIT CARD)|274836|MS* 4-4444|||OFFICE|212-854-4444
274841|FACSIMILE (FAX) INFORMATION|274836|MS* 4-6251|||OFFICE|212-854-6251
274842|ORDER AND REQUISITION INFORMATION|274836|MS* 4-5000|||OFFICE|212-854-5000
274843|HELP DESK|274836|MS* 4-1919|||OFFICE|212-854-1919
274844|STUDENT SERVICES|274836|MS* 4-6250|||OFFICE|212-854-6250
274845|TRAINING|274836|MS* 4-0000|||OFFICE|212-854-0000
274849|FAX|274848|MS* 4-5951|||FAX|212-854-5951
274850|DEPARTMENTAL ADMINISTRATOR|274848|MS* 4- 0731||2010|OFFICE|212-854-0731
274851|EXECUTIVE DIRECTOR|274848|MS* 4-2617||2010|OFFICE|212-854-2617
274852|ADVOCACY AND ADULT EDUCATION PROGRAMS|274848|||||
274855|HOUSING AND HOMELESSNESS PROGRAMS|274848|||||
274861|COMMUNITY EDUCATION PROGRAMS|274848|||||
274865|COMPANIONSHIP PROGRAMS|274848|MS* 4-1492||2010|OFFICE|212-854-1492
274868|YOUTH PROGRAMS|274848|MS* 4-1492||2010|OFFICE|212-854-1492
274882|STUDENT EXECUTIVE BOARD|274848|MS* 4-1492||2010|OFFICE|212854-1492
274884|WWW.LAW.COLUMBIA.EDU/STUDENTSERVICES/|274883|||||
274886|FAX|274885||||FAX|212-854-3099
274887|WWW.COLUMBIA.EDU/CU/CCLS|274885|||||
274889|FAX|274888||||FAX|212-305-3458
274891|FAX|274890||||FAX|342-0100
274893|FAX|274892|MS* 4-8103|||FAX|212-854-8103
274896|INFORMATION|274895||||OFFICE|888-617-8400
274897|WWW.COLUMBIA.EDU/ACIS/SALES/|274895|||||
274899|FAX|274898||||FAX|212-666-0140
274900|CHAIR|274898|||0401|OFFICE|212-939-7004
274901|ADMINISTRATOR|274898|MS* 4-7117||0401|OFFICE|212-854-7117
274902|ACADEMIC RECORDS|274898|||0401||
274903|BUSINESS OFFICE|274898|||0401|OFFICE|212-939-7010
274904|COMPUTING RESEARCH FACILITIES|274898|||0401|OFFICE|212-939-7000
274910|INFORMATION|274909|MS* 4-1919|||OFFICE|212-854-1919
274911|CONSULTANT@COLUMBIA.EDU|274909|||||
274915|RESERVATIONS|274914|MS* 4-2821|||OFFICE|212-854-2821
274916|KELLOGG@COLUMBIA.EDU|274914|||||
274919|WWW.LAW.COLUMBIA.EDU/STUDENTSERVICES/|274918|||||
274921|FAX|274920|MS* 4-5840|||FAX|212-854-5840
274923|WWW.LAW.COLUMBIA.EDU/STUDENTSERVICES/|274922|||||
274925|FAX|274924|MS* 4-5273|||FAX|212-854-5273
274926|DIRECTOR|274924|MS* 4-3410||7740|OFFICE|212-854-3410
274930|FAX|274929|MS* 4-3236|||FAX|212-854-3236
274935|EXECUTIVE TECHNOLOGY MASTERS PROGRAM (EMSTM)|274931|MS* 4-9666||4118|OFFICE|212-854-9666
274937|ADVISORS|274931|MS* 4-9666||4119|OFFICE|212-854-9666
274938|AMERICAN LANGUAGE PROGRAM|274931|MS* 4-3584||4113|OFFICE|212-854-3584
274940|AUDITING PROGRAM|274931|MS* 4-9666||4119|OFFICE|212-854-9666
274941|BERLIN CONSORTIUM FOR GERMAN STUDIES|274931|MS* 4-2559||4119|OFFICE|212-854-2559
274943|BUSINESS POSTBACCALAUREATE PROGRAM|274931|MS* 4-9666||4119|OFFICE|212-854-9666
274946|CREATIVE WRITING|274931|MS* 4-3774||4108|OFFICE|212-854-3774
274947|DEAN|274931|MS* 4-3771||4110|OFFICE|212-854-3771
274950|SECONDARY SCHOOL PROGRAMS, SUMMER|274931|MS* 4-9699||4110|OFFICE|212-854-9699
274951|LIFELONG LEARNERS PROGRAM|274931|MS* 4- 9666||4119|OFFICE|212-854-9666
274952|REID HALL PROGRAMS|274931|MS* 4-2559||4119|OFFICE|212-854-2559
274954|SPECIAL STUDENTS PROGRAM|274931|MS* 4-9666||4119|OFFICE|212-854-9666
274956|SUMMER PROGRAMS FOR SECONDARY SCHOOL STUDENTS|274931|MS* 4- 9699||4110|OFFICE|212-854-9699
274958|SUMMER SESSION|274931|MS* 4-9666||4119|OFFICE|212-854-9666
274961|TESOL  (TEACHING ENGLISH TO SPEAKERS OF OTHER LANGUAGES)|274931|MS* 4-9666||4119|OFFICE|212-854-9666
274963|FAX|274962||||FAX|212-781-6047
274976|ces@columbia.edu|274974|||||
274977|FAX|274974|MS* 4-8808|||FAX|212-854-8808
274983|INFORMATION|274982|MS* 4-4444|||OFFICE|212-854-4444
275001|FAX|275000|MS* 4-5009|||FAX|212-854-5009
275003|RESERVATIONS|275002|MS* 4-2821|||OFFICE|212-854-2821
275004|KELLOGG@COLUMBIA.EDU|275002|||||
275006|WWW.LAW.COLUMBIA.EDU/STUDENTSERVICES/|275005|||||
275010|WWW.LAW.COLUMBIA.EDU/STUDENTSERVICES/|275009|||||
275012|CLINIC INFORMATION|275011|MC* 5-6726|||OFFICE|212-305-6726
275013|CONTINUING EDUCATION|275011|MC* 5-6881|||OFFICE|212-305-6881
275017|DEAN S OFFICE|275011|MC* 5-4511|||OFFICE|212-305-4511
275024|CHAIR S ADMINISTRATIVE OFFICES|275023|MC* 5-5565|||OFFICE|212-305-5565
275026|DEPARTMENTAL ADMINISTRATOR|275023|MC* 5-7585|||OFFICE|212-305-7585
275028|HUMAN RESOURCES|275023|MC* 2-2989|||OFFICE|212-342-2989
275029|RESIDENCY PROGRAM|275023|MC* 5-5317|||OFFICE|212-305-5317
275030|MEDICAL EDUCATION|275023|MC* 5-5317|||OFFICE|212-305-5317
275031|FACULTY PRACTICE LOCATIONS|275023|MC* 5-5293|||OFFICE|212-305-5293
275033|BILLING|275023|MC* 5-8132|||OFFICE|212-305-8132
275035|CLINICAL RESEARCH|275023|MC* 5-6953|||OFFICE|212-305-6953
275037|BASIC SCIENCE|275023|MC* 6-8632|||OFFICE|212-305-8632
275039|DERMATOPATHOLOGY|275023|MC* 6-2155|||OFFICE|212-305-2155
275043|FAX|275042|MS* 4-5381|||FAX|212-854-5381
275045|FAX|275044||||FAX|212-544-1920
275049|ARCHITECTURE, PLANNING, AND PRESERVATION|275048|MS* 4- 9543||0330|OFFICE|212-854-9543
275050|ARTS, SCHOOL OF THE|275048|MS* 4-7724||1803|OFFICE|212-854-7724
275051|BUSINESS SCHOOL|275048|MS* 4-3425|||OFFICE|212-854-3425
275053|COLUMBIA COLLEGE|275048|IC* 2288||7730|OFFICE|212-870-2288
275055|ENGINEERING AND APPLIED SCIENCE|275048|MS* 4-4472||4718|OFFICE|212-854-4472
275056|GENERAL STUDIES|275048|IC* 4-2281||7724|OFFICE|212-870-2281
275061|GRADUATE SCHOOL OF ARTS AND SCIENCES|275048|MS*4-9601||7722|OFFICE|212-854-9601
275064|LAW SCHOOL|275048|MS* 4-2680||4003|OFFICE|212-854-2680
275066|PHYSICIANS AND SURGEONS|275048|HS* 5-3498|||OFFICE|212-305-3498
275067|SOCIAL WORK|275048|MS* 1-2375||4600|OFFICE|212-851-2375
275071|FAX|275070||||FAX|212-851-2801
275078|TO OBTAIN AN ADDITIONAL DIRECTORY|275077|MS* 4-0000|||OFFICE|212-854-0000
275079|PRODUCTION|275077|MS* 4-9531||6601|OFFICE|212-854-9531
275081|[NOTE: TO MAKE CHANGES TO THE OFFICERS AND STAFF LISTINGS, FOLLOW THE INSTRUCTIO|275077|||||
275083|FAX|275082|MS* 4-3448|||FAX|212-854-3448
275086|PHONE|275085|MS* 4-2854|||OFFICE|212-854-2854
275089|WWW.LAW.COLUMBIA.EDU/STUDENTSERVICES/|275088|||||
275091|FAX|275090|MS* 4-4019|||FAX|212-854-4019
275095|FAX|275094|MS* 4-7457|||FAX|212-854-7457
275096|TALENT SEARCH|275094|MS* 4-3897|||OFFICE|212-854-3897
275097|UPWARD BOUND PROGRAM|275094|MS* 4-3897|||OFFICE|212-854-3897
275099|INFORMATION|275098|MS* 4-2180|||OFFICE|212-854-2180
275101|WWW.LAW.COLUMBIA.EDU/STUDENTSERVICES/|275100|||||
275102|spare|276877|||||
275106|FAX|275105|MS* 4-7798|||FAX|212-854-7798
275107|UNIVERSITY CHAPLAIN/DIRECTOR|275105|MS* 4-1493||2008|OFFICE|212-854-1493
275109|SPACE RENTAL|275105|MS* 4- 1487||2008|OFFICE|212-854-1487
275115|RELIGIOUS COUNSELORS AND CAMPUS MINISTERS|275105|MS* 4-1514||2001|OFFICE|212-854-1514
275122|STUDENT GOVERNING BOARD|275105|MS* 4-4194||2012|OFFICE|212-854-4194
275130|FAX|275129||||FAX|845-365-8163
275131|DEPARTMENT OFFICES|275129|||||
275136|HTTP://EESC.COLUMBIA.EDU|275129|||||
275139|PHONE|275138|MS* 4-2138|||OFFICE|212-854-2138
275141|FAX|275138|MS* 4-5213|||FAX|212-854-5213
275142|EARTH@COLUMBIA.EDU|275138|||||
275144|FAX|275143|MS* 4-1993|||FAX|212-854-1993
275152|CHAIRMAN|275150|MS* 4-5027||3907|OFFICE|212-854-5027
275155|CHIANG CHING-KUO (CCK) FOUNDATION CENTER FOR  CHINESE CULTURAL AND INSTITUTIONA|275150|MS* 4-4096||3907|OFFICE|212-854-4096
275157|COLUMBIA COLLEGE|275150|MS* 4-5027||3907|OFFICE|212-854-5027
275158|COMMITTEE ON ASIAN AND MIDDLE EAST STUDIES|275150|MS* 4-2569||3915|OFFICE|212-854-2569
275159|DEPARTMENT OFFICE|275150|MS* 4-5028||3907|OFFICE|212-854-5028
275162|DONALD KEENE CENTER OF JAPANESE CULTURE|275150|MS* 4-5036||3920|OFFICE|212-854-5036
275164|GENERAL STUDIES|275150|MS* 4-5027||3907|OFFICE|212-854-5027
275165|INSTITUTE FOR MEDIEVAL JAPANESE STUDIES|275150|MS* 4-7403||3906|OFFICE|212-854-7403
275170|PHONE|275169|MS* 4-4008|||OFFICE|212-854-4008
275173|FAX|275172|MS* 4-8188|||FAX|212-854-8188
275177|GENERAL INFORMATION|275175|MS* 4-3680|||OFFICE|212-854-3680
275178|BOOKKEEPER|275175|MS* 4-6879|||OFFICE|212-854-6879
275179|CHAIRMAN|275175|MS* 4-4037||3308|OFFICE|212-854-4037
275181|DEPARTMENT ADMINISTRATOR|275175|MS* 4-2062|||OFFICE|212-854-2062
275182|GRADUATE|275175|MS* 4-6881|||OFFICE|212-854-6881
275183|UNDERGRADUATE|275175|MS* 4-3681|||OFFICE|212-854-3681
275192|DEPARTMENT OFFICE|275191|MS* 4-3105||4712|OFFICE|212-854-3105
275199|ARMSTRONG FOUNDATION|275191|MS* 4-3121||4712|OFFICE|212-854-3121
275200|MICROELECTRONICS SCIENCES LAB|275191|MS* 4-3265||8903|OFFICE|212-854-3265
275203|RESEARCH LABS|275191|||||
275226|UNDERGRADUATE INSTRUCTIONAL LABS|275191|||||
275235|HELP DESK|275234|MS* 4-1919|||OFFICE|212-854-1919
275236|WWW.COLUMBIA.EDU/ACIS/EMAIL/|275234|||||
275241|MORNINGSIDE CAMPUS  99 OR|275240|MS* 4-5555|||OFFICE|212-854-5555
275242|MEDICAL CENTER|275240|MC* 5-7979|||OFFICE|212-305-7979
275244|DIRECTOR|275243|MS* 4-8646|||OFFICE|212-854-8646
275245|JOB FAIRS|275243|MS* 4-5484|||OFFICE|212-854-5484
275247|Faculty and Staff|275246|||||
275249|Morningside: cmsjobs@columbia.edu|275246|||||
275251|Med Cntr: cmcjobs@columbia.edu|275246|||||
275253|fax|275246|||7705||212-851-1557
275255|Online Employment Application System|275246|||||
275257|http://jobs.columbia.edu|275246|||||
275262|FAX|275261||||FAX|212-864-0104
275266|ALUMNI ASSOCIATION|275261|MS* 4-4472||4718|OFFICE|212-854-4472
275277|CLASS CENTERS|275261|||||
275286|COLUMBIA VIDEO NETWORK|275261|MS* 4-6441||4719|OFFICE|212-854-6441
275291|DEAN OF STUDENT AFFAIRS|275261|MS* 4-2446||2607|OFFICE|212-854-2446
275292|DEAN S OFFICE|275261|MS* 4-2993||4714|OFFICE|212-854-2993
275293|DEVELOPMENT AND ALUMNI RELATIONS|275261|MS* 4-4472||4718|OFFICE|212-854-4472
275298|ENGINEERING NEWS, COLUMBIA|275261|MS* 4-2997||4718|OFFICE|212-854-2997
275302|FLIGHT STRUCTURES, INSTITUTE OF|275261|MS* 4-2396||4709|OFFICE|212-854-2396
275303|GRADUATE STUDENT SERVICES|275261|MS* 4-6438||4708|OFFICE|212-854-6438
275317|OPPORTUNITY PROGRAMS AND UNDERGRADUATE SERVICES (OPUS)|275261|MS* 4-3514||4747|OFFICE|212-854-3514
275319|ORIENTATION PROGRAM|275261|MS* 4-3611||2601|OFFICE|212-854-3611
275325|PREPROFESSIONAL OFFICE|275261|MS* 4-8722||2801|OFFICE|212-854-8722
275327|RESIDENTIAL LIFE, OFFICE OF|275261|MS* 4-6805||4205|OFFICE|212-854-6805
275329|SOLID-STATE SCIENCE AND ENGINEERING|275261|MS* 4-4457||4701|OFFICE|212-854-4457
275330|STUDENT AFFAIRS|275261|||||
275338|FAX|275337|MS* 4-5398|||FAX|212-854-5398
275339|UNDERGRADUATE WRITING PROGRAM|275337|MS* 4-3886||4995|OFFICE|212-854-3886
275342|FAX|275341|MS* 4-8998|||FAX|212-854-8998
275344|WWW.LAW.COLUMBIA.EDU/STUDENTSERVICES/|275343|||||
275348|FAX|275347||||FAX|212-316-4937
275349|ASSISTANT VICE PRESIDENT|275347|MS* 4-8749|||OFFICE|212-854-8749
275350|ASSISTANT DIRECTOR|275347|MS* 4-6670|||OFFICE|212-854-6670
275351|CONSTRUCTION/FACILITIES SAFETY OFFICER|275347|MS* 4-8048|||OFFICE|212-854-8048
275352|FIRE SAFETY OFFICER|275347|MS* 4-6676|||OFFICE|212-854-6676
275353|HAZARDOUS WASTE OFFICER|275347|MS* 4-4658|||OFFICE|212-854-4658
275354|LAB SAFETY/CHEMICAL SAFETY OFFICER|275347|MS* 4-2213|||OFFICE|212-854-2213
275355|RADIATION SAFETY OFFICER|275347|MS* 4-6532|||OFFICE|212-854-6532
275358|HEALTH SCIENCES CAMPUS|275347|HS* 5-6780|||OFFICE|212-305-6780
275361|FAX|275360||||FAX|212-795-5847
275362|ASSOCIATE VICE PRESIDENT|275360|MC* 5-6780|||OFFICE|212-305-6780
275364|ASSOCIATE DIRECTOR, OCCUPATIONAL HYGIEN E OFFICER|275360|MC* 5-6780|||OFFICE|212-305-6780
275366|BIOLOGICAL SAFETY OFFICER|275360|MC* 5-6780|||OFFICE|212-305-6780
275369|FIRE SAFETY OFFICER|275360|MC* 5-6780|||OFFICE|212-305-6780
275371|LABORATORY SAFETY OFFICERS|275360|HS* 5-6780|||OFFICE|212-305-6780
275375|MORNINGSIDE CAMPUS|275360|MS* 4-8749||2215|OFFICE|212-854-8749
275379|WWW.LAW.COLUMBIA.EDU/STUDENTSERVICES/|275378|||||
275381|WWW.LAW.COLUMBIA.EDU/STUDENTSERVICES/|275380|||||
275385|PHONE|275384|MS* 4-8179|||OFFICE|212-854-8179
275387|FAX|275384|MS* 4-8188|||FAX|212-854-8188
275389|CFP5@COLUMBIA.EDU|275388|||||
275392|FAX|275391|MS* 4-1368|||FAX|212-854-1368
275396|WWW.LAW.COLUMBIA.EDU/STUDENTSERVICES/|275395|||||
275398|WWW.LAW.COLUMBIA.EDU/STUDENTSERVICES/|275397|||||
275400|PHONE|275399|MS* 4-4172|||OFFICE|212-854-4172
275402|FAX|275399|MS* 4-8808|||FAX|212-854-8808
275403|CES@COLUMBIA.EDU|275399|||||
275406|PHONE|275404|MS* 4-4172|||OFFICE|212-854-4172
275416|FAX|275415|MS* 4-7997|||FAX|212-854-7997
275418|PHONE|275417|MS* 4-2391|||OFFICE|212-854-2391
275423|VICE PRESIDENT' S OFFICE|275422|MS* 4-3291|||OFFICE|212-854-3291
275425|INFORMATION AND RECEPTION|275422|MS* 4-8740||3401|OFFICE|212-854-8740
275427|FINANCE AND ADMINISTRATIVE PLANNING|275422|MS* 4-0007|||OFFICE|212-854-0007
275428|CAPITAL PROJECT MANAGEMENT|275422|||||
275434|FACILITIES SERVICES CENTER|275422||||OFFICE|212-854-2222
275551|INFORMATION|275550|MS* 4-1200|||OFFICE|212-854-1200
275554|CATERING/CONFERENCE MANAGER|275550|MS* 4-7192|||OFFICE|212-854-7192
275555|CONTROLLER/BILLING OFFICE|275550|MS* 4-7197|||OFFICE|212-854-7197
275556|DINING ROOM RESERVATIONS|275550|MS* 4-7199|||OFFICE|212-854-7199
275557|DIRECTOR|275550|MS* 4-6612|||OFFICE|212-854-6612
275559|MEMBERSHIP ACCOUNTS/BILLING OFFICE|275550|MS* 4-7197|||OFFICE|212-854-7197
275560|PRESIDENT, BOARD OF ADVISORS|275550|||||
275569|INFORMATION|275568|MS* 4-0000|||OFFICE|212-854-0000
275578|WWW.LAW.COLUMBIA.EDU/STUDENTSERVICES/|275577|||||
275580|PHONE|275579|MS* 4-4631||||
275581|PHONE|275579|MS* 4-4632||||
275582|FAX|275579|MS* 4-4069|||FAX|212-854-4069
275590|FAX|275589|MS* 4-7997|||FAX|212-854-7997
275592|ARCHITECTURE, PLANNING, AND PRESERVATION|275591|MS* 4-7040||9208|OFFICE|212-854-7040
275593|ARTS|275591|MS* 4-7040||9208|OFFICE|212-854-7040
275594|BUSINESS|275591|MS* 4-4057||5915|OFFICE|212-854-4057
275595|COLUMBIA COLLEGE|275591|MS* 4-3711||2802|OFFICE|212-854-3711
275597|CONTINUING EDUCATION|275591|MS* 4-7040||9208|OFFICE|212-854-7040
275598|DENTAL AND ORAL SURGERY|275591|MC* 5-4100|||OFFICE|212-305-4100
275599|ENGINEERING, GRADUATE|275591|MS* 4-3711||6438|OFFICE|212-854-3711
275600|ENGINEERING, UNDERGRADUATE|275591|MS* 4-6753||2802|OFFICE|212-854-6753
275602|GENERAL STUDIES|275591|MS* 4-5410||9208|OFFICE|212-854-5410
275603|GRADUATE SCHOOL OF ARTS AND SCIENCES|275591|MS* 4-3808||4304|OFFICE|212-854-3808
275605|INSTITUTE OF HUMAN NUTRITION|275591|MC* 5-4808|||OFFICE|212-305-4808
275609|INTERNATIONAL AND PUBLIC AFFAIRS|275591|MS* 4-6216||3325|OFFICE|212-854-6216
275610|spare|276877||||OFFICE|
275611|LAW|275591|MS* 4-7730||4005|OFFICE|212-854-7730
275612|NURSING|275591|MC* 5-8147|||OFFICE|212-305-8147
275613|PHYSICAL THERAPY AND OCCUPATIONAL THERAPY|275591|MC* 5-5266|||OFFICE|212-305-5266
275614|PHYSICIANS AND SURGEONS|275591|MC* 5-4100|||OFFICE|212-305-4100
275615|PUBLIC HEALTH|275591|MC* 5-4113|||OFFICE|212-305-4113
275616|SOCIAL WORK|275591|MS* 1-2293||4600|OFFICE|212-851-2293
275624|MEDICAL CENTER|275623|MC* 5-6780|||OFFICE|212-305-6780
275626|MORNINGSIDE CAMPUS|275623|MS* 4-6676||2215|OFFICE|212-854-6676
275628|MORNINGSIDE CAMPUS  99 OR|275627|MS* 4-5555|||OFFICE|212-854-5555
275629|HEALTH SCIENCES CAMPUS|275627|HS* 7-7979|||OFFICE|212-305-7979
275640|FAX|275639|IC* 3144|||FAX|212-870-3144
275642|ALPHA CHI OMEGA|275641|MS* 3-5474||4205|OFFICE|212-853-5474
275643|ALPHA DELTA PHI|275641|MS* 3-3600|||OFFICE|212-853-3600
275644|ALPHA EPSILON PI|275641|MS* 3-3302|||OFFICE|212-853-3302
275645|ALPHA KAPPA ALPHA|275641|MS* 4- 9134||4205|OFFICE|212-854-9134
275646|DELTA GAMMA|275641|MS* 3-3781|||OFFICE|212-853-3781
275648|DELTA SIGMA PHI|275641|MS* 4-9134||4205|OFFICE|212-854-9134
275649|DELTA SIGMA THETA|275641|MS* 4-9134||4205|OFFICE|212-854-9134
275650|KAPPA ALPHA THETA|275641|MS* 3-3697|||OFFICE|212-853-3697
275651|KAPPA DELTA RHO|275641|MS* 3-3632|||OFFICE|212-853-3632
275652|LAMBDA PHI EPSILON|275641|MS* 4-9134||4205|OFFICE|212-854-9134
275653|LAMBDA PI CHI|275641|MS* 4-9134||4205|OFFICE|212-854-9134
275654|LAMBDA PI UPSILON|275641|MS* 4-9134||4205|OFFICE|212-854-9134
275656|PHI IOTA ALPHA|275641|MS* 3-5276|||OFFICE|212-853-5276
275657|PI KAPPA ALPHA|275641|MS* 3-3701|||OFFICE|212-853-3701
275658|PSI UPSILON|275641|MS* 3-3741|||OFFICE|212-853-3741
275659|SIGMA CHI|275641|MS* 3-3110|||OFFICE|212-853-3110
275660|SIGMA DELTA TAU|275641|MS* 3-3286|||OFFICE|212-853-3286
275662|SIGMA IOTA ALPHA|275641|MS* 4-9134||4205|OFFICE|212-854-9134
275663|SIGMA NU|275641|MS* 3-3623|||OFFICE|212-853-3623
275664|SIGMA PHI EPSILON|275641|MS* 3-3656|||OFFICE|212-853-3656
275665|ZETA BETA TAU|275641|MS* 3-3573|||OFFICE|212-853-3573
275666|ZETA PSI|275641|MS* 3-3681|||OFFICE|212-853-3681
275671|FAX|275670|MS* 4-8868|||FAX|212-854-8868
275676|COLUMBIA COLLEGE|275674|MS* 4-2500||4902|OFFICE|212-854-2500
275677|GENERAL STUDIES|275674|MS* 4-2500||4902|OFFICE|212-854-2500
275678|GRADUATE SCHOOL OF ARTS AND SCIENCES|275674|MS* 4-3208||4902|OFFICE|212-854-3208
275692|GABLES@COLUMBIA.EDU|275691|||||
275694|PHONE|275693|MS* 4-5581|||OFFICE|212-854-5581
275696|FAX|275693||||FAX|212-864-4947
275699|ADVISERS|275697|MS* 4-2881||4102|OFFICE|212-854-2881
275700|ADVISORY COUNCIL|275697|MS* 4-6321||4121|OFFICE|212-854-6321
275702|ALUMNI AFFAIRS|275697|MS* 4-8498||4121|OFFICE|212-854-8498
275704|ALUMNI ASSOCIATION|275697|MS* 4-8498||4121|OFFICE|212-854-8498
275706|COMMITTEE ON INSTRUCTION (COI)|275697|MS* 4-6321||4103|OFFICE|212-854-6321
275707|DEAN, OFFICE OF THE|275697|||||
275713|DEVELOPMENT|275697|IC* 2281||7724|OFFICE|212-870-2281
275724|POSTBACCALAUREATE PREMEDICAL PROGRAM|275697|MS* 4-0467||4109|OFFICE|212-854-0467
275727|FAX|275726||||FAX|212-923-2090
275737|WWW.LAW.COLUMBIA.EDU/STUDENTSERVICES/|275736|||||
275739|FAX|275738|MS* 4-5381|||FAX|212-854-5381
275740|DUTCH STUDIES|275738|MS* 4-1856||2812|OFFICE|212-854-1856
275743|FINNISH STUDIES|275738|MS* 4-3202||2820|OFFICE|212-854-3202
275746|SWEDISH STUDIES|275738|MS* 4-3202||2812|OFFICE|212-854-3202
275749|YIDDISH STUDIES|275738|MS* 4-3202||2819|OFFICE|212-854-3202
275753|PHONE|275752|IC* 3559|||OFFICE|212-870-3559
275755|FAX|275754||||FAX|212-870-3109
275762|www.giss.nasa.gov|275761|||||
275763|GENERAL INFORMATION|275761||||OFFICE|212-678-5500
275764|FAX|275761||||FAX|212-678-5552
275765|DIRECTOR|275761||||OFFICE|212-678-5500
275766|LIBRARY|275761||||OFFICE|212-678-5613
275771|WWW.LAW.COLUMBIA.EDU/STUDENTSERVICES/|275770|||||
275774|ACADEMIC AFFAIRS|275772|MS* 4-5052||4306|OFFICE|212-854-5052
275775|ACADEMIC PROGRESS, DISSERTATION DEFENSE AND DEPOSIT|275772|MS* 4-2866||4304|OFFICE|212-854-2866
275782|DEAN, OFFICE OF THE|275772|MS* 4-2861||4306|OFFICE|212-854-2861
275783|DEVELOPMENT|275772|MS* 4-9601||7720|OFFICE|212-854-9601
275786|M.A. ONLY PROGRAMS|275772|MS* 4-5972||4307|OFFICE|212-854-5972
275788|MINORITY AFFAIRS AND SPECIAL PROGRAMS|275772|MS* 4-3791||4306|OFFICE|212-854-3791
275789|STUDENT AFFAIRS|275772|MS* 4-3923||4306|OFFICE|212-854-3923
275791|ACADEMIC POSITIONS, TEACHING|275790|MS* 4-3561|||OFFICE|212-854-3561
275795|FAX|275794|MS* 4-2738|||FAX|212-854-2738
275797|FAX|275796|MS* 4-7856|||FAX|212-854-7856
275801|FAX|275800||||FAX|212-854-7856
275803|FAX|275802||||FAX|212-865-1294
275810|INFORMATION|275809|MS* 4-2548|||OFFICE|212-854-2548
275811|BUILDING SUPERVISOR|275809|MS* 4-3441|||OFFICE|212-854-3441
275812|PHYSICAL EDUCATION|275809|MS* 4-3439|||OFFICE|212-854-3439
275816|RESERVATIONS|275815|MS* 4-2821|||OFFICE|212-854-2821
275817|KELLOGG@COLUMBIA.EDU|275815|||||
275822|FAX|275821||||FAX|212-342-2320
275824|ADMINISTRATION|275823||||OFFICE|212-939-1340
275826|AFFILIATION OFFICE|275823||||OFFICE|212-939-1383
275836|DEPARTMENTS|275823|||||
275852|RENAISSANCE HEALTHCARE NETWORK|275823||||OFFICE|212-939-6520
275854|WWW.LAW.COLUMBIA.EDU/STUDENTSERVICES/|275853|||||
275863|FAX|275862|MC* 5-3545|||FAX|212-305-3545
275870|FAX|275869||||FAX|212-781-6047
275872|FAX|275871||||FAX|212-305-1031
275875|FAX|275874||||FAX|212-544-1920
275877|FAX|275876|HS* 5-8119|||FAX|212-305-8119
275878|MAINTENANCE CONTROL CENTER|275876|HS* 5-8100|||OFFICE|212-305-8100
275890|FAX|275889||||FAX|212-854-7856
275892|FAX|275891|MS* 4-7081|||FAX|212-854-7081
275893|EARTH AND ENVIRONMENTAL SYSTEMS|275891|MS* 4-6610|||OFFICE|212-854-6610
275894|EARTH RESOURCES ENGINEERING|275891|MS* 4-2905||4711|OFFICE|212-854-2905
275895|INDUSTRY/UNIVERSITY COOPERATIVE RESEARCH CENTER|275891|MS* 4-8812||4711|OFFICE|212-854-8812
275896|METALLURGICAL ENGINEERING|275891|MS* 4-2905||4711|OFFICE|212-854-2905
275897|MINERAL ENGINEERING AND CHEMICAL METALLURGY|275891|MS* 4-2928||4711|OFFICE|212-854-2928
275900|MINING ENGINEERING|275891|MS* 4-2984||4711|OFFICE|212-854-2984
275903|SHOP|275891|MS* 4-2902||4711|OFFICE|212-854-2902
275911|FAX|275910|MS* 4-3050|||FAX|212-854-3050
275913|FAX|275912||||FAX|212-662-7289
275917|FAX|275916||||FAX|212-854-2458
275925|DIRECTOR|275924|MS* 4-5177||1301|OFFICE|212-854-5177
275926|ASSOCIATE DIRECTOR|275924|MS* 4-8787||1301|OFFICE|212-854-8787
275931|COLUMBIA COLLEGE|275929|MS* 4-4646||2527|OFFICE|212-854-4646
275932|GENERAL STUDIES|275929|MS* 4-4646||2527|OFFICE|212-854-4646
275933|GRADUATE SCHOOL OF ARTS AND SCIENCES|275929|MS* 4-4646||2527|OFFICE|212-854-4646
275945|OFFICE OF ADMINISTRATIVE SERVICES|275944|||||
275946|INTEROFFICE:|275944||||OFFICE|212-781-0611
275949|FAX|275948|MC* 5-3079|||FAX|212-305-3079
275950|NUTRITION@.COLUMBIA.EDU|275948|||||
275952|CUHR Vice President, Office of the|275951|MS* 1-0628||8705|OFFICE|212-851-0628
275955|CUHR Benefits|275951|MS* 1-7000||8703|OFFICE|212-851-7000
275958|CUHR Labor Relations|275951|||8704|OFFICE|212-870-2801
275976|Harlem Hospital Affiliation: Human Resources|275951||||OFFICE|212-939-1720
275977|Medical Center Campus: Human Resources|275951|MC* 7-3819|||OFFICE|212-305-3819
275981|CUHR Information Services|275951|MS* 1-2888||8705|OFFICE|212-851-2888
275983|HR Organizational Services|275951|IC* 2425||7705|OFFICE|212-870-2425
276014|FAX|276013||||FAX|212-316-4578
276016|FAX|276015|MS* 4-5736|||FAX|212-854-5736
276018|FAX|276017|MS* 4-3515|||FAX|212-854-3515
276020|WWW.LAW.COLUMBIA.EDU/STUDENTSERVICES|276019|||||
276022|FAX|276021|MS* 4-5765|||FAX|212-854-5765
276024|FAX|276023||||FAX|212-662-7289
276026|PHONE|276025|MS* 4-4631|||OFFICE|212-854-4631
276028|FAX|276025|MS* 4-4069|||FAX|212-854-4069
276035|FAX|276034|MS* 4-8103|||FAX|212-854-8103
276036|ACADEMIC AND CAREER ADVISOR|276034|MS* 4-0757||4704|OFFICE|212-854-0757
276037|CENTER FOR APPLIED PROBABILITY  (CAP)|276034|MS* 4-6096||4704|OFFICE|212-854-6096
276040|COMPUTATIONAL OPTIMIZATION RESEARCH CENTER  (CORC)|276034|MS* 4-2385||4704|OFFICE|212-854-2385
276042|DEPARTMENTAL ADMINISTRATOR|276034|MS* 4-1473|||OFFICE|212-854-1473
276043|FINANCIAL ENGINEERING PROGRAM|276034|MS* 4-2942||4704|OFFICE|212-854-2942
276044|INDUSTRIAL ENGINEERS, AMERICAN INSTITUTE OF  (AIIE)|276034|MS* 4-2942||4704|OFFICE|212-854-2942
276047|WWW.LAW.COLUMBIA.EDU/STUDENTSERVICES/|276046|||||
276049|FAX|276048||||FAX|212-305-3302
276059|DEPUTY VICE PRESIDENT, ACADEMIC  INFORMATION SYSTEMS|276058|MS* 4-8314|||OFFICE|212-854-8314
276060|ADMINISTRATIVE INFORMATION SYSTEMS|276058|MS* 4-3749|||OFFICE|212-854-3749
276061|COMPUTING/NETWORK HELP DESK|276058|MS* 4-1919|||OFFICE|212-854-1919
276063|DEPUTY VICE PRESIDENT|276062|IC* 1820||7706|OFFICE|212-851-1820
276072|FAX|276071|MS* 4-1470|||FAX|212-854-1470
276074|FAX|276073|MS* 4-7060|||FAX|212-854-7060
276076|ASSISTANT DIRECTOR|276073|MS* 4-8789|||OFFICE|212-854-8789
276078|FAX|276077||||FAX|212-854-7466
276080|FAX|276079|MS* 4-8925|||FAX|212-854-8925
276081|CENTER FOR DECISION SCIENCES (CDS)|276079|MS* 4-4237||3355|OFFICE|212-854-4237
276083|CENTER FOR HISTORICAL AND SOCIAL SCIENCE (CHSS)|276079|MS* 4-7918||3355|OFFICE|212-854-7918
276084|CENTER ON ORGANIZATIONAL INNOVATION (COI)|276079|MS* 4-4680||3355|OFFICE|212-854-4680
276086|CENTER FOR THE STUDY OF WEALTH AND INEQUALITY (CWI)|276079|MS* 4-6335||3355|OFFICE|212-854-6335
276089|LAZARSFELD CENTER FOR THE SOCIAL SCIENCES|276079|MS* 4-3081||3355|OFFICE|212-854-3081
276090|-|276079|MS* 4-0742||3355|OFFICE|212-854-0742
276098|FAX|276097|MC* 5-1741|||FAX|212-305-1741
276100|FAX|276099||||FAX|212-305-3458
276102|PHONE|276101|MS* 4-3104|||OFFICE|212-854-3104
276107|FAX|276105|MC* 5-3079|||FAX|212-305-3079
276108|NUTRITION@COLUMBIA.EDU|276105|||||
276110|FAX|276109||||FAX|212-864-1686
276125|FAX|276124|MS* 4-3110|||FAX|854- 3110
276129|MORNINGSIDE CAMPUS|276128|||7712|OFFICE|212-851-5771
276131|MEDICAL CENTER|276128||||OFFICE|212-342-4758
276136|FAX|276135||||FAX|212-864-4847
276138|ALUMNI AFFAIRS|276135|MS* 4-8671||3328|OFFICE|212-854-8671
276139|CAREER SERVICES|276135|MS* 4-4613||3328|OFFICE|212-854-4613
276140|COMPUTER LAB|276135|MS* 4-1575||3328|OFFICE|212-854-1575
276141|DEAN S OFFICE|276135|MS* 4-4605||3328|OFFICE|212-854-4605
276142|DEPARTMENT OF INTERNATIONAL AND PUBLIC AFFAIRS|276135|MS* 4-3239||3323|OFFICE|212-854-3239
276143|EXTERNAL RELATIONS|276135|MS* 4-8671||3328|OFFICE|212-854-8671
276145|HAMMARSKJOLD LOUNGE|276135|||||
276148|INSTITUTES|276135|||||
276160|CENTER ON INTERNATIONAL ORGANIZATION|276135|MS* 4-1790|||OFFICE|212-854-1790
276161|HUMANITARIAN AFFAIRS PROGRAM|276135|MS* 4-8825||3323|OFFICE|212-854-8825
276165|JOURNAL OF INTERNATIONAL AFFAIRS|276135|MS* 4-4775|||OFFICE|212-854-4775
276168|KELLOGG CONFERENCE CENTER|276135|||3339||
276171|MIA  DEGREE INFORMATION|276135|MS* 4-2930||3328|OFFICE|212-854-2930
276172|MPA DEGREE INFORMATION|276135|MS* 4-1421||3328|OFFICE|212-854-1421
276173|MPA  IN EARTH SYSTEMS SCIENCE, POLICY, AND MANAGEMENT DEGREE INFORMATION|276135|MS* 4-3142||3323|OFFICE|212-854-3142
276175|OFFICE OF SPONSORED RESEARCH (OSR)|276135|MS* 4-5725||3355|OFFICE|212-854-5725
276177|PICKER CENTER FOR EXECUTIVE EDUCATION|276135|MS* 4-2710||3328|OFFICE|212-854-2710
276179|PROGRAM IN ECONOMIC POLICY MANAGEMENT|276135|MS* 4-6982||3332|OFFICE|212-854-6982
276180|STUDENT ASSOCIATION|276135|MS* 4-5424|||OFFICE|212-854-5424
276181|UN STUDIES PROGRAM|276135|MS* 4-1790|||OFFICE|212-854-1790
276186|FAX|276185||||FAX|212-316-1827
276187|RESIDENT ROOMS  (LONG- AND SHORT-TERM STAYS) AND  NON-RESIDENT MEMBERSHIP|276185||||OFFICE|212-316-8436
276188|GUEST-ACCOMMODATIONS  (HOTEL-TYPE ROOMS AND SUITES)|276185||||OFFICE|212-316-8436
276189|SPACE RENTAL  (RECEPTIONS, PARTIES, CONFERENCES)|276185||||OFFICE|212-316-8465
276191|WWW.LAW.COLUMBIA.EDU/STUDENTSERVICES/|276190|||||
276193|PHONE|276192|MS* 4-1794|||OFFICE|212-854-1794
276194|FAX|276192|MS* 4-1854|||OFFICE|212-854-1854
276196|FAX|276195||||FAX|845-680-4866
276198|FAX|276197|MS* 4- 3966|||FAX|212-854-3966
276200|COMPUTING/NETWORK HELP DESK|276199|MS* 4-1919|||OFFICE|212-854-1919
276201|CONSULTANT@COLUMBIA.EDU|276199|||||
276203|WWW.LAW.COLUMBIA.EDU/STUDENTSERVICES/|276202|||||
276212|FAX|276211|MS* 4-8479|||FAX|212-854-8479
276214|EVENTS INFORMATION|276211|MS* 4-4437|||OFFICE|212-854-4437
276216|FAX|276215|MS* 4-5306|||FAX|212-854-5306
276218|PHONE|276217|MS* 4-0594|||OFFICE|212-854-0594
276221|WWW.LAW.COLUMBIA.EDU/STUDENTSERVICES/|276220|||||
276227|FAX|276226|MS* 4-1634|||FAX|212-854-1634
276228|jazz@columbia.edu|276226|||||
276229|www.jazz.columbia.edu|276226|||||
276231|WWW.LAW.COLUMBIA.EDU/STUDENTSERVICES/|276230|||||
276235|WWW.LAW.COLUMBIA.EDU/STUDENTSERVICES/|276234|||||
276237|FAX|276236||||FAX|212-678-8947
276239|ALBERT A. LIST-COLLEGE OF JEWISH STUDIES|276236||||OFFICE|212-678-8826
276240|COMMUNITY EDUCATION (EDUCATIONAL OUTREACH)|276236||||OFFICE|212-678-8996
276241|WILLIAM DAVIDSON SCHOOL OF EDUCATION|276236||||OFFICE|212-678-8030
276242|FACILITIES MANAGEMENT|276236||||OFFICE|212-678-8095
276243|GRADUATE SCHOOL|276236||||OFFICE|212-678-8024
276244|H.L. MILLER CANTORIAL SCHOOL|276236||||OFFICE|212-678-8037
276245|LIBRARY|276236||||OFFICE|212-678-8081
276246|LOUIS FINKELSTEIN INSTITUTE FOR  RELIGIOUS AND SOCIAL STUDIES|276236||||OFFICE|212-678-8020
276247|MELTON RESEARCH CENTER|276236||||OFFICE|212-678-8031
276248|NATIONAL RAMAH COMMISSION|276236||||OFFICE|212-678-8881
276249|IVRY PROZDOR|276236||||OFFICE|212-678-8824
276250|RABBINICAL SCHOOL|276236||||OFFICE|212-678-8817
276251|REGISTRAR/FINANCIAL AID|276236||||OFFICE|212-678-8007
276252|RESIDENCE LIFE|276236||||OFFICE|212-678-8035
276253|STUDENT LIFE|276236||||OFFICE|212-678-8839
276254|SUMMER SCHOOL|276236||||OFFICE|212-678-8886
276256|FAX|276255|IC* 2747|||FAX|212-870-2747
276258|FAX|276257|MS* 4-9801|||FAX|212-854-9801
276260|WWW.LAW.COLUMBIA.EDU/STUDENTSERVICES/|276259|||||
276262|WWW.LAW.COLUMBIA.EDU/STUDENTSERVICES/|276261|||||
276264|www.columbia.edu/cu/jel|276263|||||
276266|www.columbia.edu/cu/eurojournal/index/htm/|276265|||||
276268|www.columbia.edu/cu/jgl|276267|||||
276270|PHONE|276269|MS* 4-4602|||OFFICE|212-854-4602
276273|www.columbia.edu/cu/jlsp/|276272|||||
276275|www.columbia.edu/cu/jla/|276274|||||
276277|FAX|276276||||FAX|212-932-3721
276278|MANAGING EDITOR: JOHN SMYLIE|276276||||OFFICE|212-666-4419
276280|www.columbia.edu/cu/jtl/|276279|||||
276283|Spare|276877|MS* 4-4150||3820|OFFICE|212-854-4150
276285|Alumni Office|276281|MS* 4-3864||3807|OFFICE|212-854-3864
276286|Broadcast|276281|MS* 4- 7318||3812|OFFICE|212-854-7650
276287|Carrer Services|276281|MS* 4-4422||3806|OFFICE|212-854-4422
276288|Spare|276877||||FAX|212-854-4547
276291|Dean's Office|276281|MS* 4-3572||3801|OFFICE|212-854-3572
276292|Associate Dean, Academic Affairs|276281|MS* 4-3845||3802|OFFICE|212-854-3845
276293|Associate Dean, Administrative Affairs|276281|MS* 4-7483||3803|OFFICE|212-854-7483
276294|spare|276877|||||
276295|spare|276877|||||
276296|Assistant Dean, Student Affairs|276281|MS* 4-3861||3804|OFFICE|212-854-3861
276297|Development|276281|MS* 4-1148||3807|OFFICE|212-854-1148
276298|Dupont Center For Broadcast-Journalism, Alfred I.|276281|MS* 4-5047||3805|OFFICE|212-854-5047
276300|Fred Friendly Seminars, Inc.|276281|MS* 4-8995||3800|OFFICE|212-854-8995
276302|Knight-Bagehot Fellowship Program in Economics and Business Journalism|276281|MS* 4-6840||3850|OFFICE|212-854-6840
276303|Mailroom|276281|MS* 4-8009||3801|OFFICE|212-854-6468
276304|Maria Moors Cabot Prizes|276281|MS* 4-6468||3809|OFFICE|212-854-6468
276305|Spare|276877|MS* 4-5047||3812|OFFICE|212-854-5047
276306|Dupont Alfred I., Center for Broadcast Journalism|276281|MS* 4-5047||3805|OFFICE|212-854-5047
276307|John B. Oaks Award|276281|MS* 4-7650||3809|OFFICE|212-854-7650
276308|Pulitzer Prizes|276281|MS* 4-3841||3865|OFFICE|212-854-3841
276311|WWW.LAW.COLUMBIA.EDU/STUDENTSERVICES/|276310|||||
276313|FAX|276312|MS* 4-0012|||FAX|212-854-0012
276315|FAX|276314||||FAX|212-724-0263
276317|PHONE|276316|MS* 4-4909|||OFFICE|212-854-4909
276319|FAX|276316|MS* 4-3434|||FAX|212-854-3434
276321|FAX|276320|MS* 4-1879|||FAX|212-854-1879
276325|FAX|276324|MS* 4-4019|||FAX|212-854-4019
276327|RESERVATIONS|276326|MS* 4-2821|||OFFICE|212-854-2821
276328|KELLOGG@COLUMBIA.EDU|276326|||||
276333|FAX|276332|MS* 4-9801|||FAX|212-854-9801
276334|spare|276877|||||
276336|WWW.LAW.COLUMBIA.EDU/STUDENTSERVICES/|276335|||||
276347|CP2175@COLUMBIA.EDU|276346|||||
276348|SB2412@COLUMBIA.EDU|276346|||||
276349|DO2115@COLUMBIA.EDU|276346|||||
276351|GENERAL INFORMATION|276350||||OFFICE|845-359-2900
276352|ADMINISTRATION|276350|||||
276371|RESEARCH|276350|||||
276379|FAX|276378|MS* 4-7856|||FAX|212-854-7856
276382|www.columbia.edu/cu/lalsa/|276381|||||
276384|FAX|276383|MS* 4-0500|||FAX|212-854-0500
276387|WWW.LAW.COLUMBIA.EDU/STUDENTSERVICES/|276386|||||
276389|WWW.LAW.COLUMBIA.EDU/STUDENTSERVICES/|276388|||||
276391|FAX|276390|MS* 4-1229|||FAX|212-854-1229
276392|WWW.LAW.COLUMBIA.EDU/STUDENTSERVICES/|276390|||||
276395|INFORMATION CENTER|276393|MS* 4-2640||4096|OFFICE|212-854-2640
276396|ACADEMIC SERVICES|276393|MS* 4-2668||4036|OFFICE|212-854-2668
276398|ALUMNI OFFICE|276393|MS* 4-2680||4003|OFFICE|212-854-2680
276400|AMERICAN CIVIL LIBERTIES UNION  (ACLU)|276393|MS* 4-2395||4906|OFFICE|212-854-2395
276402|AMERICAN CONSTITUTION SOCIETY|276393|MS* 4-2395||4906|OFFICE|212-854-2395
276404|AMNESTY INTERNATIONAL|276393|MS* 4-2395||4906|OFFICE|212-854-2395
276406|ANNUAL FUND|276393|MS* 4-2681||4003|OFFICE|212-854-2681
276407|ASIAN-PACIFIC AMERICAN LAW STUDENTS ASSOCIATION  (APALSA)|276393|MS* 4-8352||4906|OFFICE|212-854-8352
276409|BAHA' I ASSOCIATION|276393|MS* 4-2395||4906|OFFICE|212-854-2395
276411|BLACK LAW STUDENTS ASSOCIATION  (BLSA)|276393|MS* 4-8035||4906|OFFICE|212-854-8035
276413|BOARD OF VISITORS SECRETARY|276393|MS* 4-1382||4003|OFFICE|212-854-1382
276414|BUSINESS OFFICE|276393|MS* 4-7503||4023|OFFICE|212-854-7503
276415|CAREER SERVICES|276393|MS* 4-2683||4006|OFFICE|212-854-2683
276416|CENTER FOR CHINESE LEGAL STUDIES|276393|MS* 4-3655||4012|OFFICE|212-854-3655
276417|CENTER FOR JAPANESE LEGAL STUDIES|276393|MS*4-4926||4024|OFFICE|212-854-4926
276420|CENTER FOR KOREAN LEGAL STUDIES|276393|MS* 4-5759|||OFFICE|212-854-5759
276421|CENTER FOR LAW AND ECONOMIC STUDIES|276393|MS* 4-3739||4087|OFFICE|212-854-3739
276422|CENTER FOR LAW AND PHILOSOPHY|276393|MS* 4-4592|||OFFICE|212-854-4592
276426|CENTER FOR PUBLIC INTEREST-LAW|276393|MS* 4-6158|||OFFICE|212-854-6158
276428|CENTER FOR THE STUDY OF LAW AND CULTURE|276393|MS* 4-2511|||OFFICE|212-854-2511
276429|CHRISTIAN LEGAL SOCIETY|276393|MS* 4-2395||4906|OFFICE|212-854-2395
276431|CIVIL RIGHTS LAW SOCIETY|276393|MS* 4-2395||4906|OFFICE|212-854-2395
276433|CLINICAL EDUCATION|276393|MS* 4-4291||4061|OFFICE|212-854-4291
276434|COALITION FOR LEGAL RECRUITMENT (COLR)|276393|MS* 4-2395||4906|OFFICE|212-854-2395
276436|COLUMBIA BUSINESS LAW REVIEW|276393|MS* 4-1605||4906|OFFICE|212-854-1605
276438|COLUMBIA CIVIL RIGHTS LAW SOCIETY|276393|MS* 4-2395||4906|OFFICE|212-854-2395
276440|COLUMBIA COALITION FOR LIFE|276393|MS* 4-2395||4906|OFFICE|212-854-2395
276442|COLUMBIA HUMAN RIGHTS LAW REVIEW|276393|MS* 4-1601||4906|OFFICE|212-854-1601
276444|COLUMBIA JOURNAL OF ASIAN LAW|276393|MS* 4-5510||4906|OFFICE|212-854-5510
276446|COLUMBIA JOURNAL OF EAST EUROPEAN LAW|276393|MS* 4-2268||4906|OFFICE|212-854-2268
276448|COLUMBIA JOURNAL OF ENVIRONMENTAL LAW|276393|MS* 4-1606||4906|OFFICE|212-854-1606
276450|COLUMBIA JOURNAL OF EUROPEAN LAW|276393|MS* 4-5811||4906|OFFICE|212-854-5811
276452|COLUMBIA JOURNAL OF GENDER AND LAW|276393|MS* 4-1602||4906|OFFICE|212-854-1602
276454|COLUMBIA JOURNAL OF LAW AND SOCIAL PROBLEMS|276393|MS* 1603||4906|OFFICE|212-854-1603
276456|COLUMBIA JOURNAL OF TRANSNATIONAL LAW|276393|MS* 4-1604||4906|OFFICE|212-854-1604
276458|COLUMBIA LATIN AMERICAN BUSINESS LAW ASSOCIATION (CLABLA)|276393|MS* 4-2395||4906|OFFICE|212-854-2395
276460|COLUMBIA LAW ANIMAL WELFARE SOCIETY|276393|MS* 4-2395||4906|OFFICE|212-854-2395
276462|COLUMBIA LAW OUTDOORS ASSOCIATION|276393|MS* 4-2395||4906|OFFICE|212-854-2395
276464|COLUMBIA LAW REGISTER|276393|MS* 4-8241||4003|OFFICE|212-854-8241
276465|COLUMBIA LAW REPORT|276393|MS* 4-2156||4003|OFFICE|212-854-2156
276466|COLUMBIA LAW REVIEW|276393|MS* 4-4398||4025|OFFICE|212-854-4398
276467|COLUMBIA LAW SCHOOL FILM SOCIETY|276393|MS* 4-2395||4906|OFFICE|212-854-2395
276469|COLUMBIA LAW SCHOOL NEWS|276393|MS* 4-5833||4906|OFFICE|212-854-5833
276472|COLUMBIA LAW SCHOOL SOCIETY FOR KARAOKE|276393|MS* 4-2395||4906|OFFICE|212-854-2395
276474|COLUMBIA LAW SOCCER CLUB|276393|MS* 4-2395||4906|OFFICE|212-854-2395
276476|COLUMBIA LAW SOFTBALL CLUB|276393|MS* 4-2395||4906|OFFICE|212-854-2395
276478|COLUMBIA LAW WOMEN S ASSOCIATION|276393|MS* 4-2395||4906|OFFICE|212-854-2395
276480|COLUMBIA LL.M. ASSOCIATION|276393|MS* 4-2395||4906|OFFICE|212-854-2395
276484|COLUMBIA SOCIETY OF CINCINNATUS|276393|MS* 4-2395||4906|OFFICE|212-854-2395
276486|COLUMBIA SOCIETY OF INTERNATIONAL LAW|276393|MS* 4-2395||4906|OFFICE|212-854-2395
276488|COLUMBIA-VLA JOURNAL OF LAW AND THE ARTS|276393|MS* 4-1607||4906|OFFICE|212-854-1607
276490|COLUMBIA WORKERS RIGHTS COALITION|276393|MS* 4-2395||4906|OFFICE|212-854-2395
276492|COMMUNITY LAWYERING PROJECT|276393|MS* 4-2395||4906|OFFICE|212-854-2395
276494|CONFLICT RESOLUTION EXPLORATION WINDOW (CREW)|276393|MS* 4-2395||4906|OFFICE|212-854-2395
276498|DEAN' S OFFICE|276393|MS* 4-2675||4036|OFFICE|212-854-2675
276499|DEVELOPMENT OFFICE|276393|MS* 4-2680||4003|OFFICE|212-854-2680
276501|DE VINIMUS  (WINE-TASTING SOCIETY)|276393|MS* 4-2395||4906|OFFICE|212-854-2395
276503|DOMESTIC VIOLENCE PROJECT|276393|MS* 4-2395||4906|OFFICE|212-854-2395
276505|DUAL DEGREE COMMITTEE: JD/MBA|276393|MS* 4-2395||4906|OFFICE|212-854-2395
276507|ENTERTAINMENT, ARTS, AND SPORTS LAW SOCIETY  (EASLS)|276393|MS* 4-2395||4906|OFFICE|212-854-2395
276509|ENVIRONMENTAL LAW SOCIETY|276393|MS* 4-2395||4906|OFFICE|212-854-2395
276511|EUROPEAN LAW SOCIETY|276393|MS* 4-2395||4906|OFFICE|212-854-2395
276513|EUROPEAN LEGAL STUDIES CENTER|276393|MS* 4-0084||4094|OFFICE|212-854-0084
276514|FACULTY SECRETARIAT|276393|MS* 4-2687||4089|OFFICE|212-854-2687
276515|FAIR HOUSING CLINIC|276393|MS* 4-4291||4061|OFFICE|212-854-4291
276516|FEDERALIST-SOCIETY|276393|MS* 4-2395||4906|OFFICE|212-854-2395
276521|FOR ENACTING A HUMANE DRUG POLICY (FEHDP)|276393|MS* 4-2395||4906|OFFICE|212-854-2395
276523|GAY AND LESBIAN LAW STUDENTS ASSOCIATION|276393|MS* 4-2395||4906|OFFICE|212-854-2395
276525|GERMAN AMERICAN LAW SOCIETY|276393|MS* 4-2395||4906|OFFICE|212-854-2395
276527|GOVERNMENT SERVICE ORGANIZATION|276393|MS* 4-2395||4906|OFFICE|212-854-2395
276529|GRADUATE LEGAL STUDIES OFFICE|276393|MS* 4-2655||4036|OFFICE|212-854-2655
276530|HARLEM TUTORIAL|276393|MS* 4-2395||4906|OFFICE|212-854-2395
276532|HUMAN RIGHTS INSTITUTE|276393|MS* 4-2493|||OFFICE|212-854-2493
276533|HUMAN RIGHTS INTERNSHIP PROGRAM|276393|MS* 4-4628|||OFFICE|212-854-4628
276534|INDUSTRY PLAYERS|276393|MS* 4-2395||4906|OFFICE|212-854-2395
276536|INTERNATIONAL PROGRAMS|276393|MS* 4-4959|||OFFICE|212-854-4959
276537|INTERNET LAW JOURNAL|276393|MS* 4-2395||4906|OFFICE|212-854-2395
276539|JAPANESE LEGAL STUDIES SOCIETY (NHK)|276393|MS* 4-2395||4906|OFFICE|212-854-2395
276541|JESSUP MOOT COURT EXECUTIVE BOARD|276393|MS* 4-2395||4906|OFFICE|212-854-2395
276543|JEWISH LAW STUDENTS ASSOCIATION|276393|MS* 4-2395||4906|OFFICE|212-854-2395
276545|J. REUBEN CLARK SOCIETY|276393|MS* 4-2395||4906|OFFICE|212-854-2395
276547|KERNOCHAN CENTER FOR LAW, MEDIA, AND THE ARTS|276393|MS* 4-7424||4017|OFFICE|212-854-7424
276548|KOLEINU|276393|MS* 4-2395||4906|OFFICE|212-854-2395
276550|LATIN AMERICAN LAW STUDENTS ASSOCIATION  (LALSA)|276393|MS* 4-2395||4906|OFFICE|212-854-2395
276554|LAW REVUE|276393|MS* 4-2395||4906|OFFICE|212-854-2395
276556|LAW SCHOOL DEMOCRATS|276393|MS* 4-2395||4906|OFFICE|212-854-2395
276558|LAW SCHOOL NEWS|276393|MS* 4-5833||4906|OFFICE|212-854-5833
276561|LEGISLATIVE DRAFTING RESEARCH FUND|276393|MS* 4- 7341||4015|OFFICE|212-854-7341
276562|MOOT COURT|276393|MS* 4-1600|||OFFICE|212-854-1600
276563|MORNINGSIDE HEIGHTS LEGAL SERVICES AND  FAMILY ADVOCACY CLINIC|276393|MS* 4-3123||4074|OFFICE|212-854-3123
276564|MUSLIM LAW STUDENTS ASSOCIATION (MSLA)|276393|MS* 4-2395||4906|OFFICE|212-854-2395
276566|NATIONAL LAWYERS GUILD (NLG)|276393|MS* 4-2395||4906|OFFICE|212-854-2395
276568|NATIONAL BLACK LAW JOURNAL, THE|276393|MS* 4-3318|||OFFICE|212-854-3318
276570|NATIVE AMERICAN LAW STUDENTS ASSOCIATION  (NALSA)|276393|MS* 4-2395||4906|OFFICE|212-854-2395
276572|NEIGHBORHOOD KIDS TUTORIAL PROGRAM|276393|MS* 4-2395||4906|OFFICE|212-854-2395
276574|OUTLAWS  (FORMERLY GAY AND LESBIAN  LAW STUDENTS ASSOCIATION)|276393|MS* 4-2395||4906|OFFICE|212-854-2395
276576|OWLS/MSG/SWIFT|276393|MS* 4-2395||4906|OFFICE|212-854-2395
276578|PARKER SCHOOL OF FOREIGN AND COMPARATIVE LAW|276393|MS* 4- 0246|||OFFICE|212-854-0246
276579|PRISON ACCESS WORKING GROUP|276393|MS* 4-2395||4906|OFFICE|212-854-2395
276581|PROFESSIONAL ENTREPRENEURS AT COLUMBIA|276393|MS* 4-2395||4906|OFFICE|212-854-2395
276583|PROGRESSIVE FORUM|276393|MS* 4-2395||4906|OFFICE|212-854-2395
276585|PUBLIC INTEREST-LAW FOUNDATION PILF|276393|MS* 4-5917||4906|OFFICE|212-854-5917
276587|PUBLIC INTEREST-LAW INITIATIVE PILI|276393|||3525|OFFICE|212-851-1060
276590|PUBLIC INTEREST-LAW STUDENTS ASSOCIATION (PILSA)|276393|MS* 4-2395||4906|OFFICE|212-854-2395
276592|PUBLIC RELATIONS|276393|MS* 4-2156||4003|OFFICE|212-854-2156
276593|PUBLICATIONS|276393|MS* 4-2156||4003|OFFICE|212-854-2156
276594|QANUN|276393|MS* 4-2395||4906|OFFICE|212-854-2395
276596|RIGHTSLINK|276393|MS* 4-2395||4906|OFFICE|212-854-2395
276598|ST. THOMAS MORE SOCIETY|276393|MS* 4-2395||4906|OFFICE|212-854-2395
276600|SHAPING LAW AGAINST-PRIVILEGE (SLAP)|276393|MS* 4-2395||4906|OFFICE|212-854-2395
276602|SILVER PROGRAM IN LAW, SCIENCE AND TECHNOLOGY|276393|MS* 4-8385|||OFFICE|212-854-8385
276605|SOCIETY FOR ALTERNATIVE DISPUTE RESOLUTION  (SADR)|276393|MS* 4-2395||4906|OFFICE|212-854-2395
276607|SOCIETY FOR CHINESE LAW|276393|MS* 4-2395||4906|OFFICE|212-854-2395
276609|SOCIETY FOR HEALTH, BIOETHICS, AND THE LAW|276393|MS* 4-2395||4906|OFFICE|212-854-2395
276611|SOCIETY FOR LAW AND IDEAS|276393|MS* 4-2395||4906|OFFICE|212-854-2395
276613|SOCIETY FOR LAW, SCIENCE, AND TECHNOLOGY|276393|MS* 4-2395||4906|OFFICE|212-854-2395
276615|SOCIETY OF IMMIGRANT AND REFUGEE RIGHTS|276393|MS* 4-2395||4906|OFFICE|212-854-2395
276617|SOFTBALL CLUB, COLUMBIA LAW|276393|MS* 4-2395||4906|OFFICE|212-854-2395
276619|SOUTH ASIAN LAW STUDENTS ASSOCIATION  (SALSA)|276393|MS* 4-2395||4906|OFFICE|212-854-2395
276621|STUDENT LEGAL ACTION NETWORK  (SLAN)|276393|MS* 4-2395||4906|OFFICE|212-854-2395
276623|STUDENT SENATE|276393|MS* 4-6044||4906|OFFICE|212-854-6044
276625|STUDENTS FOR REPRODUCTIVE FREEDOM|276393|MS* 4-2395||4906|OFFICE|212-854-2395
276627|TEXAS CLUB|276393|MS* 4-2395||4906|OFFICE|212-854-2395
276629|TRANSFER AND VISITING STUDENT ORGANIZATIONS|276393|MS* 4-2395||4906|OFFICE|212-854-2395
276631|UNEMPLOYMENT ACTION CENTER|276393|MS* 4-2395||4906|OFFICE|212-854-2395
276633|WOMEN OF COLOR COALITION|276393|MS* 4-2395||4906|OFFICE|212-854-2395
276635|YEARBOOK (PEGASUS)|276393|MS* 4-2395||4906|OFFICE|212-854-2395
276638|YOUTH JUSTICE ASSOCIATION|276393|MS* 4-2395||4906|OFFICE|212-854-2395
276643|FAX|276642|MS* 4-8925|||FAX|212-854-8925
276647|FAX|276646|MS* 4-7708|||FAX|212-854-7708
276650|Admissions|276648|MS* 4- 4737||4304|OFFICE|212-854-4737
276654|Access Services|276653|||1118||
276666|Acquisitions|276653|||||
276668|Administrative Offices|276653||||FAX|212-854-9099
276675|Area Studies (Acting Director)|276653|MS* 4-3630||3301|OFFICE|212-854-3630
276685|Astrnomy Library (Physics)|276653|MS* 4-3943||5251|OFFICE|212-854-3943
276690|Avery Architectural and Fine Arts Library|276653|MS* 4-3501||0301|OFFICE|212-854-3501
276709|Bibliographers|276653|||||
276727|Bibliographic Control|276653|||1114||
276738|Binding and shelf Preparation|276653|MS* 4-2223||1107|OFFICE|212-854-2223
276739|Biological Sciences Library|276653|MS* 4-4182||2457|OFFICE|212-854-4282
276746|Business and Economics Library (Watson)|276653|MS* 4-7803||9163|OFFICE|212-854-7803
276765|Continuing and Electronic Resources Management|276653|MS* 4-4764||1114|OFFICE|212-854-4764
276767|Chemistry Library|276653|||3177||
276771|CLIO (online catalog)|276653|||||
276775|Collections|276653|MS* 4-7401||1103|OFFICE|212-854-7401
276776|Columbiana|276653|MS* 4-3786||4316|OFFICE|212-854-3786
276779|Conservation Lab|276653|MS* 4-3580||1106|OFFICE|212-854-3580
276780|Development Office|276653|||1103||
276781|U.S. Government Documents Depository|276653|MS* 4-3794||3305|OFFICE|212-854-3794
276782|East Asian Library (C. V. Starr)|276653|MS* 4-1505||3901|OFFICE|212-854-1505
276786|Electronic Data Service (EDS)|276653|MS* 4-6012||3301|OFFICE|212-854-6012
276787|Electronic Text Service (ETS)|276653|MS* 4-7547||1126|OFFICE|212-854-7547
276788|Engineering Library|276653|MS* 4-8338||4707|OFFICE|212-854-8338
276794|Friends of the Columbia University Libraries|276653|MS* 4-4746||1127|OFFICE|212-854-4746
276795|Geology|276653|MS* 4-6767||5506|OFFICE|212-854-6767
276799|Geoscience|276653|MS* 4-6767||5506|OFFICE|212-854-6767
276803|Health Sciences (Augustus C. Long)|276653||||FAX|212-234-0595
276814|Humanities and History Libraries|276653|MS* 4-1341||1120|OFFICE|212-854-1341
276815|Humanities and History|276653|MS* 4-1341||1120|OFFICE|212-854-1341
276816|Library Information Technology Office|276653|MS* 4-4969||1114|OFFICE|212-854-4969
276820|Interlibrary Loan|276653|MS* 4-7535||1118|OFFICE|212-854-7535
276826|Copyright Advisory Office|276653|MS* 1-0757||1103|OFFICE|212-851-0757
276829|jrnlsm lbry|276877|MS* 4-0390||3800|OFFICE|212-854-0390
276830|Lamont-Doherty Earth Observatory|276653|95-8808|||OFFICE|845-365-8808
276832|Law|276653|||||
276847|Lehman Library (Social Sciences)|276653|||||
276858|Lehman Papers|276653|MS* 4-3060||3359|OFFICE|212-854-3060
276859|Library Information Office|276653|MS* 4-4734||1121|OFFICE|212-854-4734
276862|Media Center|276653|MS* 4-1715||1125|OFFICE|212-854-1715
276863|Spare|276877|MS* 4-7650||3812|OFFICE|212-854-7650
276866|Library Website|276653|||||
276871|Mail Room|276653|MS* 4-3998||1116|OFFICE|212-854-3998
276872|Map Room/Document Service Center|276653|MS* 4-5087||3301|OFFICE|212-854-5087
276873|Mathematics Library|276653|MS* 4-8833||4402|OFFICE|212-854-8833
276879|Milsteing Library|276653|MS* 4-3534|||OFFICE|212-854-3534
276882|MONELL|276877||||OFFICE|212-854-2796
276884|MONOGRAPHS ACQUISITIONS|276877||||OFFICE|212-854-3530
276886|MUSIC|276877||||OFFICE|212-854-4711
276888|Periodicals and Microforms Reading Room|276653|MS* 4-4704||1123|OFFICE|212-854-4704
276891|PHOTOCOPY SERVICE|276877|MS* 4-7611||1118|OFFICE|212-854-7611
276892|Photographic Services|276653|MS* 4-1332||1108|OFFICE|212-854-1332
276893|Physics Library|276653|MS* 4-4182||5251|OFFICE|212-854-4182
276897|PLANNING OFFICE|276877|||||
276901|Preservation and Digital Conversion|276653|||||
276903|spare|276877|MS* 4-2223||1107|OFFICE|212-854-2223
276906|Human Resources|276281|MS* 4-3881||3800|OFFICE|212-854-3881
276907|Editorial Office|276281|MS* 4-1881||3874|OFFICE|212-854-1881
276908|spare|276877|MS* 4-1336||1108|OFFICE|212-854-1336
276910|Psychology|276653|MS* 4-5658||5503|OFFICE|212-854-5658
276914|Rare Books and Manuscript Library|276653|MS* 4-5153||1127|OFFICE|212-854-5153
276918|Reference Programs|276653|MS* 4-5477||1126|OFFICE|212-854-5477
276920|Reformating Department|276653|MS* 4-1336||1108|OFFICE|212-854-1336
276921|REPROGRAPHY LAB|276877|MS* 4-1336||1108|OFFICE|212-854-1336
276922|RUSSIAN ARCHIVES|276877||||OFFICE|212-854-5153
276924|SCIENCE|276877|||4402||
276928|Science and engineering Division|276653|||||
276934|Shipping and Receving|276653|MS* 4-3998||1116|OFFICE|212-854-3998
276935|Social Sciences Libraries|276653|MS* 4-5588||3301|OFFICE|212-854-5588
276936|Social Work Library|276653|||4600||
276942|Oral History Research Office|276653|MS* 4-4012||1129|OFFICE|212-854-4012
276943|Development Programs|276281|MS* 4-3865||3807|OFFICE|212-854-3864
276946|spare|276877|MS* 4-1505|||OFFICE|212-854-
276951|SUPPLY ROOM|276877|MS* 4-2265||1116|OFFICE|212-854-2265
276952|SYSTEMS OFFICE|276877|MS* 4- 4969|||OFFICE|212-854-4969
276955|TECHNICAL SUPPORT AND ACQUISITIONS DIVISION|276877|||||
276968|THOMAS J. WATSON|276877||||OFFICE|212-854-4000
276970|Undergraduate Library Services|276653|MS* 4-0520||1125|OFFICE|212-854-0520
276972|Business Office|276281|MS* 4-7194||3812|OFFICE|212-854-7194
276973|University Archives|276653|MS* 4-3786||1127|OFFICE|212-854-3786
276978|WATSON|276877||||OFFICE|212-854-4000
276980|WHITNEY M. YOUNG, JR.|276877|||||
276982|Music and Arts Library (Wiener)|276653|MS* 4-4711||1810|OFFICE|212-854-4711
276989|ASSISTANT DEAN|276988|MS* 4-5972||4307|OFFICE|212-854-5972
276995|FAX|276994||||FAX|212-864-6586
276996|PRESORT SERVICES|276994|MS* 4-2081||5701|OFFICE|212-854-2081
276999|FAX|276998||||FAX|212-222-0193
277005|FAX|277004|MS* 4-4803|||FAX|212-854-4803
277007|CONCERT INFORMATION|277006||||OFFICE|917-493-4528
277010|FAX|277009|MS* 4-9191|||FAX|212-854-9191
277020|GRADUATE|277018|MS* 4-4112||4406|OFFICE|212-854-4112
277021|UNDERGRADUATE|277018|MS* 4-2432||4406|OFFICE|212-854-2432
277022|TEACHING ASSISTANTS|277018|MS* 4-5881||4406|OFFICE|212-854-5881
277026|FAX|277025|MS* 4-3304|||FAX|212-854-3304
277027|MECHANICAL ENGINEERING LAB|277025|MS* 4-4465||4703|OFFICE|212-854-4465
277029|PHONE|277028|MS* 4-3611||4703|OFFICE|212-854-3611
277040|FAX|277039||||FAX|212-305-3302
277043|AMBULANCE|277041|||||
277051|FAX|277050||||FAX|212-305-8466
277053|FAX|277052|MS* 4-1470|||FAX|212-854-1470
277056|FAX|277055||||FAX|212-326-8577
277061|FAX|277060||||FAX|212-305-1468
277071|FAX|277068|MS* 4-5517|||FAX|212-854-5517
277072|IRAN CENTER|277068|||3946|OFFICE|212-851-5723
277074|PROGRAM IN ARMENIAN STUDIES|277068|MS* 4-2556||3928|OFFICE|212-854-2556
277075|TURKISH CENTER|277068|MS* 4-4766||3928|OFFICE|212-854-4766
277079|FAX|277078|MS* 4-7740|||FAX|212-854-7740
277080|WWW.MILLERTHEATRE.COM|277078|||||
277081|BOX OFFICE|277078|||||
277084|PHONE|277083|MS* 4-2905|||OFFICE|212-854-2905
277087|PHONE|277086|MS* 4-2905|||OFFICE|212-854-2905
277090|FAX|277089|MS* 4-7081|||FAX|212-854-7081
277093|FAX|277092|MS* 4-7856|||FAX|212-854-7856
277095|FAX|277094|MC* 5-7932|||FAX|212-305-7932
277098|FAX|277097|MS* 4-0028|||FAX|212-854-0028
277104|FAX|277103|MS* 4-8191|||FAX|212-854-8191
277105|CENTER FOR ETHNOMUSICOLOGY|277103|MS* 4-1247||1815|OFFICE|212-854-1247
277106|COMPUTER MUSIC CENTER|277103|MS* 9266||5002|OFFICE|212-854-9266
277107|CURRENT MUSICOLOGY|277103|MS* 4-1632||1812|OFFICE|212-854-1632
277108|LIBRARY, GABE WIENER|277103|MS* 4-4711||1810|OFFICE|212-854-4711
277109|MUSIC PERFORMANCE PROGRAM|277103|MS* 4-1257||1813|OFFICE|212-854-1257
277110|ORCHESTRA|277103|MS* 4-6689||1813|OFFICE|212-854-6689
277112|WWW.LAW.COLUMBIA.EDU/STUDENTSERVICES/|277111|||||
277116|FAX|277115|IC* 2694|||FAX|212-870-2694
277117|spare|276877|||||
277119|jrnnblj@law.columbia.edu|277118|||||
277122|FAX|277121||||FAX|212-956-8020
277124|WWW.LAW.COLUMBIA.EDU/STUDENTSERVICES/|277123|||||
277139|WWW.LAW.COLUMBIA.EDU/STUDENTSERVICES/|277138|||||
277143|NETWORK HELP DESK|277142|MS* 4-1919|||OFFICE|212-854-1919
277144|CONSULTANT@COLUMBIA.EDU|277142|||||
277146|FAX|277145||||FAX|212-543-5410
277147|CAO1@COLUMBIA.EDU|277145|||||
277148|CPMCNET.COLUMBIA.EDU/DEPT/NEUROBEH|277145|||||
277150|FAX|277149|MC* 5-2026|||FAX|212-305-2026
277152|FAX|277151|MC* 5 6978|||FAX|212 305- 6978
277153|PHYSICIAN REFERRAL SERVICE|277151|MC* 7-2700|||OFFICE|212-305-2700
277155|FAX|277154||||FAX|914-591-8120
277168|FAX|277167|MS* 4-1229|||FAX|212-854-1229
277176|FAX|277175|MS* 4-8362|||FAX|212-854-8362
277178|BANK STREET FAMILY CENTER|277177||||OFFICE|212-875-4412
277179|COLUMBIA GREENHOUSE NURSERY SCHOOL|277177|||8850|OFFICE|212-666-4796
277181|FAMILY ANNEX,THE|277177||||OFFICE|212-749-3271
277182|TOMPKINS HALL NURSERY AND CHILDCARE CENTER|277177||||OFFICE|212-666-3340
277185|ACADEMIC AFFAIRS|277183|MC* 5- 3582|||OFFICE|212-305-3582
277186|ADMINISTRATION|277183|MC* 5-3306|||OFFICE|212-305-3306
277188|ALUMNI AFFAIRS|277183|MC* 5-3742|||OFFICE|212-305-3742
277191|DEAN S OFFICE|277183|MC* 5-3582|||OFFICE|212-305-3582
277193|PRACTICE MANAGEMENT|277183|MC* 5-2280|||OFFICE|212-305-2280
277194|STUDENT AFFAIRS|277183|MC* 5-5756|||OFFICE|212-305-5756
277196|FAX|277195|MC* 5-3079|||FAX|212-305-3079
277197|NUTRITION@.COLUMBIA.EDU|277195|||||
277200|FAX|277199|HS* 6-3869|||FAX|212-305-3869
277204|MA102@COLUMBIA.EDU|277203|||||
277208|FAX|277207|MS* 4-5333|||FAX|212-854-5333
277210|FAX|277209|MS* 4-8925|||FAX|212-854-8925
277212|660 SCHREXT-|277211|MS* 4-1234|||OFFICE|212-854-1234
277213|101 BARD HALL, 50 HAVENAV|277211|MC* 2-7026|||OFFICE|212-304-7026
277214|FAX|277211|MS* 4-6046|||FAX|212-854-6046
277215|ombuds@columbia.edu|277211|||||
277217|FAX|277216||||FAX|212-854-8103
277219|FAX|277218|MC* 6-5962|||FAX|212-305-5962
277221|FAX|277220|MS* 4-2458|||FAX|212-854-2458
277223|PHONE|277222|MS* 4-2273|||OFFICE|212-854-2273
277231|FAX|277230|MC* 5-6193|||FAX|212-305-6193
277232|RESEARCH LABORATORY|277230||||OFFICE|212-305-7965
277236|FAX|277235|MC* 6-2249|||FAX|212-305-2249
277238|PHONE|277237|MS* 4-1398|||OFFICE|212-854-1398
277240|FAX|277237|MS* 4-6972|||FAX|212-854-6972
277244|WWW.LAW.COLUMBIA.EDU/STUDENTSERVICES/|277243|||||
277246|FAX|277245|MS* 4-9093|||FAX|212-854-9093
277252|FAX|277251|MC* 5-4521|||FAX|212-305-4521
277257|FAX|277256|MC* 5-6595|||FAX|212-305-6595
277261|FAX|277260|MC* 5-3020|||FAX|212-305-3020
277265|FAX|277264|MC* 5-8780|||FAX|212-305-8780
277266|CPCMNET.COLUMBIA.EDU/DEPT/GSAS/PHARM|277264|||||
277268|FAX|277267|MS* 4-4986|||FAX|212-854-4986
277269|DEPARTMENTAL ADMINISTRATOR|277267|MS* 4-8509|||OFFICE|212-854-8509
277276|FAX|277275|MS* 4-5324|||FAX|212-854-5324
277280|GENERAL  INFORMATION|277278|MS* 4-2548|||OFFICE|212-854-2548
277283|RECREATIONAL FACILITIES|277278|MS* 4- 3439||1923|OFFICE|212-854-3439
277286|ATHLETIC COMMUNICATIONS|277278|MS* 4-2534||1914|OFFICE|212-854-2534
277288|BOATHOUSE|277278||||OFFICE|212-569-4080
277289|DODGE PFCTR SUPERVISOR|277278|MS* 4-3441|||OFFICE|212-854-3441
277290|COACHES  OFFICES MENS ATHLETICS|277278|||||
277305|COACHES OFFICES WOMENS ATHLETICS|277278|||||
277319|COLUMBIA TENNIS CENTER  GAURAV MISRA|277278|||1919|OFFICE|212-942-7100
277320|DIRECTOR   DIANNE MURPHY|277278|MS* 4-2537||1902|OFFICE|212-854-2537
277328|FIELDHOUSE, CHRYSTIE, BAKER FIELD|277278|||1925|OFFICE|212-942-0431
277329|GYMNASIUM, LEVIEN|277278|MS* 4-3439||1923|OFFICE|212-854-3439
277335|INTRAMURAL SPORTS OFFICE|277278|MS* 4-4002||1923|OFFICE|212-854-4002
277336|PHYSICAL EDUCATION|277278|MS* 4-4001||1923|OFFICE|212-854-4001
277339|SWIMMING POOL|277278|MS* 4-6922|||OFFICE|212-854-6922
277340|TICKET OFFICE/MEMBERSHIP|277278|MS* 4-2546|||OFFICE|212-854-2546
277341|TRAINING ROOM   JIM GOSSETT, DIRECTOR|277278|MS* 4-3178||1915|OFFICE|212-854-3178
277349|ADMINISTRATION|277347|MS* 4-3366||5255|OFFICE|212-854-3366
277350|BUILDING MANAGER|277347|MS* 4-3366||5255|OFFICE|212-854-3366
277351|CHAIRMAN|277347|MS* 4-5870||5213|OFFICE|212-854-5870
277353|COLUMBIA ASTROPHYSICS LAB|277347|MS* 4-7815||5247|OFFICE|212-854-7815
277356|ELECTRONICS SHOP|277347|MS* 4-3303||5248|OFFICE|212-854-3303
277357|GRADUATE PHYSICS OFFICE|277347|MS* 4-3366||5255|OFFICE|212-854-3366
277358|LECTURE APPARATUS ROOM|277347|MS* 4-3 303||5248|OFFICE|212-854-3303
277359|LIBRARY|277347|MS* 4-3943||5251|OFFICE|212-854-3943
277360|MACHINE SHOP|277347|MS* 4-3254||5252|OFFICE|212-854-3254
277361|MANAGER, BUDGET OPERATIONS|277347|MS* 4-3347||5255|OFFICE|212-854-3347
277362|NEVIS LABS|277347|NL* 72-8100||5254|OFFICE|914-591-8100
277364|RABI SCHOLAR ROOM|277347|MS* 4-6149||5227|OFFICE|212-854-6149
277365|SCIENCE HONORS PROGRAM|277347|MS* 4-3354||5256|OFFICE|212-854-3354
277366|THEORETICAL PHYSICS GROUP|277347|MS* 4-3339||5258|OFFICE|212-854-3339
277368|UNDERGRADUATE LABS|277347|MS* 4-3327||5259|OFFICE|212-854-3327
277369|UNDERGRADUATE PHYSICS OFFICE|277347|MS* 4-3348||5255|OFFICE|212-854-3348
277371|FAX|277370|MC* 5-5775|||FAX|212-305-5775
277373|FAX|277372||||FAX|212-864-4847
277380|FAX|277379||||FAX|212-866-9664
277384|FAX|277383|MS* 4-5009|||FAX|212-854-5009
277386|FAX|277385||||FAX|212-222-0598
277387|GENERAL INFORMATION|277385|MS* 4-3646|||OFFICE|212-854-3646
277388|UNDERGRADUATE|277385|MS* 4-3707|||OFFICE|212-854-3707
277389|GRADUATE|277385|MS* 4-3644|||OFFICE|212-854-3644
277390|spare|276877|||||
277394|FAX|277393|MS* 4-7257|||FAX|212-854-7257
277396|FAX|277395|MS*4-7856|||FAX|212-854-7856
277404|FAX|277403|MS* 4-3434|||FAX|212-854-3434
277406|FAX|277405|MS* 4-0042|||FAX|212-854-0042
277414|Fax|277413|MS* 4-9973|||FAX|212-854-9973
277418|Manager|277417|MS* 4-5701|||OFFICE|212-854-5701
277421|FAX|277420||||FAX|212-459-3678
277424|FAX|277423||||FAX|212-222-0193
277425|E-MAIL: PRINTING@COLUMBIA.EDU|277423|||||
277427|BILLING INQUIRIES|277423|MS* 4-6543|||OFFICE|212-854-6543
277430|PRINT SERVICES LOCATIONS|277423|MS* 4-3233||3841|OFFICE|212-854-3233
277439|WWW.LAW.COLUMBIA.EDU/STUDENTSERVICES/|277438|||||
277441|WWW.LAW.COLUMBIA.EDU/STUDENTSERVICES/|277440|||||
277444|FAX|277443||||FAX|212-854-7856
277446|FAX|277445|MS* 4-4548|||FAX|212-854-4548
277447|FAX|277445|MS* 4-6309|||FAX|212-854-6309
277450|WWW.LAW.COLUMBIA.EDU/STUDENTSERVICES/|277449|||||
277452|spare|276877|||||
277456|FAX|277455|MS* 4-2738|||FAX|212-854-2738
277458|FAX|277457|MS* 4-6007|||FAX|212-854-6007
277460|FAX|277459||||FAX|212-932-0418
277463|VICE PROVOST-, ACADEMIC ADMINISTRATION|277459|MS* 4-2254||4326|OFFICE|212-854-2254
277465|PLANNING AND INSTITUTIONAL RESEARCH|277459|MS* 4-3036||4317|OFFICE|212-854-3036
277466|ASSOCIATE PROVOST-, EQUAL OPPORTUNITY AND AFFIRMATIVE ACTION|277459|MS* 4-5511||4333|OFFICE|212-854-5511
277468|ASSISTANT PROVOST-, ACADEMIC APPOINTMENTS|277459|MS* 4-3813||4336|OFFICE|212-854-3813
277470|COORDINATOR OF TENURE REVIEWS|277459|MS* 4-1328||4326|OFFICE|212-854-1328
277472|PROJECTS AND GRANTS, OFFICE OF|277459|MS* 4-3023||2205|OFFICE|212-854-3023
277484|FAX|277483||||FAX|212-543-6710
277486|FAX|277485||||FAX|212-543-5677
277488|FAX|277487||||FAX|212-854-3609
277489|CHAIRMAN|277487|MS* 4- 8718|||OFFICE|212-854-8718
277490|LIBRARY|277487|MS* 4-4714||5503|OFFICE|212-854-4714
277494|FAX  PUBLIC AFFAIRS, VICE PRESIDENT FOR|277493||||FAX|212-666-1952
277495|FAX  COMMUNITY AFFAIRS/GOVERNMENT RELATIONS|277493||||FAX|212-666-1952
277499|Alumni Affairs|277497|MC* 5-4797|||OFFICE|212-305-4797
277500|Career Services|277497|MC* 5-1548|||OFFICE|212-305-1548
277503|Community and Minority Affairs|277497||||OFFICE|212-740-7292
277504|Office of the Dean|277497|MC* 5-3929|||OFFICE|212-305-3929
277507|Academic Affairs|277497||||OFFICE|212-342-0448
277511|Finance and Administration|277497|MC* 2-0557|||OFFICE|212-342-0557
277512|Development and External Affairs|277497|MC* 5-5635|||OFFICE|212-305-5635
277513|Select Departments|277497|||||
277521|INCHOIR|277497|MC* 5-9100|||OFFICE|212-305-9100
277526|National Center for Children in Poverty|277497||||OFFICE|646-284-9600
277528|FAX|277527||||FAX|212-678-4817
277529|PUBLIC AFFAIRS OFFICER|277527|MS* 4-5573|||OFFICE|212-854-5573
277530|INFORMATION FOR THE PRESS|277527|MS* 4-5573|||OFFICE|212-854-5573
277531|PHOTOGRAPHIC SERVICES|277527|MS* 4-6527||4321|OFFICE|212-854-6527
277533|COLUMBIA UNIVERSITY RECORD|277527|MS* 4-3283||4321|OFFICE|212-854-3283
277535|VISITOR SERVICES|277527|MS* 4-4902||4318|OFFICE|212-854-4902
277537|FAX|277536|MS* 4-3515|||FAX|212-854-3515
277538|PUBLIC@LAW.COLUMBIA.EDU|277536|||||
277540|WWW.LAW.COLUMBIA.EDU/STUDENTSERVICES/|277539|||||
277542|FAX|277541||||FAX|212-851-1064
277543|WWW.PILI.ORG|277541|||||
277545|WWW.LAW.COLUMBIA.EDU/STUDENTSERVICES/|277544|||||
277553|FAX|277552|MS* 4-9509|||FAX|212-854-9509
277554|UNIVERSITY PUBLICATIONS, DESIGNS, MARKETING , AND PRINTING|277552|MS* 4-2793||6601|OFFICE|212-854-2793
277555|BILLING INQUIRIES|277552|MS* 4-2793||6601|OFFICE|212-854-2793
277557|COLUMBIA UNIVERSITY BULLETINS|277552|MS* 4-2793||6601|OFFICE|212-854-2793
277561|COLUMBIA UNIVERSITY DIRECTORY|277552|MS* 4-9531||6601|OFFICE|212-854-9531
277573|www.law.columbia.edu/studentservices|277572|||||
277575|FAX|277574|MS* 4-0012|||FAX|212-854-0012
277580|FAX|277579|MC* 5-5935|||FAX|212-305-5935
277581|CHAIR|277579|MC* 5-8096|||OFFICE|212-305-8096
277583|MORNINGSIDE CAMPUS|277582|MS* 4-6532||2215|OFFICE|212-854-6532
277586|MEDICAL CENTER|277582|MC* 5-0303|||OFFICE|212-305-0303
277591|FAX|277588|MS* 4-3434|||FAX|212-854-3434
277597|PEER ADVOCATE LINE (24 HOURS)  854-WALK|277596|MS* 4-9255|||OFFICE|212-854-9255
277601|CALENDAR|277600|MS* 4-3282||4321|OFFICE|212-854-3282
277605|FAX|277604|MS* 4-5640|||FAX|212-854-5640
277611|FAX|277610|MC* 5-3916|||FAX|212-305-3916
277614|FAX|277613|MS* 4- 7400|||FAX|212-854-7400
277615|TIE LINE TO PARIS OFFICE   53-2483|277613|53-2483||||
277619|CENTER FOR BUDDHIST-STUDIES|277617|MS* 1-4149||9610|OFFICE|212-851-4149
277624|FAX|277623|MC* 6-3869|||FAX|212-305-3869
277626|INFORMATION|277625|MS* 4-2600|||OFFICE|
277634|FAX|277633|MS* 4-3434|||FAX|212-854-3434
277636|(HISPANIC INSTITUTE OF COLUMBIA UNIVERSITY)|277635|||||
277637|MANAGING EDITOR|277635|MS* 4- 8661||1301|OFFICE|212-854-8661
277638|ASSISTANT TO MANAGING EDITOR/SUBSCRIPTIONS|277635|MS* 4-1303||1301|OFFICE|212-854-1303
277640|FAX|277639||||FAX|212-663-7537
277641|REVSON@COLUMBIA.EDU|277639|||||
277642|WWW.COLUMBIA.EDU/CU/REVSON|277639|||||
277644|WWW.LAW.COLUMBIA.EDU/STUDENTSERVICES/|277643|||||
277653|FAX|277652|MS* 4-5009|||FAX|212-854-5009
277656|HEALTH SCIENCES CAMPUS|277655|MC* 5-6780|||OFFICE|212-305-6780
277657|MORNINGSIDE CAMPUS|277655|MS* 4-8749|||OFFICE|212-854-8749
277664|WWW.LAW.COLUMBIA.EDU/STUDENTSERVICES/|277663|||||
277667|CENTRAL OFFICE|277666|MS* 4-6960|||OFFICE|212-854-6960
277668|EVENT AND TICKET INFORMATION|277666|MS* 4-6920|||OFFICE|212-854-6920
277674|INFORMATION|277673|MS* 4-9400|||OFFICE|212-854-9400
277675|FAX|277673|MS* 4-9401|||FAX|212-854-9401
277676|STUDENT PRESS REVIEW, THE|277673|MS* 4-9400||5711|OFFICE|212-854-9400
277678|FAX|277677|MS* 1-1829|||FAX|212-851-1829
277685|FAX|277684|MS* 4-8925|||FAX|212-854-8925
277687|FAX|277686||||FAX|212-222-1017
277688|COLUMBIA UNIVERSITY ARCHIVES|277686|MS* 4-3786||4316|OFFICE|212-854-3786
277690|MORNINGSIDE CAMPUS|277689|MS* 4-2796||4301|OFFICE|212-854-2796
277693|HEALTH SCIENCES CAMPUS|277689|HS* 7-8100|||OFFICE|212-305-8100
277699|FAX|277698|MS* 4-8248|||FAX|212-854-8248
277703|FAX|277700|MS* 4-9123|||FAX|212-854-9123
277704|www.columbia.edu/cu/senate|277700|||||
277706|PHONE|277705|MS* 4-3611|||OFFICE|212-854-3611
277708|FAX|277705|MS* 4-3434|||FAX|212-854-3434
277710|FAX|277709|MS* 4-8723|||FAX|212-854-8723
277712|FAX|277711|MS* 4-5009|||FAX|212-854-5009
277714|FAX|277713|MC* 5-2518|||FAX|212-305-2518
277716|WWW.LAW.COLUMBIA.EDU/STUDENTSERVICES/|277715|||||
277723|FAX|277722|MS* 4-5009|||FAX|212-854-5009
277731|FAX|277730|MS* 1- 2377|||FAX|212-851-2377
277732|ARA2108@COLUMBIA.EDU|277730|||||
277737|Information|277736|MS* 1-2300||4600|OFFICE|212-851-2300
277741|ALUMNI OFFICE|277736|MS* 1-2375||4600|OFFICE|212-851-2375
277742|ASSOCIATE DEAN, OFFICE OF|277736|MS* 1-2324||4600|OFFICE|212-851-2324
277745|CAREER DEVELOPMENT CENTER, OFFICE OF|277736|MS* 1-2320||4600|OFFICE|212-851-2320
277747|DEAN, OFFICE OF|277736|MS* 1-2289||4600|OFFICE|212-851-2289
277750|FIELD EDUCATION OFFICE|277736|MS* 1-2307||4600|OFFICE|212-851-2307
277752|FINANCIAL MANAGEMENT AND ADMINISTRATION|277736|MS* 1-2356||4600|OFFICE|212-851-2356
277753|LIBRARY|277736|||4600||
277757|STUDENT SERVICES|277736|MS* 1-2364||4600|OFFICE|212-851-2364
277759|STUDENT UNION OFFICE|277736|MS* 1-2361||4600|OFFICE|212-851-2361
277762|FAX|277761|MC* 5-6416|||FAX|212-305-6416
277766|WWW.LAW.COLUMBIA.EDU/STUDENTSERVICES/|277765|||||
277768|WWW.LAW.COLUMBIA.EDU/STUDENTSERVICES/|277767|||||
277770|WWW.LAW.COLUMBIA.EDU/STUDENTSERVICES/|277769|||||
277772|WWW.LAW.COLUMBIA.EDU/STUDENTSERVICES/|277771|||||
277774|WWW.LAW.COLUMBIA.EDU/STUDENTSERVICES/|277773|||||
277779|PHONE|277778|MS* 4-4631|||OFFICE|212-854-4631
277781|FAX|277778|MS* 4-4069|||FAX|212-854-4069
277786|FAX|277785|MS* 4-2963|||FAX|212-854-2963
277791|WWW.COLUMBIA.EDU/ACIS/SOFTWARE/LICENSES|277790|||||
277792|SITELIC@COLUMBIA.EDU|277790|||||
277799|PHONE|277798|MS* 4-4909|||OFFICE|212-854-4909
277801|FAX|277798|MS* 4-3434|||FAX|212-854-3434
277810|FAX|277809||||FAX|212-866-9664
277814|DEPARTMENTAL ADMINISTRATOR|277813|MS* 4-8661||1301|OFFICE|212-854-8661
277816|COLUMBIA COLLEGE|277813|MS* 4-4338||1301|OFFICE|212-854-4338
277817|GENERAL STUDIES|277813|MS* 4-4338||1301|OFFICE|212-854-4338
277818|GRADUATE SCHOOL OF ARTS AND SCIENCES|277813|MS* 4-4882||1301|OFFICE|212-854-4882
277819|HISPANIC INSTITUTE|277813|MS* 4-8787||1301|OFFICE|212-854-8787
277821|FAX|277820|MS* 4-7400|||FAX|212-854-7400
277823|EDITORIAL/NEWS|277822|MS* 4-9550|||OFFICE|212-854-9550
277831|ADVERTISING/BUSINESS|277822|MS* 4-9552|||OFFICE|212-854-9552
277837|TEACHERS COLLEGE|277836|||||
277839|FAX|277838|MS* 4-6323|||FAX|212-854-6323
277848|FAX|277845|MS* 1-2164|||FAX|212-851-2164
277856|FAX|277855|MS* 4-0012|||FAX|212-854-0012
277858|FAX|277857|MS* 4-6972|||FAX|212-854-6972
277859|ACCION BORICUA|277857|MS* 4-4909||2602|OFFICE|212-854-4909
277861|AMERICAN INSTITUTE OF CHEMICAL ENGINEERS  (AICHE)|277857|MS* 4-4909||2602|OFFICE|212-854-4909
277863|AMERICAN INSTITUTE OF INDUSTRIAL ENGINEERS|277857|MS* 4-4909||2602|OFFICE|212-854-4909
277865|AMERICAN SOCIETY OF CIVIL ENGINEERS  (ASCE)|277857|MS* 4-4909||2602|OFFICE|212-854-4909
277867|AMERICAN SOCIETY OF MECHANICAL ENGINEERS  (ASME)|277857|MS* 4-4909||2602|OFFICE|212-854-4909
277869|ANIME CLUB|277857|MS* 4-4909||2602|OFFICE|212-854-4909
277873|ARMENIAN CLUB|277857|MS* 4-4909||2602|OFFICE|212-854-4909
277875|ASIAN AMERICAN ALLIANCE|277857|MS* 4-4909||2602|OFFICE|212-854-4909
277877|ASIAN AMERICAN SOCIETY OF ENGINEERS (AASE)|277857|MS* 4-4909||2602|OFFICE|212-854-4909
277879|ASIAN JOURNAL (CC)|277857|MS* 4-4909||2602|OFFICE|212-854-4909
277881|ASIAN/PACIFIC AMERICAN AWARENESS MONTH  (APAAM)|277857|MS* 4-4909||2602|OFFICE|212-854-4909
277883|ASSOCIATION FOR COMPUTING MACHINERY (ACM)|277857|MS* 4-4909||2602|OFFICE|212-854-4909
277885|BACH SOCIETY|277857|MS* 4-4909||2602|OFFICE|212-854-4909
277891|BIOMEDICAL ENGINEERING SOCIETY (BMES)|277857|MS* 4-4909||2602|OFFICE|212-854-4909
277893|BLACK HERITAGE MONTH|277857|MS* 4-4909||2602|OFFICE|212-854-4909
277895|BLACK SISTERS OF BARNARD AND COLUMBIA|277857|MS* 4-4909||2602|OFFICE|212-854-4909
277897|BLACK STUDENTS ORGANIZATION|277857|MS* 4-4276||2602|OFFICE|212-854-4276
277899|BLACK THEATRE ENSEMBLE|277857|MS* 4-4909||2602|OFFICE|212-854-4909
277901|BLUE AND WHITE|277857|MS* 4-4909||2602|OFFICE|212-854-4909
277903|BLUE KEY SOCIETY|277857|MS* 4-4909||2602|OFFICE|212-854-4909
277905|CARIBBEAN STUDENTS ASSOCIATION|277857|MS* 4-4909||2602|OFFICE|212-854-4909
277907|CC CLASS OF 2007|277857|MS* 4-4909||2602|OFFICE|212-854-4909
277909|CC CLASS OF 2008|277857|MS* 4-4909||2602|OFFICE|212-854-4909
277911|CC CLASS OF 2005|277857|MS* 4-4909||2602|OFFICE|212-854-4909
277913|CC CLASS OF 2006|277857|MS* 4-4909||2602|OFFICE|212-854-4909
277915|CC STUDENT COUNCIL|277857|MS* 4-4909||2602|OFFICE|212-854-4909
277917|CHANDLER SOCIETY FOR UNDERGRADUATE CHEMISTRY|277857|MS* 4-4909||2602|OFFICE|212-854-4909
277919|COLUMBIA SIGN LANGUAGE CLUB (formerly cu sign)|277857|MS* 4-4909||2602|OFFICE|212-854-4909
277921|CHARLES DREW PREMEDICAL SOCIETY|277857|MS* 4-4909||2602|OFFICE|212-854-4909
277923|CHICANO CAUCUS|277857|MS* 4-4909||2602|OFFICE|212-854-4909
277925|CHINESE STUDENTS CLUB (CSC)|277857|MS* 4-4909||2602|OFFICE|212-854-4909
277927|CLEF HANGERS|277857|MS* 4-4909||2602|OFFICE|212-854-4909
277929|CLUB ZAMANA (CC)|277857|MS* 4-4909||2602|OFFICE|212-854-4909
277931|COLLECTION, THE|277857|MS* 4-4909||2602|OFFICE|212-854-4909
277935|COLUMBIA CONCERTS|277857|MS* 4-4909||2602|OFFICE|212-854-4909
277939|COLUMBIA FORUM FOR SOCIETY, SCIENCE,  AND RELIGION (CFSSR)|277857|MS* 4-4909||2602|OFFICE|212-854-4909
277941|COLUMBIA MOCK TRIAL TEAM|277857|MS* 4-4909||2602|OFFICE|212-854-4909
277943|COLUMBIA MUSIC PRESENTS|277857|MS* 4-4909||2602|OFFICE|212-854-4909
277945|COLUMBIA MUSICAL THEATRE SOCIETY (CMTS)|277857|MS* 4-4909||2602|OFFICE|212-854-4909
277949|COLUMBIA ORGANIZATION OF RISING ENTREPRENEURS (CORE)|277857|MS* 4-4909||2602|OFFICE|212-854-4909
277953|COLUMBIA OUTDOOR ORIENTATION PROGRAM|277857|MS* 4-3611||2601|OFFICE|212-854-3611
277955|COLUMBIA OUTDOOR RIVER ORIENTATION PROGRAM|277857|MS* 4-3611||2601|OFFICE|212-854-3611
277957|COLUMBIA REVIEW|277857|MS* 4-4909||2602|OFFICE|212-854-4909
277961|COLUMBIA TELEVISION (CTV)|277857|MS* 4-8900||2602|OFFICE|212-854-8900
277966|COLUMBIA TRANSIT AUTHORITY|277857|MS* 4-4909||2602|OFFICE|212-854-4909
277968|COLUMBIA UNIVERSITY PERFORMING ARTS LEAGUE (CUPAL)|277857|MS* 4-4909||2602|OFFICE|212-854-4909
277970|COLUMBIA UNIVERSITY PRODUCERS AND DIRECTORS CLUB (CUPDC)|277857|MS* 4-4909||2602|OFFICE|212-854-4909
277972|COLUMBIAN (CC/SEAS YEARBOOK)|277857|MS* 4-7866||2602|OFFICE|212-854-7866
277976|CONVERSIO VIRIUM (BDSM INFORMATIONAL GROUP)|277857|MS* 4-4909||2602|OFFICE|212-854-4909
277980|CULINARY SOCIETY OF COLUMBIA|277857|MS* 4-4909||2602|OFFICE|212-854-4909
277982|EAST ASIAN REVIEW|277857|MS* 4-4909||2602|OFFICE|212-854-4909
277984|ECONOMICS SOCIETY|277857|MS* 4-4909||2602|OFFICE|212-854-4909
277986|ELEMENTARY HIP-HOP JOURNAL|277857|MS* 4-4909||2602|OFFICE|212-854-4909
277988|ENGINEERING CLASS OF 2007|277857|MS* 4-4909||2602|OFFICE|212-854-4909
277990|ENGINEERING CLASS OF 2008|277857|MS* 4-4909||2602|OFFICE|212-854-4909
277992|ENGINEERING CLASS OF  2005|277857|MS* 4-4909||2602|OFFICE|212-854-4909
277994|ENGINEERING CLASS OF 2006|277857|MS* 4-4909||2602|OFFICE|212-854-4909
277996|ENGINEERING STUDENT COUNCIL(ESC)|277857|MS* 4-4909||2602|OFFICE|212-854-4909
277998|ENGINEERING STUDENT LIFE, ENGINEERING WEEK|277857|MS* 4-4909||2602|OFFICE|212-854-4909
278001|FERRIS REEL FILM SOCIETY|277857|MS* 4-4909||2602|OFFICE|212-854-4909
278003|FREE ART|277857|MS* 4-4909||2602|OFFICE|212-854-4909
278005|FRENCH CULTURE CLUB|277857|MS* 4-4909||2602|OFFICE|212-854-4909
278007|GAMES CLUB|277857|MS* 4-4909||2602|OFFICE|212-854-4909
278009|GLEE CLUB|277857|MS* 4-4909||2602|OFFICE|212-854-4909
278011|GOLDEN KEY SOCIETY|277857|MS* 4-4909||2602|OFFICE|212-854-4909
278013|GOSPEL CHOIR|277857|MS* 4-4909||2602|OFFICE|212-854-4909
278015|GRUPO QUISQUEYANO  (DOMINICAN STUDENTS CLUB)|277857|MS* 4-4909||2602|OFFICE|212-854-4909
278017|HAITIAN STUDENTS ASSOCIATION|277857|MS* 4-4909||2602|OFFICE|212-854-4909
278019|HELLAS|277857|MS* 4-4909||2602|OFFICE|212-854-4909
278021|HELVIDIUS: THE JOURNAL OF POLITICS & SOCIETY|277857|MS* 4-4909||2602|OFFICE|212-854-4909
278025|INDIVIDUAL EVENTS SPEECH TEAM|277857|MS* 4-4909||2602|OFFICE|212-854-4909
278027|INSTITUTE OF ELECTRICAL AND ELECTRONIC ENGINEERS  (IEEE)|277857|MS* 4-4909||2602|OFFICE|212-854-4909
278030|IRELAND CLUB|277857|MS* 4-4909||2602|OFFICE|212-854-4909
278032|JAPAN CLUB|277857|MS* 4-4909||2602|OFFICE|212-854-4909
278034|JAZZ BAND|277857|MS* 4-4909||2602|OFFICE|212-854-4909
278036|JESTER|277857|MS* 4-4909||2602|OFFICE|212-854-4909
278038|KARAOKE CLUB|277857|MS* 4-4909||2602|OFFICE|212-854-4909
278040|KINGS COURT JUGGLERS|277857|MS* 4-4909||2602|OFFICE|212-854-4909
278042|KINGS CROWN AWARD|277857|MS* 4-3611||2601|OFFICE|212-854-3611
278044|KINGS CROWN SHAKESPEARE TROUPE|277857|MS* 4-4909||2602|OFFICE|212-854-4909
278046|KINGSMEN|277857|MS* 4-4909||2602|OFFICE|212-854-4909
278048|KOREAN STUDENTS ASSOCIATION (KSA)|277857|MS* 4-4909||2602|OFFICE|212-854-4909
278050|LATINO HERITAGE MONTH|277857|MS* 4-4909||2602|OFFICE|212-854-4909
278052|LIGA FILIPINA|277857|MS* 4-4909||2602|OFFICE|212-854-4909
278054|METROTONES|277857|MS* 4-4909||2602|OFFICE|212-854-4909
278056|MODEL CONGRESS|277857|MS* 4-4909||2602|OFFICE|212-854-4909
278058|MODEL EUROPEAN UNION CLUB (MEU)|277857|MS* 4-4909||2602|OFFICE|212-854-4909
278060|MODEL UNITED NATIONS (MUN)|277857|MS* 4-4909||2602|OFFICE|212-854-4909
278062|MUSEO|277857|MS* 4-4909||2602|OFFICE|212-854-4909
278064|MUSEUM CLUB|277857|MS* 4-4909||2602|OFFICE|212-854-4909
278066|NATIONAL SOCIETY OF BLACK ENGINEERS  (NSBE)|277857|MS* 4-4909||2602|OFFICE|212-854-4909
278068|NATIVE AMERICAN COUNCIL|277857|MS* 4-4909||2602|OFFICE|212-854-4909
278070|NATIVE AMERICAN HERITAGE MONTH (NAHM)|277857|MS* 4-4909||2602|OFFICE|212-854-4909
278072|NEW STUDENT ORIENTATION PROGRAM|277857|MS* 4-3611||2601|OFFICE|212-854-3611
278075|NIGHTLINE ( PEER COUNSELING)|277857|MS*4-4909||2602|OFFICE|212-854-4909
278078|NOTES AND KEYS|277857|MS* 4-4909||2602|OFFICE|212-854-4909
278080|OHANA (THE HAWAII CLUB)|277857|MS* 4-4909||2602|OFFICE|212-854-4909
278082|OPERA ENSEMBLE (cc)|277857|MS* 4-4909||2602|OFFICE|212-854-4909
278084|ORCHESIS (DANCE)|277857|4-4909||2602|OFFICE|212-854-4909
278089|ORGANIZATION OF PAKISTANI STUDENTS (ops)|277857|MS* 4-4909||2602|OFFICE|212-854-4909
278091|PARLIAMENTARY DEBATE TEAM|277857|MS* 4-4909||2602|OFFICE|212-854-4909
278093|PHILOLEXIAN SOCIETY|277857|MS* 4-4909||2602|OFFICE|212-854-4909
278095|POLICY DEBATE UNION|277857|MS* 4-4909||2602|OFFICE|212-854-4909
278099|PRANGSTGRUP|277857|MS* 4-4909||2602|OFFICE|212-854-4909
278101|PURSUIT OF ACADEMIC STANDARD AND TRADITIONS (PAST-)|277857|MS* 4-4909||2602|OFFICE|212-854-4909
278105|QUEERS OF COLOR|277857|MS* 4-4909||2602|OFFICE|212-854-4909
278107|QUIZ BOWL|277857|MS* 4-4909||2602|OFFICE|212-854-4909
278109|RAW ELEMENTZ|277857|MS* 4-4909||2602|OFFICE|212-854-4909
278111|ROMANIAN SOCIETY|277857|MS* 4-4909||2602|OFFICE|212-854-4909
278113|RUSSIAN INTERNATIONAL ASSOCIATION|277857|MS* 4-4909||2602|OFFICE|212-854-4909
278115|SCIENCE FICTION SOCIETY|277857|MS* 4-4909||2602|OFFICE|212-854-4909
278117|SENIOR WEEK|277857|MS* 4-4909||2602|OFFICE|212-854-4909
278119|SINGAPORE STUDENTS ASSOCIATION|277857|MS* 4-4909||2602|OFFICE|212-854-4909
278121|SIX MILKS|277857|MS* 4-4909||2602|OFFICE|212-854-4909
278123|SOCIETA ITALIANA|277857|MS* 4-4909||2602|OFFICE|212-854-4909
278125|SOCIETY OF AUTOMOTIVE ENGINEERING|277857|MS* 4-4909||2602|OFFICE|212-854-4909
278127|SOCIETY OF HISPANIC PROFESSIONAL ENGINEERS|277857|MS* 4-4909||2602|OFFICE|212-854-4909
278129|SOCIETY OF WOMEN ENGINEERS  (SWE)|277857|MS* 4-4909||2602|OFFICE|212-854-4909
278131|SOPHOMORE/JUNIOR WEEK|277857|MS* 4-4909||2602|OFFICE|212-854-4909
278133|SOUL|277857|MS* 4-4909||2602|OFFICE|212-854-4909
278135|SOUNDS OF CHINA|277857|MS* 4-4909||2602|OFFICE|212-854-4909
278137|STUDENT GOVERNMENT ORGANIZATION  (SGO)|277857|MS* 4-4909||2602|OFFICE|212-854-4909
278139|STUDENT EDUCATION ADVOCACY LEAGUE (SEAL)|277857|MS* 4-4909||2602|OFFICE|212-854-4909
278141|STUDENT ORGANIZATION OF LATINOS (SOL)|277857|MS* 4-4909||2602|OFFICE|212-854-4909
278143|STUDENTS PROMOTING EMPOWERMENT AND KNOWLEDGE (SPEAK)|277857|MS* 4-4909||2602|OFFICE|212-854-4909
278145|THAI SA-BAI|277857|MS* 4-4909||2602|OFFICE|212-854-4909
278147|TURATH|277857|MS* 4-4909||2602|OFFICE|212-854-4909
278149|TURKISH STUDENTS ASSOCIATION|277857|MS* 4-4909||2602|OFFICE|212-854-4909
278151|TWO LEFT FEET|277857|MS* 4-4909||2602|OFFICE|212-854-4909
278153|UKRAINIAN STUDENTS SOCIETY|277857|MS* 4-4909||2602|OFFICE|212-854-4909
278155|UNDERGRADUATE LAW SOCIETY|277857|MS* 4-4909||2602|OFFICE|212-854-4909
278157|UNITED STUDENTS OF COLOR COUNCIL (CC/SEAS)|277857|MS* 4-4909||2602|OFFICE|212-854-4909
278159|UPSTART|277857|MS* 4-4909||2602|OFFICE|212-854-4909
278161|UPTOWN VOCALS|277857|MS* 4-4909||2602|OFFICE|212-854-4909
278163|VARSITY SHOW (CC/SEAS)|277857|MS* 4-4909||2602|OFFICE|212-854-4909
278169|WEATHER CLUB|277857|MS* 4-4909||2602|OFFICE|212-854-4909
278171|WIND  ENSEMBLE|277857|MS* 4-4909||2602|OFFICE|212-854-4909
278173|WKCR-FM (RADIO STATION) (cc)|277857|||2612|OFFICE|212-854-9920
278177|WOMEN HELPING WOMEN|277857|MS* 4-4909||2602|OFFICE|212-854-4909
278179|WOMEN IN INTERNATIONAL AFFAIRS|277857|MS* 4-4909||2602|OFFICE|212-854-4909
278183|WOMEN'S HISTORY MONTH|277857|MS* 4-4909||2602|OFFICE|212-854-4909
278185|WORKS AND PROGRESS|277857|MS* 4-4909||2602|OFFICE|212-854-4909
278192|BARTENDING AGENCY AND SCHOOL OF MIXOLOGY, COLUMBIA (STUDENT ENTERPRISES)|278191|MS* 4-4537|||OFFICE|212-854-4537
278194|INSIDE NEW YORK|278191|MS* 4-2804|||OFFICE|212-854-2804
278195|CAMPUS PAGES, COLUMBIA (STUDENT ENTERPRISES)|278191|MS* 4-6222||5727|OFFICE|212-854-6222
278205|COLUMBIA COLLEGE|278204|MS* 4-4909||2602|OFFICE|212-854-4909
278207|ENGINEERING|278204|MS* 4-4909||2602|OFFICE|212-854-4909
278209|GENERAL STUDIES|278204|MS* 4-5724|||OFFICE|21854-5724
278216|WWW.LAW.COLUMBIA.EDU/STUDENTSERVICES/|278215|||||
278218|FAX|278217|MS* 4-7400|||FAX|212-854-7400
278222|ADMINISTRATIVE OFFICE|278219|||||
278242|FACETS|278219|MS* 4-7042||9201|OFFICE|212-854-7042
278244|Primary Care Medical Services|278243|||||
278257|Counseling and Psychological Services|278243|||||
278258|Office of Disability Services|278243|||||
278262|Insurance and Immunization Inquiries|278243|||||
278264|Emergency Resources|278243|||||
278273|MEDICAL CENTER|278219|||||
278278|I.D. OFFICE|278219|MS* 4-4400||9209|OFFICE|212-854-4400
278279|STUDENT CENTER-LERNER HALL MANAGEMENT OFFICE|278219|||2603||
278287|REGISTRAR|278219|MS* 4-4400||9202|OFFICE|212-854-4400
278291|FAX|278290||||FAX|212-932-3996
278292|EMERGENCIES   99 OR|278290|MS* 4-5555|||OFFICE|212-854-5555
278293|URH@COLUMBIA.EDU|278290|||||
278294|INFORMATION LINE|278219|MS* 4-4400|||OFFICE|212-854-4400
278488|STUDENT FINANCIAL SERVICES|278219|MS* 4-4400||9204|OFFICE|212-854-4400
278495|STUDENT INFORMATION SYSTEMS|278219|MS* 4-2989||9211|OFFICE|212-854-2989
278501|"Not Your Parents' Travel Agency"|278500|||||
278502|2871 BWAY|278500||||OFFICE|212-865-2700
278504|FAX|278500||||FAX|212-316-0523
278508|WWW.LAW.COLUMBIA.EDU/STUDENTSERVICES/|278507|||||
278511|FAX|278510|MS* 4-5861|||FAX|212-854-5861
278517|Dean|278514|MS* 4-3771||4110|OFFICE|212-854-3771
278523|BUSINESS OFFICE|278522|MC* 6-9424|||OFFICE|212-305-9424
278525|CHAIRMAN S ADMINISTRATIVE OFFICE|278522|MC* 5-9600|||OFFICE|212-305-9600
278527|FINANCIAL AFFAIRS OFFICE|278522|MC* 6-9317|||OFFICE|212-305-9317
278528|OPERATIONS|278522|MC* 5-7116|||OFFICE|212-305-7116
278537|FAX|278536|MS* 4-7400|||FAX|212-854-7400
278542|FAX|278541||||FAX|212-932-9421
278554|WWW.LAW.COLUMBIA.EDU/STUDENTSERVICES/|278553|||||
278556|FAX|278555|MS* 4-3344|||FAX|212-854-3344
278559|UNDERGRADUATE|278558|MS* 4-4900|||OFFICE|212-854-4900
278560|GENERAL AND GRADUATE|278558|MS* 4-4902|||OFFICE|212-854-4902
278564|WWW.LAW.COLUMBIA.EDU/STUDENTSERVICES/|278563|||||
278569|INFORMATION|278568|MS* 4-4844|||OFFICE|212-854-4844
278571|FACULTY/STAFF TRAVEL|278570|||||
278573|STUDENT TRAVEL CENTER  (STA )|278570||||OFFICE|212-865-2700
278578|ACCOUNTING AND REPORTING|278577|||7405||
278584|ACCOUNTS PAYABLE SERVICE CENTER|278577|MS* 4-2122|Studebaker Bldg,615 West 131st Street,3rd Floor|3203|OFFICE|212-854-2122
278620|PAYROLL ACCOUNTING AND OPERATIONS|278577|||3202||
278638|RESTRICTED FUNDS|278577|MS* 4-1048||7409|FAX|212-854-1048
278645|RISK MANAGEMENT|278656|MS* 4-9709||7713|FAX|212-854-9709
278653|CONTROLLER|278577|MS* 4-9710||3206|OFFICE|212-854-9710
278657|STRATEGIC INITIATIVE|278656|||7711||
278659|TREASURY SERVICES|278656|||7711||
278671|ACADEMIC RESOURCE CENTER (ARC)|278670|MS* 4- 4097||4106|OFFICE|212-854-4097
278678|FAX|278677|MS* 4-5009|||FAX|212-854-5009
278680|FAX|278679|MS* 4-1854|||FAX|212-854-1854
278682|WWW.LAW.COLUMBIA.EDU/STUDENTSERVICES/|278681|||||
278686|FAX|278685||||FAX|212-280-1416
278687|WWW.UTS.COLUMBIA.EDU|278685|||||
278699|Gift Systems|461320|||4309|OFFICE|866-443-8797
278700|Columbia College Today|461320|MS* 1-7852|||OFFICE|212-851-7852
278701|"Columbia" The Magazine of Columbia University|461320|MS* 1-4155||4520|OFFICE|212-851-4155
278703|Executive Director for Donor Relations|461320|MS* 1-7476||4520|OFFICE|212-851-7476
278705|DEPUTY UNIVERSITY LIBRARIAN|278704|MS* 4-2226|||OFFICE|212-854-2226
278712|CALENDAR|278711|MS* 4-6546||4321|OFFICE|212-854-6546
278716|FAX|278715|MS* 4-8248|||FAX|212-854-8248
278718|PHONE|278717|MS* 4-2023|||OFFICE|212-854-2023
278719|universitysenate@columbia.edu|278717|||||
278720|FAX|278717|MS* 4-9123|||FAX|212-854-9123
278721|www.columbia.edu/cu/senate|278717|||||
278729|FAX|278728|MS* 4-7984|||FAX|212-854-7984
278731|FAX|278730|MC* 7-0113|||FAX|212-305-0113
278738|Fax|278737|MS* 4-5401|||FAX|212-854-5401
278739|Associate Vice President for Academic Planning|278737|MS* 4-3689||4311|OFFICE|212-854-3689
278741|Deputy Vice President for Administration|278737|MS* 4-8297||4315|OFFICE|212-854-8297
278743|Assistant Vice President for Budget and Finance|278737|MS* 4-6107||4302|OFFICE|212-854-6107
278748|FAX|278747|HS* 5-3545|||FAX|212-305-3545
278750|FAX|278749|IC* 2655|||FAX|212-870-2655
278753|FAX|278752|MS* 4-4972|||FAX|212-854-4972
278760|VIDEO  PRODUCTION|278759|MS* 1-2970|||OFFICE|212-851-2970
278766|INFORMATION|278764|MS* 4-4900|||OFFICE|212-854-4900
278767|CALENDAR  (COLUMBIA UNIVERSITY RECORD)|278764|MS* 4-3282||4321|OFFICE|212-854-3282
278768|CAMPUS TOURS|278764|||||
278771|VISITORS CENTER|278764|MS* 4-4901||4318|OFFICE|212-854-4901
278775|FAX|278774|MS* 4-7708|||FAX|212-854-7708
278776|WELDING STUDIO|278774|CX* 2453|||OFFICE|212-280-2453
278780|OFFICE|278777|MS* 4-2877||4331|OFFICE|212-854-2877
278788|FAX|278787|MS* 4-6577|||FAX|212-854-6577
278790|FAX|278789||||FAX|212-678-4817
278793|PHONE|278792|MS* 4-4618|||OFFICE|212-854-4618
278801|FAX|278800|MS* 4-7466|||FAX|212-854-7466
278803|FAX|278802|MS* 4-3434|||FAX|212-854-3434
278805|WWW.LAW.COLUMBIA.EDU/STUDENTSERVICES/|278804|||||
278807|FAX|278806|MS* 4-3434|||FAX|212-854-3434
278809|FAX|278808||||FAX|212-326-5528
278811|FAX|278810|HS* 6-3244|||FAX|212-305-3244
278812|WWW. STEPHENCOHEN.MEDEM.COM|278810|||||
278814|FAX|278813||||FAX|646-756-8280
278816|FAX|278815|MS* 4-7466|||FAX|212-854-7466
278822|FAX|278821|MS* 4-7704|||FAX|212-854-7704
278824|CREATIVE WRITING  (CONTINUING EDUCATION)|278823|MS* 4-3774||4108|OFFICE|212-854-3774
278825|GENERAL STUDIES|278823|MS* 4-3774||4108|OFFICE|212-854-3774
278828|COLUMBIAN (CC/SEAS)|278826|MS* 4-3611||2602|OFFICE|212-854-3611
278833|PEGASUS (LAW)|278826|MS* 4-2395|||OFFICE|212-854-2395
278837|WWW.LAW.COLUMBIA.EDU/STUDENTSERVICES/|278836|||||
278861|BABY-SITTING SERVICE|278860|MS* 4-2035|||OFFICE|212-854-2035
278862|BARTENDING SERVICE|278860|MS* 4-4650|||OFFICE|212-854-4650
278872|ACADEMIC|278871|MS* 4-8477|||OFFICE|212-854-8477
278873|ADMINISTRATIVE (MINS)|278871|MS* 4-8791|||OFFICE|212-854-8791
278874|HELP-LINE|278871|MS* 4-7172|||OFFICE|212-854-7172
278883|ADVANCEMENT SERVICES|278882|MS* 4-2471|||OFFICE|212-854-2471
278884|FUND OFFICE|278882|MS* 4-2001|||OFFICE|212-854-2001
278894|PHONE|278893|MS* 4-5618|||OFFICE|212-854-5618
278897|OFFICE|278896|MS* 4-2041|||OFFICE|212-854-2041
278898|SERVICE RESPONSE CENTER|278896|MS* 4-8990|||OFFICE|212-854-8990
278930|ARCHIVIST-|278929|MS* 4-4079|||OFFICE|212-854-4079
278931|CIRCULATION DESK|278929|MS* 4-3846|||OFFICE|212-854-3846
278932|DEAN|278929|MS* 4-2147|||OFFICE|212-854-2147
278933|MEDIA SERVICES|278929|MS* 4-2418|||OFFICE|212-854-2418
278934|REFERENCE DESK|278929|MS* 4-3953|||OFFICE|212-854-3953
278935|RESERVE DESK|278929|MS* 4-3938|||OFFICE|212-854-3938
278936|TECHNICAL SERVICES|278929|MS* 4-2146|||OFFICE|212-854-2146
278940|ADMINISTRATION/FACULTY|278939|MS* 4-2019|||OFFICE|212-854-2019
278941|STUDENT|278939|MS* 4-2095|||OFFICE|212-854-2095
278944||278942|MS* 4-3577||||
278952|Mail and Document Services|278951|MS* 4-2087|||OFFICE|212-854-2087
278972|OFFICES|278971|||||
278977|FRONT DESK|278971|||||
279003|PHONE|279002|MS* 4-2079|||OFFICE|212-854-2079
279019|411 BNRD|279018|MS* 4-2713|||OFFICE|212-854-2713
279020|415A BNRD|279018|MS* 4-6945|||OFFICE|212-854-6945
279072|Fax|279071|TC* 3985|||FAX|212-678-3985
279073|Supplies|279071|TC* 3922|||OFFICE|212-678-3920
279075|Trade|279071|TC* 3291|||OFFICE|212-678-3291
279076|Manager|279071|TC* 3920|||OFFICE|212-678-3920
279078|Assistant Manager|279071|TC* 3920|||OFFICE|212-678-3920
279088|Executive Chef|279085||||FAX|212-870-8650
279090|Food Services Director|279085|TC* 3168|||OFFICE|212-678-3168
279099|Fax|279098||||FAX|212-678-8417
279104|Center for Technology and School Change|279098|TC* 3773|||OFFICE|212-678-3773
279108|Hechinger Institute on education and the Media|279098||||OFFICE|212-851-1072
279109|International Center for Cooperation and Conflict Resolution (ICCCR)|279098||||OFFICE|800-290-3664
279152|Goodman Family Computer Classroom|279151|TC* 3302|||OFFICE|212-678-3302
279153|Academic Computing Services|279151|TC* 3302|||OFFICE|212-678-3302
279154|Administrative Information Services|279151|TC* 3485|||OFFICE|212-678-3485
279155|Computer Operations|279151|TC* 3303|||OFFICE|212-678-3303
279156|Consulting-Instructional|279151|TC* 3302|||OFFICE|212-678-3302
279157|Help Desk, CIS (Faculty & Staff)|279151|TC* 3300|||OFFICE|212-678-3300
279159|Help Desk, CIS (Students)|279151|TC* 3304|||OFFICE|212-678-3304
279162|Media Services|279151|TC* 3822|||OFFICE|212-678-3822
279164|Telecommunications, Office of|279151|TC* 3456|||OFFICE|212-678-3456
279180|Business Service|279179|TC* 3055|||OFFICE|212-678-3055
279183|Associate controller|279179|TC* 8206|||OFFICE|212-678-8206
279184|Financial Systems|279179|TC* 3720|||OFFICE|212-678-3720
279185|Student Accounts|279179|TC* 3056|||OFFICE|212-678-3056
279207|V/TTY 678-3853|279206|||||
279209|ADMINISTRATIVE ASSISTANT|279208|TC* 3050|||OFFICE|212-678-3050
279210|ADMISSIONS OFFICE|279208|TC* 3710|||OFFICE|212-678-3710
279211|ASSISTANT DEAN FOR ACADEMIC AFFAIRS|279208|TC* 3991|||OFFICE|212-678-3991
279212|ASSOCIATE DEAN FOR ACADEMIC ADMINISTRATION|279208|TC* 3052|||OFFICE|212-678-3052
279213|CAREER SERVICES CENTER|279208|TC* 3140|||OFFICE|212-678-3140
279214|CENTER FOR EDUCATIONAL OUTREACH AND  INNOVATION|279208|TC* 3987|||OFFICE|212-678-3987
279215|DISABILITIES, ACCESS AND SERVICES FOR INDIVIDUALS WITH|279208|TC* 3689|||OFFICE|212-678-3689
279217|DOCTORAL STUDIES, OFFICE OF|279208|TC* 4058|||OFFICE|212-678-4058
279218|INSTITUTE FOR URBAN AND MINORITY EDUCATION   (IUME)|279208|TC* 4137|||FAX|212-678-4137
279219|INSTITUTIONAL STUDIES|279208|TC* 3706|||OFFICE|212-678-3706
279223|INTERNATIONAL STUDENT AND SCHOLAR SERVICES|279208|TC* 3939|||OFFICE|212-678-3939
279225|OMBUDSPERSONS|279208|TC* 4169|||OFFICE|212-678-4169
279227|REGISTRAR|279208|TC* 4050|||OFFICE|212-678-4050
279230|Student Activities and Programs, Office of|279208|TC* 3690|||OFFICE|212-678-3690
279418|Advertising|279417|TC* 4147|||OFFICE|212-678-4147
279419|Alumni Relations|279417|TC* 3215|||OFFICE|212-678-3215
279420|Annual Fund|279417|TC* 8176|||OFFICE|212-678-8176
279421|Assistant to the Vice President|279417|TC* 3776|||OFFICE|212-678-3776
279423|Communications|279417|TC* 3979|||OFFICE|212-678-3979
279426|Corporate and Foundation Relations|279417|TC* 4146|||OFFICE|212-678-4146
279433|Major Gifts|279417|TC* 3722|||OFFICE|212-678-3722
279434|Planned Giving|279417|TC* 3037|||OFFICE|212-678-3037
279435|Public Affairs|279417|TC* 3412|||OFFICE|212-678-3412
279436|Publications|279417|TC* 4147|||OFFICE|212-678-4147
279437|Research|279417|TC* 3951|||OFFICE|212-678-3951
279438|Stewardship|279417|TC* 3716|||OFFICE|212-678-4086
279444|DEAF AND HARD OF HEARING SERVICES|279442|TC* 3853|||OFFICE|212-678-3853
279451|FAX|279450||||FAX|212-404-7827
279481|Fax|279478|TC* 4036|||FAX|212-678-4036
279482|Director of Facilities|279478|TC* 3011|||OFFICE|212-678-3011
279483|Maintenance and Mechanical Manager|279478|TC* 3116|||OFFICE|212-678-3116
279485|Custodial Manager-Residence Halls|279478|TC* 3953|||OFFICE|212-678-3953
279486|Service Response Manager|279478|TC* 4016|||OFFICE|212-678-4016
279487|Facilities Information Coordinator|279478|TC* 4064|||OFFICE|212-678-4064
279488|Facilities Secretary|279478|TC* 3010|||OFFICE|212-678-3010
279498|Budget and Planning|279495|TC* 4179|||OFFICE|212-678-4179
279499|Capital Projects and Construction|279495|TC* 3012|||OFFICE|212-678-3012
279500|Computing and information services|279495|TC* 3485|||OFFICE|212-678-3485
279504|Controller's Office|279495|TC* 3016|||OFFICE|212-678-3016
279505|Facilities|279495|TC* 3010|||OFFICE|212-678-3010
279507|Bookstore|279495|TC* 3920|||OFFICE|212-678-3920
279540|HORACE MANN THEATRE|279539|TC* 3278|||OFFICE|212-678-3278
279542|Fax|279541|TC* 3235|||FAX|212-678-3222
279543|Lost and found Information Desk|279541|TC* 3335|||OFFICE|212-678-3335
279550|Securrity|279541|TC* 3098|||OFFICE|212-678-3098
279570|Improving Mathematics Achievement in K-8 Students|279569|TC* 3357|||OFFICE|212-678-3357
279571|Administrative Associate|279569|TC* 3444|||OFFICE|212-678-3444
279572|Center for Information and Resources on Edu. and the Community (CIREC)|279569|TC* 3433|||OFFICE|212-678-3433
279573|Dynamic Pedagogy|279569|TC* 3780|||OFFICE|212-678-3780
279576|Harlem After Three|279569|TC* 3413|||OFFICE|212-678-3413
279589|DIRECTOR|279588|TC* 3706|||OFFICE|212-678-3706
279590|ASSISTANT DIRECTOR|279588|TC* 3692|||OFFICE|212-678-3692
279591|ASSISTANT DIRECTOR FOR ENROLLMENT RESEARCH|279588|TC* 3065|||OFFICE|212-678-3065
279618|Library Services|279614|TC* 3494|||OFFICE|212-678-3494
279700|Social-Organizational Psychology, Program in (office 2)|279698|TC* 3249|||OFFICE|212-678-3249
279707|PHONE|279706|TC* 3349|||OFFICE|212-678-3349
279722|FAX|279721|TC* 3237|||FAX|212-678-3237
279756|COMPUTER APPLICATIONS FOR REGISTRAR|279754|TC* 4120|||OFFICE|212-678-4120
279757|COURSE SCHEDULES|279754|TC* 4050|||OFFICE|212-678-4050
279758|DEGREE DESK AND DIPLOMAS|279754|TC* 4056|||OFFICE|212-678-4056
279759|ENROLLMENT STATUS|279754|TC* 4070|||OFFICE|212-678-4070
279760|GRADE CHANGES|279754|TC* 4052|||OFFICE|212-678-4052
279761|NEW PROGRAMS AND COURSES|279754|TC* 3226|||OFFICE|212-678-3226
279762|RECORDER|279754|TC* 4052|||OFFICE|212-678-4052
279763|REGISTRATION|279754|TC* 4050|||OFFICE|212-678-4050
279764|STUDENT RECORDS|279754|TC* 4071|||OFFICE|212-678-4071
279766|TOUCH-TONE REGISTRATION|279754||||OFFICE|212-678-3200
279767|TRANSCRIPTS|279754|TC* 4071|||OFFICE|212-678-4071
279768|VETERAN S BENEFITS|279754|TC* 4055|||OFFICE|212-678-4055
279793|EMERGENCY ONLY|279790|TC* 3333|||OFFICE|212-678-3333
279807|Cross- Categorical Studies, Program in|279806|TC* 3859|||OFFICE|212-678-3859
279808|Instructional Practice, Program in|279806|TC* 3854|||OFFICE|212-678-3854
279809|Program Administration, Program in|279806|TC* 3859|||OFFICE|212-678-3859
279811|Supervision, Program in|279806|TC* 3859|||OFFICE|212-678-3859
279864|BILLING QUESTIONS|279863|TC* 4104|||OFFICE|212-678-4014
279865|CABLE TV|279863|TC* 3456|||OFFICE|212-678-3456
279866|HELP DESK|279863|TC* 3456|||OFFICE|212-678-3456
279867|TELEPHONE REPAIR, INSTALLATION, OR REMOVAL|279863|TC* 3456|||OFFICE|212-678-3456
279868|VIDEO CONFERENCING (INFORMATION)|279863|TC* 3822|||OFFICE|212-678-3822
279870|VOICE MAIL ASSISTANCE, INSTALLATION, OR REMOVAL|279863|TC* 3456|||OFFICE|212-678-3456
279879|INFORMATION|279878|TC* 3822|||OFFICE|212-678-3822
279881|INFORMATION|279880|TC* 3359|||OFFICE|212-678-3359
281277|cpmcnet.columbia.edu/dept/anatomy|273814|||||
281366|www.americanassembly.org.|273784|||||
281598|GRADES BY PHONE|281571|||||212-854-7373
281599|REGISTRATION BY PHONE|281573|||||212-854-8282
282977|PHONE|273954|MS* 4-4448|||OFFICE|212-854-4448
282978|PHONE|273954|MS* 4-4453|||OFFICE|212-854-4453
316699|FAX|277592||||FAX|212-305-5777
326596|FAX|277648||||OFFICE|212-342-0100
326977|FAX|326976|MS* 4-4607|||FAX|212-854-4607
326979|FAX|326978|MS* 4-4607|||FAX|212-854-4607
326981|fax|326980|MS* 4-3748|||FAX|212-854-3748
326983|FAX|326982|MS* 4-6309|||FAX|212-854-6309
327124|MAILING: 1051 RVSDDR (UNIT 87)|327123|||||
327753|DR. GEORGE E. RUPP|277411|MS* 4-4157||4324|OFFICE|212-854-4157
327755|MICHAEL I. SOVERN|277411|MS* 4-7848|||OFFICE|212-854-7848
327767|www.columbiaspectator.com|277822|||||
328405|www.columbia.edu/cu/iraas|273718|||||
328406|www.law.columbia.edu/cu/acs/|273790|||||
329172|IGERT Joint prgm in appld Math/Earth Env Sci|273831|MS* 4-7643||4701|OFFICE|212-854-7643
329173|WALLACH ART GALLERY|273909|MS* 4-7288||5517|OFFICE|212-854-7288
329174|WALLACH ART GALLERY|273947|MS* 4-7288||5517|OFFICE|212-854-7288
329178|EQUIPMENT ROOM|273961|MS* 4-9568|||OFFICE|212-854-9568
329179|cumc.columbia.edu/dept/physio/physio2|274082|||||
329314|cpmcnet.columbia.edu/dept/physio/physio2|274274|||||
329317|FAX|329316||||FAX|212-342-0451
329319|centerforbioethics@columbia.edu|329316|||||
329324|cl2395@columbia.edu|274417|||||
329325|www.societyandmedicine.columbia.edu|274417|||||
329330|GRAD STUDENT COMPUTER LAB|274460|MS* 4-6520||4721|OFFICE|212-854-6520
329331|LABORATORY OF DNA SEQUENCING AND CHEMICAL BIOLOGY|274460|||||
329332|SOFT MATERIALS STUDENT OFFICES|274460|MS* 4-7399||4721|OFFICE|212-854-7399
329333|TEACHING ASSISTANTS|274460|MS* 4-4852||4721|OFFICE|212-854-4852
329499|FAX|274593|MS* 1-4160|||FAX|212-851-4160
329500|magazine@columbia.edu|274593|||||
329501|GENERAL INFORMATION|274612|MS* 4-9058|||OFFICE|212-854-9058
329508|FIRST YEAR SOPHOMORE ACADEMIC ADVISING CENTER|274629|MS* 4-6378||1201|OFFICE|212-854-6378
329510|PHONE|274694|MS* 4-4829||4322|OFFICE|212-854-4829
329514|ENGINEERING AND TECH SUPPORT|274836|MS* 4-2897|||OFFICE|212-854-2897
329515|FIELD RESOURCES|274836|MS* 4-8603|||OFFICE|212-854-8603
329516|REFERRAL CENTER|274836|MS* 4-1754|||OFFICE|212-854-1754
329517|STUDENT SERVICES AND FACULTY AND ADMIN SATISFACTION|274836|MS* 4-2894|||OFFICE|212-854-2894
329747|FUNDRAISING MANAGEMENT FOR  NONPROFIT ADMINISTRATION MS PROGRAM|274931|MS* 4-9666||4119|OFFICE|212-854-9666
329749|STRATEGIC COMMUNICATIONS MASTERS PROGRAM|274931|MS* 4-9666||4119|OFFICE|212-854-9666
330230|TTY|275082|MS* 4-2378|||OFFICE|212-854-2378
330231|FAX|275085|MS* 4-2863|||FAX|212-854-2863
330234|HOGAN|275143|MS* 4-3830||3277|OFFICE|212-854-3830
330268|INDUSTRIAL HYGIENIST|275347|MS* 4-8751|||OFFICE|212-854-8751
330275|LIBERAL STUDIES|275772|MS* 4-4932||4307|OFFICE|212-854-4932
330310|EARTH ENGINEERING CENTER|275891|MS* 4-2138||4711|OFFICE|212-854-2138
330352|QUANTITATIVE METHODS IN SOCIAL SCIENCES (QMSS)|276079|MS* 4-7813||3355|OFFICE|212-854-7813
330359|PROJECT ON IMMIGRATION, ETHNICITY,  AND RACE|276135|MS* 4-7530||3355|OFFICE|212-854-7530
330609|Spare|276877|MS* 4-2716||3871|OFFICE|212-854-2716
330610|www.maisonfrancaise.org|277004|||||
331082|RESEARCH|277183|MC* 5-0723|||OFFICE|212-305-0723
331117|FAX|331116|MS* 4-9978|||FAX|212-854-9978
331122|MORNINGSIDE OFFICE|331121|MS* 4-8444||9606|OFFICE|212-854-8444
331124|MEDICAL CENTER|331121|MC* 6-5198|||OFFICE|212-305-5198
331126|FEDERALIST PAPER|277857|MS* 4-1653||2602|OFFICE|212-854-1653
331128|INTERNATIONAL SOCIALIST ORGANIZATION (ISO)|277857|MS* 4-4909||2602|OFFICE|212-854-4909
331171|FAX|273867|MS* 4-7329|||FAX|212-854-7329
331763|EQUIPMENT ROOM|275586|MS* 4-9568|||OFFICE|212-854-9568
331764|PHONE|275735||||OFFICE|781-0600
331784|MAILING: 1051 RVSDR (UNIT 87)|331783|||||
331785|meg2008@columbia.edu|331783|||||
331788|FAX|277255|MS* 4-6586|||FAX|212-854-6586
331790|PEER COUNSELING HELP LINE  854-HELP|277596|MS* 4-4357|||OFFICE|212-854-4357
331792|FAX|331791|MS* 4-8925|||FAX|212-854-8925
331793|FAX|328096|MS* 4-9801|||FAX|212-854-9801
331794|FAX|277854|MS* 4-0012|||FAX|212-854-0012
331796|FAX|331795|MS* 4-7400|||OFFICE|212-854-7400
331800|Deputy Vice President for Operations|461320|MS* 1-7930||4520|OFFICE|212-851-7930
331802|Executive Director for Gift Planning|461320|MS* 1-7989||4520|OFFICE|212-851-7989
332143|SPONSORED PROGRAM, OFFICE OF|279061|TC* 4105|||OFFICE|212-678-4105
332144|fax|279055|TC* 3746|||FAX|212-678-3746
332466|Custodial Manager-Academic Campus|279478|TC* 3015|||OFFICE|212-678-3015
349526|PHONE|277442||||FAX|212-854-5935
379570|LAMONT-DOHERTY|275731||||OFFICE|845-365-8550
379571|MORNINGSIDE|275731|MS* 4-4525||5505|OFFICE|212-854-4525
383830|FAX|317988|MS* 4-2458|||FAX|212-854-2458
384525|PHONE|273793|MS* 4-4909||2602|OFFICE|212-854-4909
384526|FAX|273793||||FAX|212-854-3434
384556|BANK STREET CONTINUING EDUCATION|274046|||||
384557|BANK STREET GRADUATE SCHOOL ADMISSIONS|274046||||OFFICE|875-4404
384727|FAX|384726|MC* 5-3302|||FAX|212-305-3302
384728|CHAIR'S OFFICE|274082|MC* 5-0270|||OFFICE|212-305-0270
384729|CHAIR'S OFFICE|274274|||||212-342-4766
384731|FAX|384730|IC* 1285|||FAX|212-870-1285
384937|FAX|384936|MS* 4-3434|||FAX|212-854-3434
384939|FAX|384938|MS* 4-3434|||FAX|212-854-3434
384942|CORE CURRICULUM, OFFICE OF THE|274629|MS* 4-2453||2811|OFFICE|212-854-2453
384946|FAX|384945|MS* 1-1688|||FAX|212-851-1688
384948|FAX|384947|MS* 1-2040|||FAX|212-851-2040
384950|www.columbiagreenhouse.com|274698|||||
384951|cgns@mindspring.com|274698|||||
387164|FAX|387163|MS* 4-3434|||FAX|212-854-3434
387166|FAX|274811||||FAX|212-459-3677
387167|FAX|274814||||FAX|212-678-4817
387258|FAX|387257|MS* 4-3434|||FAX|212-854-3434
387260|FAX|387259|MS* 4-7366|||FAX|212-854-7366
387261|FAX|274846||||FAX|212-666-1952
387264|ASSOCIATE DIRECTOR|274848|MS* 4-9621||2010|OFFICE|212-854-9621
387265|DEVELOPMENT OFFICER|274848|MS* 4-5959||2010|OFFICE|212-854-5959
387394|FAX|387393|IC* 1285|||FAX|212-870-1285
387397|FAX|387396|MS* 4-7060|||FAX|212-854-7060
387401|FAX|387400|IC* 3144|||FAX|212-870-3144
387507|FACULTY PRACTICES|275011|||||
387514|ALUMNI ASSOCIATION|275011|MC* 5-6881|||OFFICE|212-305-6881
387515|DEVELOPMENT OFFICE|275011|MC* 2-5612|||OFFICE|212-342-5612
388311|ADULT DENTISTRY|275011|MC* 5-9898|||OFFICE|212-305-9898
388312|GROWTH AND DEVELOPMENT|275011|MC* 5-3875|||OFFICE|212-305-3875
388313|HOSPITAL DENTISTRY|275011|MC* 5-7626|||OFFICE|212-305-7626
388314|ORAL AND DIAGNOSTIC SCIENCES|275011|MC* 5-9289|||OFFICE|212-305-9289
388315|SOCIAL AND BEHAVIORAL SCIENCES|275011|MC* 8-7179|||OFFICE|212-304-7179
388328|PHONE|275070|MS* 4-4829||4322|OFFICE|212-854-4829
388376|COMPUTATIONAL LEARNING SYSTEMS, CENTER FOR|275261|IC* 1280||7717|OFFICE|212-870-1280
388416|FAX|388415||||FAX|212-864-4847
388420|Fax|388418|MS* 4-1680|||FAX|212-854-1680
388422|AREA R BUILDINGS|275422|||||
388457|PUBLIC SAFETY|275422|MS* 4-2796||4301|OFFICE|212-854-2796
389040|ACADEMIC RESOURCE CENTER (ARC)|275697|MS* 4-4097||4106|OFFICE|212-854-4097
389288|FAX|389287|MS* 4-7260|||FAX|212-854-7260
389290|FAX|275769||||OFFICE|212-666-1952
389291|www.columbia.edu/cu/gas|275772|||||
389298|FAX|389297||||FAX|212-544-1900
389730|ASSISTANT VICE PRESIDENT'S OFFICE|389729|MS*  4-4494||4201|OFFICE|212-854-4494
389734|DINING|389729|||||
389752|HOUSING|389729|||||
389763|FAX|389761||||FAX|212-544-1900
389764|http://housing.hs.columbia.edu|389761|||||
389792|LOW LIBRARY QUESTIONS AND SCHEDULING|277651|IC* 2526|||OFFICE|212-870-2526
390032|FAX|276052|MS* 4-6309|||FAX|212-854-6309
390034|FAX|390033|MS* 1-1688|||FAX|212-851-1688
390035|www.columbia.edu/cu/iraas|276073|||||
390036|FAX|276101|MS*4-3434|||FAX|212-854-3434
390037|MORNINGSIDE|276114|MS* 1-7040|||OFFICE|212-851-7040
390042|FAX|390041|MS* 4-7060|||FAX|212-854-7060
390043|ccbh@columbia.edu|390041|||||
390044|www.columbia.edu/cu/ccbh/|390041|||||
390417|www.cheme.columbia.edu|274460|||||
390418|COMPLEX FLUIDS LAB|274460|MS* 4-1261||4721|OFFICE|212-854-1261
390419|THEORY/COMPUTATION OF SOFT MATTER LAB|274460|MS* 4-3203||4721|OFFICE|212-854-3203
390423|FAX|390422||||FAX|212-865-2749
390424|www.labyrinthbooks.com|390422|||||
390425|fax|276375|MS* 4-9225|||FAX|212-854-9225
390426|CENTER ON CORPORATE GOVERNANCE|276393|MS* 4-2194|||OFFICE|212-854-2194
390427|CENTER ON GLOBAL LEGAL PROBLEMS|276393|MS* 4-2305|||OFFICE|212-854-2305
390430|PROGRAM IN LAW, SCIENCE, AND TECHNOLOGY|276393|MS* 4-4074||4095|OFFICE|212-854-4074
390432|SOCIAL JUSTICE INITIATIVES|276393|MS* 4-4628||XXXX|OFFICE|212-854-4628
390438|Communications|276281|MS* 4-0123||3801|OFFICE|212-854-0123
390439|Library|276281|MS* 4-0390||3800|OFFICE|212-854-0390
390440|Information Technology|276281|MS* 4-6412||3812|OFFICE|212-854-6412
390441|Financial Aid|276281|MS* 4-8608||9208|OFFICE|212-854-8608
390442|Lukas Prize|276281|MS* 4-9775||3801|OFFICE|212-854-9775
390443|Tobenkin Award|276281|MS* 4-7650||3809|OFFICE|212-854-7650
390444|Mike Berger Award|276281|MS* 4-6468||3812|OFFICE|212-854-6468
390494|MAIL, TRANSPORTATION SERVICES|278219|||||
390511|Part time, Internships, Work-Study, Temporary Jobs|278187|||||
390512|TUTORING AND TRANSLATING AGENCY|278191|MS* 4-4888||5727|OFFICE|212-854-4888
390513|CU SNACKS|278191|MS* 4-0162||5727|OFFICE|212-854-0162
390514|FRATERNITY AND SORORITY AFFAIRS|331153|MS* 4-5319||4205|OFFICE|212-854-5319
390515|LIVING LEARNING CENTER|331153|MS* 4-7897|||OFFICE|212-854-7897
390516|PUBLIC SAFETY, OFFICE OF|331153|MS* 4-2796||4301|OFFICE|212-854-2796
390517|RESIDENCE HALLS:|331153|||||
390637|FAX|277420|||||212-459-3677
390642|MORNINGSIDE CAMPUS|390641|MS* 4-2796||4301|OFFICE|212-854-2796
390643|MEDICAL CENTER|390641|MC* 7-8100|||OFFICE|212-305-8100
390965|Senior Deputy Vice President for Development|461320|MS* 1-7440||4520|OFFICE|212-851-7440
390970|FAX|390969|MS* 4-2325|||FAX|212-854-2325
390999|COLUMBIA TUTORING AND TRANSLATING (STUDENT ENTERPRISES)|278670|MS* 4-4888||5727|OFFICE|212-854-4888
391359|FAX|391358|MS* 4-1680|||FAX|212-854-1680
391361|FAX|391360||||FAX|845-680-4870
392376|FAX|392375|MS* 4-3434|||FAX|212-854-3434
392378|FAX|392377||||FAX|212-854-3434
392400|AFRICAN STUDENTS ASSOCIATION|277857|MS* 4-4909||2602|OFFICE|212-854-4909
393326|TAAL|277857|MS*4-4909||2602|OFFICE|212-854-4909
393330|AMERICAN MEDICAL STUDENT ASSOCIATION (AMSA )|277857|MS*4-4909||2602|OFFICE|212-854-4909
393332|AMERICAN INSTITUTE OF AERONAUTICS & ASTRONAUTICS (AIAA )|277857|MS*4-4909||2602|OFFICE|212-854-4909
393334|BARNARD ORGANIZATION OF SOUL SISTERS (BOSS)|277857|MS*4-4909||2602|OFFICE|212-8754-4909
393336|BRAZILIAN SOCIETY|277857|MS*4-4909||2602|OFFICE|212-854-4909
393338|CHESS CLUB|277857|MS*4-4909||2602|OFFICE|212-854-4909
393342|CLUB BANGLA|277857|MS*4-4909||2602|OFFICE|212-854-4909
393344|COLUMBIA CHINA BUSINESS ASSOCIATION (CCBA )|277857|MS*4-4909||2602|OFFICE|212-854-4909
393346|COLUMBIA CLASSICAL PERFORMERS|277857|MS*4-4909||2602|OFFICE|212-854-4909
393348|COLUMBIA COMMUNITY OUTREACH|277857|MS*4-4909||2602|OFFICE|212-854-4909
393352|COLUMBIA NEUROSCIENCE SOCIETY|277857|MS*4909||2602|OFFICE|212-854-4909
393354|COLUMBIA NEW MUSIC (formerly works and process)|277857|MS*4-4909||2602|OFFICE|212-854-4909
393356|DANCE MARATHON|277857|MS*4-4909||2602|OFFICE|212-854-4909
393358|DARKROOM, SDA|277857|MS*4-4909||2602|OFFICE|212-854-4909
393360|DOLE|277857|MS*4-4909||2602|OFFICE|212-854-4909
393361|HAPA CLUB|277857|MS*4-4909||2602|OFFICE|212-854-4909
393766|FAX|274521||||FAX|212-678-8629
394579|FAX|283119|MS* 1-4270|||FAX|212-851-4270
394582|theschool.columbia.edu|283119|||||
394583|HEAD OF SCHOOL|283119|MS* 1-4284|||OFFICE|212-851-4284
394584|ASSOCIATE HEAD OF SCHOOL|283119|MS* 1-4287|||OFFICE|212-851-4287
394585|STUDENT AFFAIRS|283119|MS* 1-4288|||OFFICE|212-851-4288
394586|ADMISSIONS|283119|MS* 1-4216|||OFFICE|212-851-4216
394587|NURSE|283119|MS* 1-4272|||OFFICE|212-851-4272
394590|FAX|394589|MS* 4-2891|||FAX|212-854-2891
396356|FAX|396354||||FAX|932-5454
403686|tpi@columbia.edu|403685|||||
403687|www.thephotographyinstitute.org|403685|||||
403719|FAX|403685|MS* 4-6534|||FAX|212-854-6534
409434|PHONE|275103||||OFFICE|212-854-3202
409465|FAX|327121||||FAX|646-756-8280
409466|FAX|276094||||FAX|646-756-8280
409467|BOX OFFICE|276322||||OFFICE|212-854-7799
409468|FAX|276322||||FAX|212-854-7740
409863|HEALTH SCIENCES|277201|MC* 5-6780|||OFFICE|212-305-6780
409864|MORNINGSIDE|277201|MS* 4-8749||2215|OFFICE|212-854-8749
412495|NONSEQUITUR|277857|||2602|OFFICE|212-854-4909
412497|SIRENS|277857|||2602|OFFICE|212-854-4909
412499|SOCIETY OF INTERNATIONAL UNDERGRADUATES|277857|||2602|OFFICE|212-854-4909
412501|TAIWANESE AMERICAN STUDENTS ASSOCIATION|277857|||2602|OFFICE|212-854-4909
416578|dkv.columbia.edu|275070|||||
455887|FAX|455886||||FAX|212-246-5792
460698|ADVISORY COUNCIL SECRETARY|277736|MS* 1-2289||4600|OFFICE|212-851-2289
460708|cm2418@columbia.edu|273867|||||
460709|www.columbia.edu/cu/archaeology|273867|||||
460712|FAX|273811|MS* 4-1618|||FAX|212-854-1618
460713|www.columbia.edu/cu/amstudies|273811|||||
460722|PHONE|278777|MS* 4-7288|||OFFICE|212-854-7288
460723|DIRECTOR|273986|MS* 4-1525|||OFFICE|212-854-1525
460725|FAX|460724||||FAX|212-851-5256
460726|ASSOCIATED BUILDERS AND CONTRACTS, CU CHAPTER|277857|MS* 4-4909||2602|OFFICE|212-854-4909
460729|BHANGRA|277857|MS* 4-4909||2602|OFFICE|212-854-4909
460732|FAX|274072||||FAX|212-305-7860
460733|CREW EVENTS|274124|MS* 4-3438|||OFFICE|212-854-3438
460735|DIRECTOR'S OFFICE|460734|MS* 4-6862||7501|OFFICE|212-854-6862
460736|FAX|460734|MS* 4-2699|||FAX|212-854-2699
460738|FAX|460737|MS*4-3434|||FAX|212-854-3434
460740|www.columbia.edu/cu/ccs/|274292|||||
460750|CELL PHONE AND SMART PHONE|274836|MS* 4-8852|||OFFICE|212-854-8852
460751|VIDEO CONFERENCING|274836|MS* 4-8852|||OFFICE|212-854-8852
460900|commencement@columbia.edu|274834|||||
460901|www.class@cs.columbia.edu|384730|||||
460905|FAX|460904|MC* 5-6416|||FAX|212-305-6416
460906|mp2216@columbia.edu|460904|||||
460907|www.cmap.columbia.edu|460904|||||
460925|PLANNING AND ADMINISTRATION|274629|MS* 4-9094||2808|OFFICE|212-854-9094
460927|SCHOLARS AND FELLOWSHIPS OFFCIE|274629|MS* 4-5895||1209|OFFICE|212-854-5895
460930|FAX|460929||||OFFICE|212-851-2040
460962|scm30@columbia.edu|396354|||||
460963|www.nyp.org/allenpavilion|396354|||||
460965|FAX|460964||||FAX|212-854-3434
460966|FAX|274756||||FAX|212-851-4160
460968|magazine@columbia.edu|274756|||||
460970|FAX|460969||||FAX|212-854-3434
460971|FAX|274626||||OFFICE|944-6944
460972|info@columbiaclub.org|274626|||||
460974|FAX|460973|MC* 5-3545|||FAX|212-305-3545
460975|www.cumc.columbia.edu|460973|||||
460977|FAX|460976|MS*4-3434|||FAX|212-854-3434
460979|MIDDAY SEMINARS|274931|MS*4-8498||4121|OFFICE|212-854-8498
460982|CU STEP (CC)|277857|MS*4-4909||2602|OFFICE|212-854-4909
461114|ENVIRONMENTAL HEALTH AND SAFETY SPECIALIST|275360|MC*5-6780|||OFFICE|212-305-6708
461119|ENVIRONMENTAL SAFETY OFFICER|275360|MC*5-6780|||OFFICE|212-305-6780
461121|FIRE SAFETY ASSISTANT|275360|MC*5-6780|||OFFICE|212-305-6780
461193|FAX|274016|MC*5-7860|||FAX|212-305-7860
461194|CPMCNET.COLUMBIA.EDU/DEPT/ANATOMY|274270|||||
461195|WWW.CAT.COLUMBIA.EDU|274276|||||
461216|ASSOCIATE DEAN|461215|MS*4-0720||2607|OFFICE|212-854-0720
461218|ACADEMIC SUCCESS PROGRAMS/OPUS(CC/SEAS)|461215|MS*4-3514||4747|OFFICE|212-854-3514
461220|INTERCULTURAL RESOURCE CENTETR (IRC)|461215|MS*4-7461||5755|OFFICE|212-854-7461
461222|SCHOLARS AND FELLOWSHIPS OFFICE|461215|MS*4-5895||2607|OFFICE|212-854-5895
461235|WWW.CERC.COLUMBIA.EDU|274345|||||
461241|WWW.COLUMBIA.EDU/CU/EA/AC|275150|||||
461243|FAX|461242|MS* 1-2929|||FAX|212-851-2929
461248|DIRECTOR|461247|||||
461327|Vice President for Development|461320|MS* 1-7929||4520|OFFICE|212-851-7929
461336|Projects and Grants, Office of|388418|MS*4 -6851||2205|OFFICE|212-854-6851
461339|FAX|461338|MC* 5-6125|||FAX|212-305-6125
461340|WWW.COLUMBIAOBGYN.ORG|461338|||||
461344|INFORMATION|461343|MS* 1-1673|||OFFICE|212-851-1673
461367|FAX|461366||||FAX|212-3053545
461369|DEAN OF THE FACULTIES OF HEALTH AND SCIENCES  MEDICINE|461366|MC* 5-3592|||OFFICE|212-305-3592
461372|FAX|461371|MS* 4-7366|||FAX|212-854-7366
461377|SOF-FELLOWS@COLUMBIA.EDU|275579|||||
461380|FAX|276093|MS* 4-7925|||FAX|212-854-7925
461389|WWW.COLUMBIA.EDU/CU/FRENCH/|275674|||||
461442|ISERP@COLUMBIA.EDU|276079|||||
469926|cgns@mindspring.com|275802|||||
469927|www.columbiagreenhouse.com|275802|||||
469928|ALUMNI RELATIONS|275772|MS* 1-2177||4306|OFFICE|212-851-2177
470048|FAX|390031||||FAX|212-854-8925
470053|SOF-FELLOWS@COLUMBIA.EDU|276025|||||
470493|Sexual Violence Prevention and Response Program|278243|||||
470496|CPMCNET.COLUMBIA.EDU/DEPT/GENETICS|275726|||||
471485|WWW.ISERP.COLUMBIA.EDU|276079|||||
475963|WWW.COLUMBIA.EDU/CU/ISSO|276197|||||
475964|www.italianacademy.columbia.edu|276211|||||
475966|FAX|475965|MC* 5-6125|||FAX|212-305-6125
475968|WWW.COLUMBIAOBGYN.ORG|475965|||||
475978|UNIV.SEMINARS@COLUMBIA.EDU|278715|||||
475979|WWW.COLUMBIA.EDU/CU/SEMINARS|278715|||||
475981|FAX|475980|MS* 4-5840|||FAX|212-854-5840
476179|BUSINESS OFFICE|283119|MS* 1-4237|||OFFICE|212-851-4237
476180|cl2395@columbia.edu|277761|||||
476181|www.societyandmedicine.columbia.edu|277761|||||
476182|sof-fellows@columbia>edu|277778|||||
476183|PHONE|277845|MS* 1-2130|||OFFICE|212-851-2130
476185|OBSERVER (GS)|277857|MS* 4-4909||2602|OFFICE|212-854-4909
476187|ONE MIC (CC)|277857|MS* 4-4909||2602|OFFICE|212-854-4909
476189|POKER CLUB|277857|MS* 4-4909||2602|OFFICE|212-854-4909
476191|QUEER AWARENESS MONTH|277857|MS* 4-4909||2602|OFFICE|212-854-4909
476194|RHAPSODY IN BLUE|277857|MS* 4-4909||2602|OFFICE|212-854-4909
476196|SABOR|277857|MS* 4-4909||2602|OFFICE|212-854-4909
476198|SOLAR SPLASH|277857|MS* 4-4909||2602|OFFICE|212-854-4909
476200|SPECIAL EVENTS|277857|MS* 4-4949||2602|OFFICE|212-854-4909
476202|URBAN NEW YORK PROGRAM|277857|MS* 4-4909||2602|OFFICE|212-854-4909
476247|uwp@columbia.edu|275337|||||
476249|ENROLLMENT SERVICES|276236|||||212-678-8878
476255|www.cpmcnet.columbia.edu/dept/neurology|277151|||||
476256|www.healthsciences.columbia.edu/dept/eye|277218|||||
476257|CREW EVENTS|277278|MS* 4-3438|||OFFICE|212-854-3438
476258|CHAIR'S OFFICE|277370|MC* 5-0207|||OFFICE|212-305-0270
476259|cumc.columbia.edu/dept/physio/physio2|277370|||||
476261|www.columbia.edu/cu/psychology|277487|||||
477300|HO-EUP|277857|MS* 4-4909||2602|OFFICE|212-854-4909
477302|US MILITARY VETERANS OF COLUMBIA UNIVERSITY|277857|MS* 4-4909||2602|OFFICE|212-854-4909
477303|VIETNAMESE STUDENT ASSOCIATION|277857|MS* 4-4909||2602|OFFICE|212-854-4909
477306|MPA  IN ENVIRONMENTAL SCIENCE AND POLICY|276135|MS* 4-3142||3323|OFFICE|212-854-3142
478075|FAX|478074|MC* 5-3545|||FAX|212-305-3545
478076|WWW.CUMC.COLUMBIA.EDU|478074|||||
478078|FAX|478077|MC* 5-6416|||FAX|212-305-6416
478079|Mp2216@columbia.edu|478077|||||
478080|www.cmap.columbia.edu|478077|||||
479858|INTERIM CHAIR|277579|MC* 5-8994|||OFFICE|212-305-8994
479859|FAX|277600||||FAX|212-678-4817
479860|FAX|277527|||||212-678-4817
481993|collegepubs@bankstreet. edu|274046|||||
481994|Tompkinshall@earthlink.net|278557|||||
482083|FAX|482082||||FAX|212-864-1686
482086|columbiadeptmedicine.org|277050|||||
482087|CHAIRMAN|277592|MC* 5-1948|||OFFICE|212-305-8994
482219|Vagelos Alumnae Ctr|278846|MS* 4-2005|||OFFICE|212-854-2005
482223|FAX|482222|MS* 4-2100|||FAX|212-854-2100
482502|cpmcnet.columbia.edu/dental|275011|||||
482505|http://www.sipa.columbia.edu|276135|||||
483280|PHONE|331791|MS* 4-3687|||OFFICE|212-854-3687
483689|DEAN'S CUP|276393|||4609|OFFICE|212-854-2395
483696|ww.columbia.edu/cu/german|275738|||||
483804|info@fredfriedly.org|275670|||||
483805|www.fredfriedly.org|275670|||||
483954|JAZZ PERFORMANCE|277103|MS* 4-9862||1825|OFFICE|212-854-9862
483955|Spare|276877|MS* 4-7650||3812|OFFICE|212-854-7650
483956|FAX|274280||||FAX|212-342-0100
483957|www.bioethicscolumbia.org|329316|||||
484975|FAX|484974|MS* 4-3434|||FAX|212-854-3434
484976|ccbh@columbia.edu|387396|||||
484977|www.columbia.edu/cu/ccbh|387396|||||
484979|FAX|484978||||FAX|212-864-1686
484980|www.columbia.edu/cu/cssr|277677|||||
484981|univ.seminars@columbia.edu|277698|||||
484982|www.columbia.edu/cu/seminars|277698|||||
485367|www.cerc.columbia.edu|275384|||||
485371|kc298@columbia.edu|485370|||||
489339|www.columbia.edu/cu/arthistory|273909|||||
489341|PHONE|489340|MS* 4-2877|||OFFICE|212-854-2877
489348|OFFICE|489340|||||
490365|PHONE|275876||||OFFICE|212-342-0429
491058|www.columbia.edu/cu/philosophy|277267|||||
491060|FAX|491059|MS* 4-3434|||FAX|212-854-3434
491621|ADMISSIONS|278514|MS* 4-9666||4119|OFFICE|212-854-9666
491714|ACTIVITIES BOARD AT COLUMBIA (ABC)|277857|MS* 4-4909||2602|OFFICE|212-854-4909
491715|ADVERTISING, MARKETING, MEDIA AND PUBLIC RELATIONS (AMMP)|277857|MS* 4-4909||2602|OFFICE|212-854-4909
491718|COLUMBIA SCIENCE TECHNOLOGY LAW REVIEW|276393|MS* 4-2395||4906|OFFICE|212-854-2395
492255|FAX|492254||||FAX|212-678-8217
492257|FAX|279037|TC* 3723|||FAX|212-678-3723
492259|FAX|279061|TC* 3749|||FAX|212-678-3749
492265|Fax|279201|TC* 3237|||FAX|212-678-3237
492800|FINANCIAL AID OFFICE|279208|TC* 3714|||OFFICE|212-678-3714
492802|ASSOCIATE DEAN FOR ENROLLMENT AND STUDENT SERVICES|279208|TC* 3423|||OFFICE|212-678-3423
492805|FAX|279876||||FAX|212-678-3723
492822|Fax|279723||||FAX|212-678-3205
492823|FAX|279701|TC* 8217|||FAX|212-678-8217
492827|FAX|279446|TC* 3005|||FAX|212-678-3005
492835|Fax|279665|TC* 8129|||FAX|212-678-8129
492850|FAX|279190|TC* 4048|||FAX|212-678-4048
493892|MORNINGSIDE CAMPUS|493891|MS* 4-4179||7501|OFFICE|212-854-4179
493894|MEDICAL CENTER|493891|MC* 5- 4198|||OFFICE|212-305-4198
493900|FAX|279568|TC* 8227|||FAX|212-678-8227
494016|FAX|279595|TC* 8227|||FAX|212-678-8227
494713|Grants and Contracts Accounting|279179|TC* 4112|||OFFICE|212-678-4112
494715|RUTH VINZ, DIRECTOR|494714|TC* 3191|||OFFICE|212-678-3191
494735|Employee Assistance Program (EAP)|494734||||OFFICE|212-935-3030
494738|FAX|494737|TC* 3739|||FAX|212-678-3739
494740|FAX|494739|TC* 3201|||FAX|212-678-3201
518589|Information Line|518588|MS* 4-1919|||OFFICE|212-854-1919
518590|Administrative Offices|518588|||||
518594|Computing and Networking Services|518588|||||
518612|Dial-up Lines|518588|||||
518613|KERMIT Software|518588|||||
518614|Voice Communications Services|518588|||||
518698|TREASURER|278656|MS* 4-1079||3206|OFFICE|212-854-1079
518940|fax|279973|MS* 4-3012|||FAX|212-854-3012
518942|Columbia University Archives|518941|MS* 4-3786||4316|OFFICE|212-854-3786
518943|fax|518941||||FAX|212-222-1017
519018|Associate Vice President for Academic Affairs|278737|MS* 4-8298||4315|OFFICE|212-854-8298
519129|Fax|278756|MS* 4-7380|||FAX|212-854-7380
519130|Fax|477298|MS* 1-1557|||FAX|212-851-1557
519305|fax|519304||||FAX|212-854-6171
519682|Burke Library at Union Theological Seminary|276653|MS* 1-5606||9601|OFFICE|212-851-5606
519694|www.columbia.edu/cu/ombuds|277211|||||
519695|www.nursing.hs.columbia.edu|277183|||||
519816|Columbia University Employment Information Center|275246|MS* 1-1551|||OFFICE|212-851-1551
521760|Alpha Phi Alpha|275641|MS* 4-9134||4205|OFFICE|212-854-9134
521761|Kappa Phi Lambda|275641|MS* 4-9134||4205|OFFICE|212-854-9134
521762|Lambda Upsilon Lambda|275641|MS* 4-9134||4205|OFFICE|212-854-9134
521763|Omege Psi Phi|275641|MS* 4-9134||4205|OFFICE|212-854-9134
521764|Sigma Lambda Upsilon|275641|MS* 4-9134||4205|OFFICE|212-854-9134
521765|Theta Nu Xi|275641|MS* 4-9134||4205|OFFICE|212-854-9134
522265|fax|273783|MS* 4-2127|||FAX|212-854-2127
522266|Fax|273814|MC* 2-3013|||FAX|212-342-3013
522513|www.columbia.edu/cu/law/apalsa|273996|||||
522515|OFFICE|522514|MS* 4-4909||2602|OFFICE|212-854-4909
522516|FAX|522514|MS* 4-3434|||FAX|212-854-3434
522579|FAX|273808|MS* 4-3434||2602|FAX|212-854-3434
522582|DEVELOPMENT AND ALUMNI AFFAIRS|273877|MS* 4-9543||0330|OFFICE|212-854-9543
522583|EVENTS|273877|MS* 4-9248||0330|OFFICE|212-854-9248
522584|PUBLICATIONS|273877|MS* 4-9787||0330|OFFICE|212-854-9787
522587|BANK STREET PUBLIC RELATIONS OFFICE|274046||||OFFICE|212-961-3325
522588|FAX|274053||||FAX|212-663-9398
522593|FAX|274131|MS* 4-7380|||FAX|212-854-7380
522594|FAX|274132||||FAX|212-854-2127
522599|ADMINISTRATION|274247|MC 5-9327|||OFFICE|212-305-9327
522602|OFFICE|522601||||OFFICE|212-851-5274
522606|PHONE|274354||||OFFICE|212-781-0600
522607|FAX|274410|MS*4 2127|||FAX|212-854-2127
522608|PROTEIN AND METABOLIC ENGINEERING LAB|274460|MS* 4-1444|||OFFICE|212-854-1444
522610|COLUMBIA-NIH CENTER FOR EXCELLENCE IN GENOMIC SCIENCE|274460|MS* 4-2975||4721|OFFICE|212-854-2975
522618|FAX|274241||||FAX|212-663-9398
523308|Alice!, Columbia's Health Promotion Program|278243|||||
523460|FAX|274700||||FAX|212-663-9398
523462|FAX|523461|MS* 4-1471|||FAX|212-854-1471
523758|FAX|274738|MS* 4-3569|||FAX|212-854-3569
523765|GENERAL INFORMATION|274797|MS* 4-2284|||OFFICE|212-854-2284
523853|information|523852||||OFFICE|212-854-4630
523854|fax|523852||||FAX|2120854-4665
523863|Fax|523862|MS* 1-2929|||FAX|212-851-2929
523865|STUDENT AFFAIRS|275697|MS* 4-2881||4102|OFFICE|212-854-2881
524100|Fax|524099||||FAX|212-663-9398
524105|bahai@columbia.edu|274043|||||
524108|Payroll|275823||||OFFICE|212-939-1386
524109|Office of Medical Director|275823||||OFFICE|212-939-3872
524111|Fax|275864||||FAX|212-870-3999
524113|ADMINISTRATION|275904|MC* 5-9327|||OFFICE|212-305-9327
524295|fax|471484||||FAX|212-663-9398
524296|phone|460724||||OFFICE|212-851-5274
524299|fax|276118|IC* 3999|||FAX|212-870-3999
524300|See also Fraternities and Sororities|276126|||||
524303|CENTER ON INTERNATIONAL CONFLICT RESOLUTION|276135|MS* 4-5623||3369|OFFICE|212-854-5623
524313|fax|524312|MS* 4-8479|||FAX|212-854-8479
527997|www.italianpoetry@columbia.edu|524312|||||
527998|italianpoetry@columbia.edu|524312|||||
527999|itacademy@columbia.edu|276211|||||
528234|fax|274988|MS* 4-6972|||FAX|212-854-6972
528236|fax|528235||||FAX|212-854-6972
528237|Jazz Performance, Louis Armstrong|276226|MS* 4-9862||4927|OFFICE|212-854-9862
528239|Fax|528238|MS* 4-3012|||FAX|212-854-3012
528243|fax|528242|MS* 4-3569|||FAX|212-854-3569
528245|Program Coordinator|276648|MS* 4-4932||4307|OFFICE|212-854-4932
528381|Chairman|277018|MS* 4-4112||4406|OFFICE|212-854-4112
528382|Business Office|277018|MS*4 3950||4406|OFFICE|212-854-3950
528387|Fax|528386|IC* 3999|||FAX|212-870-3999
528390|www.columbia.edu/cu/nblj|277118|||||
528391|Fax|394589|MS* 4-2891|||FAX|212-854-2891
528396|Fax|277377|MS* 4-9493|||FAX|212-854-9493
528680|fax|528679|MS* 4-3434|||FAX|212-854-3434
528822|faX|528821|MS* 4-3434|||FAX|212-854-3434
529060|Fax|529059|TC* 3358|||FAX|212-678-3358
529176|Instructional Media Lab|529059|TC* 3559|||OFFICE|212-678-3559
529177|Microcomputer Classroom|529059|TC* 3807|||OFFICE|212-678-3807
529178|Student Computing Support Center|529059|TC* 3304|||OFFICE|212-678-3304
529179|Workshop Information|529059|TC* 3302|||OFFICE|212-678-3302
529182|Fax|529181|TC* 4171|||FAX|212-678-4171
529183|Action Arts|279055|TC* 3298|||OFFICE|212-678-3298
529184|Applied Linguistics, Program in|279055|TC* 3795|||OFFICE|212-678-3795
529185|Art and Art Education, Program in|279055|TC* 3419|||OFFICE|212-678-3419
529186|Arts Administration, Program in|279055|TC* 3268|||OFFICE|212-678-3268
529187|Community English Program|279055|TC* 3279|||OFFICE|212-678-3279
529188|Community Studios Program|279055|TC* 3419|||OFFICE|212-678-3419
529189|Creative Arts Laboratory (CAL)|279055|TC* 3715|||OFFICE|212-678-3715
529190|English Education, Program in|279055|TC* 3070|||OFFICE|212-678-3070
529191|Graduate Writing Center|279055|TC* 3789|||OFFICE|212-678-3789
529192|Heritage School|279055|TC* 3270|||OFFICE|212-678-3270
529193|History and Education, Program in|279055|TC* 4138|||OFFICE|212-678-4138
529194|Philosophy and Education, Program in|279055|TC* 8239|||OFFICE|212-678-8239
529195|Photography Studio|279055|TC* 5009|||OFFICE|212-678-5009
529196|Printmaking Studio|279055|TC* 4102|||OFFICE|212-678-4102
529197|Religion and Education, Program in|279055|TC* 8180|||OFFICE|212-678-8180
529198|Research Center for Arts and Culture|279055|TC* 3271|||OFFICE|212-678-3271
529199|Sculpture Studio|279055|TC* 4102|||OFFICE|212-678-4102
529200|Social Studies, Program in|279055|TC* 4083|||OFFICE|212-678-4083
529201|Teaching of Spanish, Program in|279055|TC* 8101|||OFFICE|212-678-8101
529202|TESOL (Teaching English to Speakers of Other Languages)|279055|TC* 3795|||OFFICE|212-678-3795
529203|TESOL Certificate Program|279055|TC* 3459|||OFFICE|212-678-3459
529206|INSTITUTIONAL STUDIES, OFFICE OF|279061|TC* 3706|||OFFICE|212-678-3706
529208|Accounting, Cash & Investment Services|529207|TC* 3016|||OFFICE|212-678-3016
529209|Payroll|529207|TC* 3047|||OFFICE|212-678-3047
529210|Risk Management|529207|TC* 8164|||OFFICE|212-678-8164
529213|fax|529212||||FAX|212-678-3117
529214|Director|275912||||OFFICE|212-854-1277
529231|Fax|529230|MS*4- 2325|||FAX|212-854-2325
529232|Applied Physiology, Program in|279068|TC* 3325|||OFFICE|212-678-3325
529233|Audiology, Program in|279068|TC* 3409|||OFFICE|212-678-3409
529234|Edward D. Mysak Speech and Hearing Clinic|279068|TC* 3409|||OFFICE|212-678-3409
529235|Language and Cognition Lab|279068|TC* 8169|||OFFICE|212-678-8169
529236|Motor Learning, Program in|279068|TC* 3325|||OFFICE|212-678-3325
529237|Movement Science, Program in|279068|TC* 3325|||OFFICE|212-678-3325
529238|Neurocognition of Language Lab|279068|TC* 8162|||OFFICE|212-678-8162
529239|Neuroscience and Education, Program in|279068|TC* 8162|||OFFICE|212-678-8162
529240|Physical Education, Program in|279068|TC* 3324|||OFFICE|212-678-3324
529241|Speech and Language Pathology, Program in|279068|TC* 3895|||OFFICE|212-678-3895
529242|Accounts Payable|279203|TC* 3055|||OFFICE|212-678-3055
529243|Document Services|279203|TC* 3703|||OFFICE|212-678-3703
529244|Mail Room|279203|TC* 3700|||OFFICE|212-678-3700
529245|Purchasing and admin Services|279203|TC* 3136|||OFFICE|212-678-3136
529246|Shipping and Receiving Department|279203|TC* 3721|||OFFICE|212-678-3721
529253|Fax|279151||||FAX|212-678-3243
529254|Fax|279179||||FAX|212-678-8406
529366|Clinical Psychology, Program in|279192|TC* 3267|||OFFICE|212-678-3267
529367|Counseling Psychology, program in|279192|TC* 3397|||OFFICE|212-678-3397
529368|CW Post|279201|TC* 3801|||OFFICE|212-678-3801
529369|Curriculum and Teaching, Program in|279201|TC* 3765|||OFFICE|212-678-3765
529370|Early Childhood Education, Program in|279201|TC* 3873|||OFFICE|212-678-3873
529371|Early Childhood Special Education, Program in|279201|TC* 3873|||OFFICE|212-678-3873
529372|Elementary Education (Preservice), Program in|279201|TC* 3695|||OFFICE|212-678-3695
529373|Giftedness, Program in|279201|TC* 3765|||OFFICE|212-678-3765
529374|Hollingworth Centery|279201|TC* 3851|||OFFICE|212-678-3851
529375|Hollingworth Preschool|279201|TC* 4001|||OFFICE|212-678-4001
529376|Learning Disabilities, Program in|279201|TC* 3873|||OFFICE|212-678-3873
529377|Multisensory Teaching of Basic Language skills|279201|TC* 3080|||OFFICE|212-678-3080
529378|National Center for Restructuring Education, School and Teaching (NCREST)|279201|TC* 3432|||OFFICE|212-678-3432
529379|Reading and Learning Disabilities, Programm in|279201|TC* 3873|||OFFICE|212-678-3873
529380|Reading and Writing Project|279201|TC* 3104|||OFFICE|212-678-3104
529381|Rita Gold Early Childhood Center|279201|TC* 3013|||OFFICE|212-678-3013
529382|Fax|279417||||FAX|212-678-3723
529383|Alumni Council|279417|TC* 3797|||OFFICE|212-678-3797
529384|Event Planning|279417|TC* 3716|||OFFICE|212-678-3716
529385|External Affairs|279417|TC* 3412|||OFFICE|212-678-3412
529386|Gifts and Alumni Record Processing|279417|TC* 3077|||OFFICE|212-678-3077
529387|Strategic Planning, Office of|279417|TC* 3314|||OFFICE|212-678-3314
529388|Fax|279442|TC* 3793|||FAX|212-678-3793
529390|Fax|529389||||FAX|212-678-3201
529397|Fax|279495||||FAX|212-678-8330
529402|Fax|279518||||FAX|212-678-3003
529403|Fax|279513||||OFFICE|212-678-8110
529404|Applied Behavior Analysis, Program in|279519|TC* 3880|||OFFICE|212-678-3880
529405|Blindness and visual Impairment, Program in|279519|TC* 3878|||OFFICE|212-678-3878
529406|Deaf and Hard of Hearing, Program in|279519|TC* 3880|||OFFICE|212-678-3880
529407|Guidance and Rehabilitation (Sp. Ed.), Program in|279519|TC* 3880|||OFFICE|212-678-3880
529408|Health Education, Program in|279519|TC* 3964|||OFFICE|212-678-3964
529409|Hearing, Program in|279519|TC* 3867|||OFFICE|212-678-3867
529410|Mental Retardation, Program in|279519|TC* 3880|||OFFICE|212-678-3880
529411|Nursing, Professional Role, Program in|279519|TC* 3120|||OFFICE|212-678-3120
529412|Nutrition and Education, Program in|279519|TC* 3950|||OFFICE|212-678-3950
529413|Physical Disabilities, Program in|279519|TC* 3859|||OFFICE|212-678-3859
529414|Reading Specialist, Program in|279519|TC* 3942|||OFFICE|212-678-3942
529415|School Psychology, Program in|279519|TC* 3942|||OFFICE|212-678-3942
529416|Special Education|279519|TC* 3880|||OFFICE|212-678-3880
529573|Fax|529570||||FAX|212-678-3243
529574|Fax|529571||||FAX|212-678-3243
529577|Applied Statistics, Program in|279554|TC* 4150||||212-678-4150
529578|Cognitive Studies in Education, Program in|279554|TC* 4190|||OFFICE|212-678-4190
529579|Developmental Psychology, Program in|279554|TC* 4190|||OFFICE|212-678-4190
529580|Measurement and Evaluation, Program in|279554|TC* 4150|||OFFICE|212-678-4150
529581|Policy Studies, Concentration in|279554|TC* 4150|||OFFICE|212-678-4150
529582|Sociology and Education, Program in|279554|TC* 4150|||OFFICE|212-678-4150
529584|www.law.columbia.edu/studentservices|277782|||||
529586|Mellon Visiting Scholars Program|279569|TC* 8401|||OFFICE|212-678-8401
529587|Office of the Director|279569|TC* 3158|||OFFICE|212-678-3158
529588|Supplementary Education|279569|TC* 3413|||OFFICE|212-678-3413
529589|Training for Information and Advocacy|279569|TC* 3433|||OFFICE|212-678-3433
529590|Fax|279569|TC* 4137|||FAX|212-678-4137
529593|Anthropology and Education, Program in|279596|TC* 3309|||OFFICE|212-678-3309
529594|Applied Anthropology, Program in|279596|TC* 3309|||OFFICE|212-678-3309
529595|Bilingual Extension Institute for Speech Language Providers|279596|TC* 3890|||OFFICE|212-678-3890
529596|Bilingual/Bicultural Education, Program in|279596|TC* 3758|||OFFICE|212-678-3758
529597|Center for African Education|279596|TC* 8139|||OFFICE|212-678-8139
529598|Center on Chinese Education|279596|TC* 3814|||OFFICE|212-678-3814
529599|Comparative Education, Program in|279596|TC* 3184|||OFFICE|212-678-3184
529600|Economics and Education, Program in|279596|TC* 3763|||OFFICE|212-678-3763
529601|Enbelwood Center on the Family as Educator|279596|TC* 3187|||OFFICE|212-678-3187
529602|Institute of International Studies|279596|TC* 4040|||OFFICE|212-678-4040
529603|Institute on Education and the Economy (IEE)|279596|TC* 3091|||OFFICE|212-678-3091
529604|International Educational Development|279596|TC* 3184|||OFFICE|212-678-3184
529605|National Center for the study of Privatization in Educatio|279596|TC* 8117|||OFFICE|212-678-8117
529606|Peace Education, Center on|279596|TC* 8116|||OFFICE|212-678-8116
529613|Fax|278191||||FAX|212-663-9398
529614|Columbia Guide to New York|278191|MS* 4-2804|||OFFICE|212-854-2804
529615|Case-Based Technologies to Enhance Literacy Learning (CTELL)|279665||||OFFICE|212-870-8960
529616|Center for Technology and School Change|279665|TC* 3773|||OFFICE|212-678-3773
529617|Center for Urban Science Education|279665|TC* 8309|||OFFICE|212-678-8309
529618|Communication and Education, Program in|279665|TC* 3344|||OFFICE|212-678-3344
529619|Computing and Education, Program in|279665|TC* 3344|||OFFICE|212-678-3344
529620|Institute for Learning Technologies (ILT)|279665|TC* 4000|||OFFICE|212-678-4000
529621|Instructional Technology and Media, Program in|279665|TC* 3344|||OFFICE|212-678-3344
529622|Mathematics Education, Program in|279665|TC* 3381|||OFFICE|212-678-3381
529623|Science Education, Program in|279665|TC* 8174|||OFFICE|212-678-8174
529624|Fax|279668||||FAX|212-678-4043
529625|Video Services (Information)|279668|TC* 3359|||OFFICE|212-678-3359
529629|Assessment Coordinator|529628|TC* 4157|||OFFICE|212-678-4157
529630|Director|529628|TC* 4157|||OFFICE|212-678-4157
529698|Adult Learning and Leadership|279698|TC* 3760|||OFFICE|212-678-3760
529699|Higher and Postsecondary education, Program in|279698|TC* 3750|||OFFICE|212-678-3750
529700|J.M. Huber Institute for Learning in Organizations|279698|TC* 3366|||OFFICE|212-678-3366
529701|Politics and Education, Program in|279698|TC* 3726|||OFFICE|212-678-3726
529713|Assistant to the President, President's Office|279723|TC* 4194|||OFFICE|212-678-4194
529714|Diversity & Community, Office of the President|279723|TC* 3391|||OFFICE|212-678-3391
529715|Ombudsperson, Faculty/Professional Staff|279723|TC* 3391|||OFFICE|212-678-3391
529716|Secretary of the college, President's Office|279723|TC* 4191|||OFFICE|212-678-4194
529717|Special counsel to the President (Office of Diversity & Community)|279723|TC* 3732|||OFFICE|212-678-3732
529723|Fax|279743||||FAX|212-678-8338
529724|Room Assignments|279774|TC* 3702|||OFFICE|212-678-3702
529725|ROOM ASSIGNMENTS|279754|TC* 3702|||OFFICE|212-678-3702
529726|Institutional Review Board|279810|TC* 4105|||OFFICE|212-678-4105
529727|Insurance and Immunization Records, Office of|279819|TC* 3006|||OFFICE|212-678-3006
529728|Student Organizations|279819|TC* 3690|||OFFICE|212-678-3690
529729|Student Senate|279819|TC* 3942|||OFFICE|212-678-3942
529730|TC Aquatic Center|279819|TC* 3307|||OFFICE|212-678-3307
529732|Associate Dean|279852|TC* 3502|||OFFICE|212-678-3502
529733|Associate Director, Certification Conpliance|279852|TC* 4063|||OFFICE|212-678-4063
529734|Associate Director, School-Based Support|279852|TC* 3502|||OFFICE|212-678-3502
529735|Professional Development School|279852|TC* 8357|||OFFICE|212-677-8357
529736|Secretary|279852|TC* 3502|||OFFICE|212-678-3502
529737|Fax|279854||||FAX|212-678-4149
529738|Cafeteria|279495|TC* 3168|||OFFICE|212-678-3168
529739|Housign, Residence Life and Security|279495|TC* 3235|||OFFICE|212-678-3235
529740|Human Resources, Office of|279495|TC* 3175|||OFFICE|212-678-3175
529741|Teachers College Press|279495|TC* 3929|||OFFICE|212-678-3929
530024|Information|530023|IC*  3074|||OFFICE|212-870-3074
530026|Information|530025||||OFFICE|212-870-3074
530309|Testing Library|530307|TC* 3881|||OFFICE|212-678-3881
530736|Arts  and Humanities, Department  of|279208|TC* 3799|||OFFICE|212-678-3799
530740|Biobehavioral Sciences, Department of|279208|TC* 3895|||OFFICE|212-678-3895
530741|Center for Educational and Psychological Services (CEPS)|279208|TC* 3262|||OFFICE|212-678-3262
530744|Center for opportunity and Outcomes|279208|TC* 3076|||OFFICE|212-678-3076
530745|Center for Professional Education of Teachers (CPET)|279208|TC* 3869|||OFFICE|212-678-3869
530746|Center for the Study of the Family as Educator|279208|TC* 3187|||OFFICE|212-678-3187
530747|Couseling And Clinical Psychology, Department Of|279208|TC* 3257|||OFFICE|212-678-3257
530748|Doris Dillion Center , TC Innovations|279208||||OFFICE|212-404-7821
530750|Earth Friends|279208|TC* 3955|||OFFICE|212-678-3955
530751|Emeriti Faculty Information|279208|TC* 3991|||OFFICE|212-678-3991
530752|Curriculum and Teaching, Department of|279208|TC* 3765|||OFFICE|212-678-3765
530807|Distance Learning Project|279208|TC* 8182|||OFFICE|212-678-8182
530809|Giftedness, Program in|279208|TC* 3801|||OFFICE|212-678-3801
530810|Grants and Sponsored Programs|279208|TC* 4106|||OFFICE|212-678-4106
530811|Health and Behavior Studies, Department of|279208|TC* 3964|||OFFICE|212-678-3964
530812|Health Promotion, Center for|279208|TC* 3964|||OFFICE|212-678-3964
530813|Health Service, Columbia University|279208||||OFFICE|212-854-2284
530814|Hearing Impairment, Program in|279208|TC* 3867|||OFFICE|212-678-3867
530815|Heritage School Project|279208|TC* 3360|||OFFICE|212-678-3360
530816|Horace Mann Theatre|279208|TC* 3278|||OFFICE|212-678-3278
530817|Human Development, Department of|279208|TC* 3882|||OFFICE|212-678-3882
530818|Institute for Learning Technologies (ILT)|279208|TC* 40000|||OFFICE|212-678-4000
530819|Instructional Technology and Media, Program in|279208|TC* 3344|||OFFICE|212-678-3344
530820|International and Transcultural Studies, Department of|279208|TC* 3947|||OFFICE|212-678-3947
530821|International Services, Office of|279208|TC* 3939|||OFFICE|212-678-3939
530822|Libraries, Gottesman|279208|TC* 3494|||OFFICE|212-678-3494
530823|Mathematics, Science and Technology, Department of|279208|TC* 3405|||OFFICE|212-678-3405
530824|Metropolitan School Study Council|279208|TC* 3163|||OFFICE|212-678-3163
530825|Music and Music Education, Program in|279208|TC* 3283|||OFFICE|212-678-3283
530826|Mysak, Edward D., Speech and Hearing Clinic|279208|TC* 3409|||OFFICE|212-678-3409
530827|National Center for Children and Families|279208|TC* 3338|||OFFICE|212-678-3338
530828|Nurse Executives, Program for|279208|TC* 3421|||OFFICE|212-678-3421
530829|Office of Accreditation and Assessment|279208|TC* 4157|||OFFICE|212-678-4157
530830|Organization and Leadership, Department of|279208|TC* 3258|||OFFICE|212-678-3258
530831|Peace Corps Fellows Program|279208|TC* 4080|||OFFICE|212-678-4080
530832|Philosophy and Education, Program in|279208|TC* 4138|||OFFICE|212-678-4138
530833|Physical Education, Program in|279208|TC* 3324|||OFFICE|212-678-3324
530834|Preservice Program|279208|TC* 3695|||OFFICE|212-678-3695
530835|Psychology, Social-Organizational|279208|TC* 3249|||OFFICE|212-678-3249
530836|Research Quarterly for Excise and Sport Editorial Office|279208|TC* 3731|||OFFICE|212-678-3731
530837|Teacher Education and Scholar-Based Support|279208|TC* 3502|||OFFICE|212-678-3502
530838|Teacher Opportunity Corps|279208|TC* 3466|||OFFICE|212-678-3466
530839|Teachers College Record|279208|TC* 3774|||OFFICE|212-678-3774
530840|Vice President for Academic Affairs and Dean of the College|279208|TC* 3050|||OFFICE|212-678-3050
530841|Winter Roundtable|279208|TC* 4111|||OFFICE|212-678-4111
530848|Studies in Art Education|279208|TC* 4082|||OFFICE|212-678-4082
530861|Social Organizational Psychology, Program in|279698|TC* 3249|||OFFICE|212-678-3249
530863|FAX|279818|TC* 4139|||FAX|212-678-4139
536956|Arts|273732|MS* 4-7873||1803|OFFICE|212-854-7873
537129|FAX|274270||||FAX|212-342-3013
538089|qunan@law.columbia.edu|277572|||||
538090|PHONE|274432||||OFFICE|1-800-91WOMEN
538092|www.columbiafertility.org|274437|||||
538557|Phone|538556|MS* 4-1794|||OFFICE|212-854-1794
538558|Fax|538556|MS* 4-1854|||FAX|212-854-1854
539302|Fax|539301|MS* 4-3434|||FAX|212-854-3434
539303|www.columbiaclub.org|274626|||||
539313|www.class@cs.columbia.edu|387393|||||
539569|LANDSCAPE DESIGN MASTERS PROGRAM|274931|MS* 4-9666||4119|OFFICE|212-854-9666
539573|disability@columbia.edu|275082|||||
539698|See Columbia University|539697|||||
539699|Information Technology|539697|||||
539702|Applications, Job Posting, Position Classifications|275246|||||
542458|Advanced Studies in Novel Surfactants|277175|MS* 4 -8394|||OFFICE|212-854-8394
542914|FAX|542913|MS* 4-8925|||FAX|212-854-8925
542916|FAX|542915|MS* 4-3434|||FAX|212-854-3434
549991|MODERN TIBETAN STUDIES|335644|MS* 4-1725|||OFFICE|212-854-1725
551919|amassembly@columbia.edi|273784|||||
551920|am2028@columbia.edu|274437|||||
551923|www.columbia.edu/cu/catering/|523852|||||
551924|catering@columbia.edu|523852|||||
559528|AREA R MANAGEMENT OFFICE|275422|MS* 4-9135|||OFFICE|212-854-9135
667793|FAX|383829||||FAX|212-854-4607
667794|http: www.sipa.columbia.edu/cdtr/|383829|||||
667795|cdtr@columbia.edu|383829|||||
667796|FAX|667792|MS* 4-4607|||FAX|212-854-4607
667799|http:www.sipa.columbia.edu|667792|||||
667800|cdtr@columbia.deu|667792|||||
667970|FAX|667969||||FAX|212-305-5420
673336|Information|275046|IC* 3101|||OFFICE|212-870-3101
673338|Executive Vice President for Development and Alumni Relations|461320|MS* 1-7999||4520|OFFICE|212-851-7999
673339|Vice President for Alumni Relations|461320|MS* 1-7487||4520|OFFICE|212-851-7487
673340|Columbia College - CCAAD|461320|MS* 1-7488||4520|OFFICE|212-851-7488
673341|Alumni Welcome Center|461320|MS* 1-7398||4520|OFFICE|212-851-7398
673342|Columbia University Office of Alumni and Development|461320|MS* 1-7800||4520|OFFICE|212-851-7800
673662|email: italian@columbia.edu|276215|||||
673663|website: http://www.columbia.edu/cu/italian|276215|||||
691467|CUHR Compensation|275951|MS* 1-7059||8705|OFFICE|212-851-7059
691471|CUHR Communications|275951|MS* 1-0634||8705|OFFICE|212-851-0634
691473|CUHR Employment, Employee Relations & Client Services|275951|MS* 1-7008|||OFFICE|212-851-7008
